SL,Category,Business Name,Street Address,City,State ,Zip,PhoneNumber,Email
Computer Repair,IT Services & Computer Repair,Pro-Tech IT,3311 S Rainbow Blvd #145,Las Vegas,NV,89146,702 285 9891,
Computer Repair,Mobile Phone Repair,Wireless Doctor Computer Solutions,183 N Gibson Rd Ste 170,Henderson,NV,89014,702 527 7473,
Computer Repair,IT Services & Computer Repair,Rays Mobile Onsite Computer Repair,,,,,702 542 6109,
Computer Repair,Mobile Phone Repair ,Premier Telecom iPhone Repair,4535 W Sahara Ste 112D,Las Vegas,NV,89102,702 521 9589,
Computer Repair,IT Services & Computer Repair,Sunshine Data Solutions,1705 Double Arrow Place,Las Vegas,NV,89128,702 425 3380,sales@lvdatarecovery.com
Computer Repair,IT Services & Computer Repair,MacTEK Consulting & Repairs,3085 S Valley View Blvd,Las Vegas,NV,89102,702 396 0697,webmaster@mactek.net
Computer Repair,Electronics Repair Mobile Phone Repair,iTech Customs,1717 S Decatur Blvd Booth J3,Las Vegas,NV,89102,805 232 4159,info@itechcustoms.com
Computer Repair,IT Services & Computer Repair,Guru Crew,1717 N Decatur BlvdBooth B-4,Las Vegas,NV,89108,701 714 0010,info@gurucrewlv.com.com
Computer Repair,Mobile Phone Repair ,Fast Fix Wireless iPhone Computer Ipad Repair & Cell Phone Plans,5645 S Eastern AveSte 2,Las Vegas,NV,89119,702 724 1424,GalaxyCprVegas@gmail.com
Computer Repair,IT Services & Computer Repair ,Guru Crew,1717 N Decatur Blvd Booth B-4,Las Vegas,NV,89108,701 714 0010,info@gurucrewlv.com.com
Computer Repair,Mobile Phone Repair ,Samsung Galaxy CPR,5241 W Charleston Blvd,Las Vegas,NV,89146,702 457 4000,GalaxyCprVegas@gmail.com
Computer Repair,Mobile Phone Repair ,Wireless Phone Doctors,1645 W Warm Springs Rd,Henderson,NV,89014,702 767 7775,phonedoctorslv@yahoo.com
Computer Repair,IT Services & Computer Repair,Lynk IT,,,,,805 394 5953,support@lynkitnv.com
Computer Repair,IT Services & Computer Repair,MacCure Consulting,,,,,702 438 2873,contact@maccure.com
Computer Repair,IT Services & Computer Repair ,iFIX Computer Repair,1955 Jasmine Cir,Las Vegas,NV,89123,702 366 4342,ifixlv@gmail.com
Computer Repair,IT Services & Computer Repair,CCRepairz,871 Coronado Center Dr Ste 200,Henderson,NV,89052,702 979 0033,info@ccrepairz.com
Computer Repair,IT Services & Computer Repair,Las Vegas Geeks,2400 North Tenaya Way,Las Vegas,NV,89128,702 369 4335,webmaster@lasvegasgeeks.com
Computer Repair,IT Services & Computer Repair,Technology Mechanics,6769 W Charleston Blvd Ste D,Las Vegas,NV,89146,702 812 4756,info@techmechlv.com
Computer Repair,Mobile Phone Repair,Wireless Phone Medics,3118 N Rainbow Blvd,Las Vegas,NV,89108,702 908 9288,info@wirelessphonemedicslv.com
Computer Repair,Data Recovery Electronics Repair,Majestec Office Solutions & Technologies,,Las Vegas,NV,89108,702 518 6678,info@callthemost.com
Computer Repair,IT Services & Computer Repair Web Design, Internet Service Providers,Vegas Telecom,6285 S Mojave Rd Ste E,Las Vegas,NV,89120,702 260 4559,sales@vegastelecom.com
Computer Repair,IT Services & Computer Repair ,LBA Networking,2251 N Rampart Blvd Ste 375,Las Vegas,NV,89128,702 553 3200,sales@LVMedIT.com
Computer Repair,IT Services & Computer Repair,Max Repairs Las Vegas Computer repair,1000 N Martin Luther King Blvd Ste A,Las Vegas,NV,89106,702 843 0099,maxrepairs@live.com
Computer Repair,IT Services & Computer Repair Computers,Device Pitstop Henderson,1351 W Sunset Rd Ste 110,Henderson,NV,89014,702 876 3636,nv10001@devicepitstop.com
Computer Repair,IT Services & Computer Repair,Qwerty Computers USA,330 E Warm Springs Rd,Las Vegas,NV,89119,702 726 7324,info@qwertycomputersusa.com
Computer Repair,Electronics Repair Mobile Phone Repair,iPhone DOCTOR,751 N Rancho Dr Ste 150,Las Vegas,NV,89106,702 638 7200,info@myiphonedoctor.com
Computer Repair,IT Services & Computer Repair Home Theatre Installation, Home Automation ,Geekatoo Tech Support,,,,,800 640 9005,support@geekatoo.com
Computer Repair,IT Services & Computer Repair,Just Fixing Computers,,,,,702 748 7079,david.wood@justfixingcomputers.com
Computer Repair,Mobile Phone Repair,Wireless Phone Medics - South West,7835 S Rainbow Blvd Ste 16,Las Vegas,NV,89139,702 606 1191,info@wirelessphonemedicslv.com
Computer Repair,IT Services & Computer Repair ,Laptop Repairs,1555 E Flamingo Rd,Las Vegas,NV,89119,702 832 1967,tech@laptoprepairs.com
Computer Repair,Television Service Providers IT Services & Computer Repair, Internet Service Providers,COX,3441 W Sahara Ave Ste B7,Las Vegas,NV,89102,702 489 4939,cox@modernutilities.com
Computer Repair,Web Design IT Services & Computer Repair,IV Technology,,Las Vegas,NV,89102,702 997 4919,info@lvwebpage.com
Concrete Masonry,,,,,,,,
Concrete Masonry,MasonryConcrete,Arteagas Concrete,1806 W Oakey Blvd,Las Vegas,NV,89102,702 813 9108,
Concrete Masonry,MasonryConcrete Building Supplies ,Concrete Accessories Inc,3500 Meade Ave,Las Vegas,NV,89102,702 873 4810,info@cainevada.com
Concrete Masonry,Contractors MasonryConcrete,Celebrity Patios,2421 Tech Center Ct,Las Vegas,NV,89128,702 526 4303,
Concrete Masonry,MasonryConcrete Contractors,Daltile Tile & Stone Gallery,3455 W Sunset Rd,Las Vegas,NV,89118,702 871 8453,
Concrete Masonry,MasonryConcrete ,Pebble Stone Coatings,3210 W Desert Inn Rd,Las Vegas,NV,89102,702 243 7866,
Concrete Masonry,MasonryConcrete ,Sierra Masonry,6396 McLeod Dr,Las Vegas,NV,89120,702 270 3000,
Concrete Masonry,MasonryConcrete ,Sierra Masonry,6396 McLeod Dr,Las Vegas,NV,89120,702 270 3000,sierramasonry@gmail.com
Concrete Masonry,MasonryConcrete ,Park Stone Pavers,,Las Vegas,NV,89031,702 769 5465,
Concrete Masonry,MasonryConcrete Building Supplies, Contractors,L.A. Spas,9350 W Tropicana Av,Las Vegas,NV,89147,702 251 9494,
Concrete Masonry,Contractors MasonryConcrete,Nevada Mobile Mix Inc,3450 S Procyon Ave,Las Vegas,NV,89102,702 208 7333,
Concrete Masonry,Contractors Landscaping, MasonryConcrete,Paradise Builders,5385 Cameron St,Las Vegas,NV,89118,702 242 0271,
Concrete Masonry,Contractors MasonryConcrete,The Paver Guy,4035 S Tenaya Wy,Las Vegas,NV,89147,702 431 0254,
Concrete Masonry,MasonryConcrete ,Blakeley Sam Masonry,,Las Vegas,NV,89101,702 564 7764,
Concrete Masonry,Contractors MasonryConcrete,Concrete Universal,71 N. Pecos Rd,Las Vegas,NV,89101,702 838 4444,
Concrete Masonry,Flooring Contractors, MasonryConcrete ,Concrete Texturing,3675 W Teco Ave,Las Vegas,NV,89118,702 991 1322,
Concrete Masonry,MasonryConcrete ,Daltile Natural Stone Showroom & Slab Yard,3455 W. Sunset Rd.,Las Vegas,NV,89118,702 361 6873,
Concrete Masonry,MasonryConcrete ,Americote Coating Systems,4300 N Pecos Rd,Las Vegas,NV,89115,702 648 3999,
Concrete Masonry,Pressure Washers Landscaping, MasonryConcrete,Paver Sealing Vegas,2375 E Tropicana Ave,Las Vegas,NV,89119,702 701 0388,
Concrete Masonry,Landscaping MasonryConcrete ,Tovar Landscape & Design,2600 Stratford Ave,Las Vegas,NV,89121,702 440 4738,
Concrete Masonry,MasonryConcrete ,Coronado Concrete & Masonry,5620 Stephanie St,Las Vegas,NV,89122,702 853 2312,
Concrete Masonry,Landscaping Irrigation, MasonryConcrete ,LV Yard Doctor,3325 Ali Baba Ln,Las Vegas,NV,89118,702 373 1060,lvyarddoctor@hotmail.com
Concrete Masonry,Contractors Plumbing, MasonryConcrete ,Aria Remodeling,3111 S Valley View Blvd,Las Vegas,NV,89102,702 800 1000,eddie@ariaremodeling.com
Concrete Masonry,Home Cleaning MasonryConcrete,Master Grout Surgeon,,,,,702 504 4712,jon@mastergroutsurgeon.com
Concrete Masonry,MasonryConcrete ,Artistic Masonry,,,,,702 876 1901,ArtisticMasonryLasVegas@gmail.com
Concrete Masonry,MasonryConcrete,Drew Asphalt Paving,,,,,702 656 0220,
Concrete Masonry,MasonryConcrete,Stripe A Lot,3111 S Valley View Blvd,Las Vegas,NV,89102,702 870 3585,ji@lvstriping.com
Concrete Masonry,MasonryConcrete,House Of Concrete,,,,,702 241 5246,
Concrete Masonry,Contractors Plumbing, MasonryConcrete ,Developers Choice,4480 W. Nevso Dr.,Las Vegas,NV,89103,702 873 4377,
Concrete Masonry,MasonryConcrete,Concrete Solutions,4290 Cameron St,Las Vegas,NV,89103,702 431 1003,
Concrete Masonry,MasonryConcrete,Expert Concrete Coatings,2401 West Charleston Blvd,Las Vegas,NV,89102,702 809 0173,
Concrete Masonry,Electricians Fences & Gates, MasonryConcrete ,Alumacast,105 W Charleston Blvd,Las Vegas,NV,89102,702 678 6888,alumacast43@yahoo.com
Concrete Masonry,MasonryConcrete,Ozzy D. Concrete Construction,6983 Starwood Drive,Las Vegas,NV,89147,702 502 6747,
Concrete Masonry,Landscaping MasonryConcrete, Home Decor ,Simple Creations In Concrete,1832 Hermitage Dr,Las Vegas,NV,89108,702 280 0137,
Concrete Masonry,MasonryConcrete Contractors ,Daltile Sales Service Center,3755 W Sunset Rd,Las Vegas,NV,89118,702 365 6265,
Concrete Masonry,Landscaping MasonryConcrete, Tree Services,Valley Wide Landscape and Concrete LLC,,,,,702 822 6000,
Concrete Masonry,Flooring MasonryConcrete, Contractors ,American Olean Sales Service Center,6975 S. Decatur Blvd.,Las Vegas,NV,89118,702 248 3040,
Concrete Masonry,Contractors Flooring, MasonryConcrete,A Affordable Installers,1721 S Mojave Rd,Las Vegas,NV,89104,702 739 7601,
Concrete Masonry,MasonryConcrete,Monty Malloy Masonry,3320 Wynn Road,Las Vegas,NV,89102,702 438 1004,
Concrete Masonry,MasonryConcrete,Ramco Masonry,3686 S Highland Dr,Las Vegas,NV,89103,702 253 9893,
Concrete Masonry,Contractors MasonryConcrete ,Brown Masonry,,Las Vegas,NV,89104,702 930 5661,
Concrete Masonry,MasonryConcrete,Epo Concrete,8384 Pearl Beach Ct,Las Vegas,NV,89139,702 985 3453,
Concrete Masonry,MasonryConcrete,Las Vegas Paving Corp,4420 S Decatur Blvd,Las Vegas,NV,89103,702 251 5800,
Concrete Masonry,Contractors MasonryConcrete ,Zomax Concrete Pumping,5375 Cameron St,Las Vegas,NV,89118,702 877 2250,
Concrete Masonry,MasonryConcrete,Silverstone Construction,,Las Vegas,NV,89131,702 509 4986,john.smith@email.com
Concrete Masonry,MasonryConcrete Contractors,Noriega Masonry,,Las Vegas,NV,89149,702 303 0645,
Concrete Masonry,Landscaping MasonryConcrete, Tree Services,New Image Scapes,848 N Rainbow Blvd,Las Vegas,NV,89107,702 832 5643,
Concrete Masonry,Contractors MasonryConcrete ,Neptune Masonry & Cement Cleaning Inc.,,Las Vegas,NV,89129,702 656 8826,
Concrete Masonry,MasonryConcrete,Iovino Masonry,9260 El Camino Rd,Las Vegas,NV,89139,702 253 1602,
Concrete Masonry,MasonryConcrete Contractors,Otte Mobile Mix,401 S Buffalo Dr,Las Vegas,NV,89145,702 255 7026,
Concrete Masonry,MasonryConcrete,Robbs Concrete Pumping,,Las Vegas,NV,89101,702 456 6224,ottemobilemix@yahoo.com
Concrete Masonry,Contractors Fences & Gates,J or J Welder,2870 N Commerce St,Las Vegas,NV,89030,702 372 4951,info@jorjwelder.com
Concrete Masonry,MasonryConcrete,Andres Mobile Mix Concrete,1422 Bugle Boy Dr,Henderson,NV,89014,702 456 7775,ottemobilemix@yahoo.com
Concrete Masonry,MasonryConcrete,Concrete Resurfacing Las Vegas,1173 Via Vernio,Henderson,NV,89052,702 979 7722,info@concreteresurfacinglasvegas.com
Concrete Masonry,MasonryConcrete,Centennial Concrete Design,5782 Kingsbury Rd,Las Vegas,NV,89030,702 979 7722,info@centennialconcrete.com
Concrete Masonry,Gardeners MasonryConcrete, Landscaping ,Hectors Gardening and Landscaping,,,,,909 427 9070,hls.gardening@gmail.com
Concrete Masonry,Landscape Architects,Alpha Landscape,4270 W Patrick Ln,Las Vegas,NV,89118,702 214 8000,salesanddesign@alphalandscapeslv.com
Electricians,Electricians,247 Electrical Services LLC,6541 Bradford Ln,Las Vegas,NV,89108,702 927 1054,info@24-7electricalservices.com
Electricians,Electricians Lighting Fixtures & Equipment,Eco Electric,5380 Cameron St,Las Vegas,NV,89118,702 682 2436,officemanager@ecoelectriclv.com
Electricians,Electricians,Affordable Las Vegas Electrician,,,,,760 658 7375,
Electricians,Electricians,Allstate Electric,4815 W Russell Rd,Las Vegas,NV,89118,702 868 1304,shannon@allstateelectriclv.com
Electricians,Electricians Home Theatre Installation, Home Automation,Alfonso & Co. Technology Services,,,,,702 350 6599,AlfonsonCo@gmail.com
Electricians,Electricians,Mr. Electric of Las Vegas,,Las Vegas,NV,89193,702 737 8423,
Electricians,Electricians,New Venture Henderson Electrical,10940 S Eastern Ave,Henderson,NV,89052,702 580 1414,
Electricians,Electricians Electronics Repair,Las Vegas Electrician,,Las Vegas,NV,89109,702 608 7507,uslasvegaselectrician@gmail.com
Electricians,Handyman Electricians,R & L Handyman Services,4001 S Decatur Blvd,Las Vegas,NV,89103,702 785 2798,handy_russ@yahoo.com
Electricians,Electricians,FNS Electric LLC,5032 N Valadez St,Las Vegas,NV,89149,702 491 5771,Howard4@fnselectric.com
Electricians,Electricians,German Tech Electrical Services LLC,3779 Bossa Nova Dr,Las Vegas,NV,89129,702 290 8492,germantechlv@gmail.com
Electricians,Electricians,Let There Be Light Electrical Svcs,6364 W Sahara Ave,Las Vegas,NV,89151,702 540 9975,
Electricians,Electricians,Advantage Services,7495 W Azure Dr,Las Vegas,NV,89130,702 541 8600,info@getadvantageservices.com
Electricians,Electricians Lighting Fixtures & Equipment,Task Electric,7260 Cimarron Rd,Las Vegas,NV,89113,702 985 3005,Info@TaskElectric.com
Electricians,Electricians,Eckerdt Electric,,,,,702 416 1282,
Electricians,Electricians,Pacific Electric,2919 Meade Ave,Las Vegas,NV,89102,702 433 8777,Pauline@pacificelectriclv.com
Electricians,Electricians,Vegas Pro Electrical Services,3555 S Highland,Las Vegas,NV,89103,702 339 1554,
Electricians,Electricians,Litchy Electric,3590 W Cougar Ave,Las Vegas,NV,89139,702 435 4434,estimating@litchyelectric.com
Electricians,Electricians,Can Can Electrical,5116 Yellow Dawn Ct,Las Vegas,NV,89130,702 658 6276,CanCanElectric1@aol.com
Electricians,Electricians,Anytime Electric,,Las Vegas,NV,89117,702 526 8028,
Electricians,Handyman Electricians,Lighting Las Vegas,10305 Burwood St,Las Vegas,NV,89178,702 589 1477,
Electricians,Electricians,Day One Electric,,Las Vegas,NV,89118,725 696 8762,
Electricians,Heating & Air ConditioningHVAC Contractors, Electricians,Cool Air Now AC Repair,1918 E Charleston Blvd,Las Vegas,NV,89104,702 605 6100,info@coolairconditioningnow.com
Electricians,Electricians,Softcell Electrical,,Las Vegas,NV,,702 461 2615,
Electricians,Electricians,All Lit Up Electric,10501 W Gowan Rd Ste 140,Las Vegas,NV,89129,702 240 4723,
Electricians,Electricians Solar Installation,Solar Panel Install,3565 S Las Vegas blvd,Las Vegas,NV,89109,702 472 8598,
Electricians,Electricians,Helix Electric,3078 E Sunset Road,Las Vegas,NV,89120,702 732 1188,projects@company.com
Electricians,Handyman Electricians, Plumbing,Your Las Vegas Handyman,8635 W Sahara Ave,Las Vegas,NV,89117,702 325 4318,
Electricians,Electricians,Carlson Electric Motor Service,709 N Main St,Las Vegas,NV,89101,702 384 8246,
Electricians,Electricians,Desert Home Electric,,Las Vegas,NV,89101,702 228 1727,info@deserthomeelectric.com
Electricians,Electricians,Hot Connection Electric Inc,2220 Lindell Rd,Las Vegas,NV,89146,702 254 9006,
Electricians,Electricians,BB & G Electric,3635 W Twain Ave,Las Vegas,NV,89103,702 871 7500,bbgelectriclv@aol.com
Electricians,Electricians,Master Electric Services,4985 Cecile Ave,Las Vegas,NV,89115,702 632 1399,info@masterelectricinc.com
Electricians,Electricians Lighting Fixtures & Equipment,Beach Electric,3275 W Ali Baba,Las Vegas,NV,89118,702 736 1437,
Electricians,Electricians,Williams Electric,,Las Vegas,NV,89101,702 657 1218,
Electricians,Electricians,Penny Electric,,Henderson,NV,89053,702 279 6040,email@pennyelectric.com
Electricians,Solar Installation Electricians, Professional Services,Solar-Action,8710 Mann St,Las Vegas,NV,89139,702 233 6691,Info@solar-action.com
Electricians,Electricians Lighting Fixtures & Equipment,Matthews Electrical Services,Ste 314,Henderson,NV,89074,702 426 8379,
Electricians,Electricians,Nash Electric Inc,330 E Warm Springs Rd,Las Vegas,NV,89119,702 979 2423,
Electricians,Electricians,JT Electric,9811 W Charleston Blvd,Las Vegas,NV,89117,702 343 9371,
Electricians,Electricians Home Inspectors, Lighting Fixtures & Equipment,AAA Certified Electric,,Las Vegas,NV,89109,702 333 1540,
Electricians,Electricians Pool & Hot Tub Service,Murphy Electric,7155 Bermuda Rd Ste A,Las Vegas,NV,89119,702 597 2403,
Electricians,Lighting Fixtures & Equipment Electricians, Contractors,MCOR Lighting,3175 W. Ali Baba Lane,Las Vegas,NV,89118,702 558 0533,
Electricians,Electricians,Vegas Electric,3888 W Sahara Ave,Las Vegas,NV,89102,702 752 9149,
Electricians,Electricians,M & M Electric,3655 W Dewey Dr,Las Vegas,NV,89118,702 798 1077,
Electricians,Electricians,Robertson Bright Industries LLC,452 E Silverado Ranch Blvd,Las Vegas,NV,89183,702 914 2290,
Electricians,Electricians,Beldy Electric,2754 S Highland Dr,Las Vegas,NV,89109,702 645 6296,contact@beldyelectric.com
Electricians,Solar Installation Electricians, Utilities,Jersey Solar,4325 W Patrick Ln,Las Vegas,NV,89118,877 437 6527,sales@JerseySolarLasVegas.com
Electricians,Electricians,Now Electric,3002 Rigel Ave,Las Vegas,NV,89102,702 736 4040,
Electricians,Electricians,Mojave Electric,3755 W Hacienda Ave,Las Vegas,NV,89118,702 798 2970,admin@mojaveelectric.com
Electricians,Electricians Contractors,Cordello & Co,,,,,702 235 5000,angelo@cordellocompany.com
Electricians,Electricians,Schematic Electric LLC,500 N Rainbow Blvd,Las Vegas,NV,89107,702 940 6772,info@SchematicElectricLLC.com
Electricians,Handyman Electricians, Carpeting,Nevada Repair,6509 Deadwood Rd,Las Vegas,NV,89108,702 528 8834,repairnv@gmail.com
Electricians,Electricians,Strip Emergency Electrician,3565 S Las Vegas Blvd,Las Vegas,NV,89109,702 608 8920,stripelectrican@gmail.com
Electricians,Lighting Fixtures & Equipment Electricians,Vegas LED,3261 S Highland Dr,Las Vegas,NV,89109,702 751 5177,email@vegasled.vegas
Electricians,Electricians Fences & Gates, MasonryConcrete,Alumacast,105 W Charleston Blvd,Las Vegas,NV,89102,702 678 6888,alumacast43@yahoo.com
Electricians,Electricians,Summerlin Electrician,8653 W Sahara Ave,Summerlin,NV,89117,702 608 8363,uslasvegaselectrician@gmail.com
Electricians,Plumbing Electricians,Access Services Group,126 Cassia Way,Henderson,NV,89014,702 597 1611,office@asgnv.net
Electricians,Contractors Electricians,Las Vegas Electrical Services Inc,6767 W Tropicana Ave,Las Vegas,NV,89103,702 706 1757,Info@LVESI.com
Electricians,Electricians,BriteSol LLC,5969 Mcleod Dr,Las Vegas,NV,89120,702 534 0829,sales@britesol.com
Electricians,Plumbing Electricians, Heating & Air ConditioningHVAC,Ace Services Plumbing Air Electrical,1495 Helm Dr,Las Vegas,NV,89119,702 795 3666,acea1@acea1.com
Electricians,Electricians,M+S Electric,6430 Sunset Corporate Dr,Las Vegas,NV,89120,702 545 0980,brenda@mselectriclv.com
Electricians,Handyman Electricians, Contractors,Francis Handyman Repairs,,Las Vegas,NV,89139,702 335 4033,tim@francishandymanrepairs.com
Electricians,Electricians Wholesale Stores,Emergency Lights,500 S Grand Central Pkwy,Las Vegas,NV,89106,800 480 0707,sales@emergencylights.net
Electricians,Electricians Solar Installation,Best Green Energy Solutions,4760 S Pecos Rd,Las Vegas,NV,89121,702 907 9102,bgenergysave@gmail.com
Electricians,Electricians,Next Generation Electrical Technologies,,,,,702 539 3516,Nina@Nextgenelectrical.com
Electricians,Electricians,The Electrician Smart Agent,,Las Vegas,NV,89106,702 589 1255,yourelectricalagent729@gmail.com
Electricians,Electricians,Ben David Electric Company,1675 S Mojave Road,Las Vegas,NV,89104,702 457 7707,info@nhwusa.com
Electricians,Electricians,Casas Electric,2710 E Patrick Lane,Las Vegas,NV,89120,702 597 2093,info@casaselectric.com
Electricians,Home Theatre Installation Electricians,Mountain West Electric,7225 Bermuda Rd,Las Vegas,NV,89119,702 207 4743,MWE@MountainWesteElectric.com
Electricians,Electricians,Century Electric,3440 Precision Dr,North Las Vegas,NV,89032,702 436 9500,bpool@centuryelectricllc.com
Electricians,Electricians Contractors, Heating & Air ConditioningHVAC,Lint Busters,505 Dutchman Ave,Henderson,NV,89011,702 565 2299,lynn@lintbusters.com
Electricians,Electricians Handyman,A Helping Hand Handyman Services,1716 Linn Ln,Las Vegas,NV,89156,702 812 2103,jon@helpinghandlv.com
Electricians,Electricians,TBM Electric,2371 Flute Ave,Henderson,NV,89052,702 277 5031,tbmelectric@cox.net
Electricians,Electricians Solar Installation,LED Electric,,,,,702 776 8197,ledbettereric27@gmail.com
Electricians,Electricians,Bright Lights Electric,112 Continental Ave,Henderson,NV,89015,702 553 6893,dcduey@yahoo.com
Electricians,Electricians,Native Electrical Contracting,1750 Ashburn Dr,North Las Vegas,NV,89032,702 491 5073,necnv@hotmail.com
Handyman,,,,,,,,
Handyman,Handyman,The Red Truck Handyman,1930 Village Center Cir Ste 3-224,Las Vegas,NV,89134,702 483 8104,
Handyman,Handyman Painters,Handyman Services,,,,,702 768 5700,
Handyman,Handyman,Your Handy PRO,10923 Vista Marbella Ave,Las Vegas,NV,89144,702 427 1919,yourhandypro@gmail.com
Handyman,Handyman,Call 4 Handyman,8029 W Hacienda Ave,Las Vegas,NV,89113,702 752 0758,
Handyman,Handyman,Arturo The Handyman Repairs,2113 Valley Dr,Las Vegas,NV,89108,702 569 7035,
Handyman,Contractors Handyman, Plumbing,Las Vegas Handyman,,,,,702 248 0550,
Handyman,Handyman,Mr Handy Handyman Service Inc,3855 S Valley View,Las Vegas,NV,89103,702 875 4477,mrhandylv@aol.com
Handyman,Handyman,THM Services,3651 Lindell Rd Ste D193,Las Vegas,NV,89103,702 758 4724,info@thmservicesltd.com
Handyman,Handyman,A 2 Zen Handyman,,,,,702 858 4876,
Handyman,Home Cleaning Handyman,Handy,,Las Vegas,NV,89101,,
Handyman,Handyman Painters,Mr Fix It,,,,,702 204 1447,
Handyman,Handyman Appliances & Repair,A Problem Solved Maintenance LLC,,Las Vegas,NV,89147,702 487 8875,info@aproblemsolvedllc.com
Handyman,Handyman ,Handy Dan,505 E Windmill Ln,Las Vegas,NV,89123,702 755 1769,
Handyman,Handyman Electricians,R & L Handyman Services,4001 S Decatur Blvd Ste 37,Las Vegas,NV,89103,702 785 2798,handy_russ@yahoo.com
Handyman,Handyman Painters, Drywall Installation & Repair,Renaissance Residential Maintenance,,,,,702 755 0256,
Handyman,Flooring Handyman,All-Pro Handyman,1750 Buffalo Dr,Las Vegas,NV,89128,702 752 2075,
Handyman,Handyman,My Amigo Handyman,8000 Badura AveApt 2130,Las Vegas,NV,89113,702 550 2636,
Handyman,Handyman ,Handyman Randy,,Las Vegas,NV,89120,702 203 3613,
Handyman,Handyman,Mattgyvers Helping Hands,,,,,702 639 7358,
Handyman,Carpet Cleaning Handyman,Luxe Home Service,,,,,725 696 8257,
Handyman,Painters Handyman,The Fascia Kings,1177 Matthew Ave,Las Vegas,NV,89123,702 524 1042,
Handyman,Handyman,Solve It Handyman,5418 St. Bernard Ct,Las Vegas,NV,89131,702 757 5042,
Handyman,Garage Door Services Handyman ,RXGDS,2657 Windmill Pkwy Ste 647,Henderson,NV,89074,702 275 5001,
Handyman,Handyman Flooring,J & M Flooring,7075 W Gowen Rd Ste 205,Las Vegas,NV,89129,702 337 2111,
Handyman,Handyman,Steves Handyman Servicve,218 Locust Valley Ave,Las Vegas,NV,89148,702 722 4404,
Handyman,Handyman ,Savvy Handyman,11359 Corsica Mist Ave,Las Vegas,NV,89135,702 767 7989,
Handyman,Handyman,Homer The Handyman,,,,,702 894 9000,
Handyman,Handyman,Jimmys Handyman Service,,Las Vegas,NV,,702 300 0679,
Handyman,Handyman Contractors,Silver Desert Handyman,,Henderson,NV,89012,702 370 7279,silverdeserthandyman@gmail.com
Handyman,Handyman Painters, Contractors,Castillo Construction,2789Trotwood Ln,Las Vegas,NV,89108,702 236 9223,eduardo@castilloconstruction.org
Handyman,Handyman,San Romans Handyman,,Las Vegas,NV,89147,702 370 8404,
Handyman,Handyman,Mr G Handyman Services,4523 El Campana Way,Las Vegas,NV,89121,702 672 3560,
Handyman,Damage Restoration Handyman, Drywall Installation & Repair,Handyman Las Vegas,4850 S Decatur Blvd,Las Vegas,NV,89103,725 261 2068,
Handyman,Handyman,Brothers Handyman,4706 Procyon St,Las Vegas,NV,89103,702 637 9469,
Handyman,Handyman,Mario Munoz,,Las Vegas,NV,89108,702 684 1702,
Handyman,Handyman,Axis Home Services LLC,3528 Laguna Veneta Ave,Las Vegas,NV,89141,702 417 4277,axishomeservice@gmail.com
Handyman,Handyman ,Handyman Services of Southern Nevada,925 Alan Shepard Street,Las Vegas,NV,89145,702 259 1050,
Handyman,Handyman,Southern Nevada Landlord Services,,Las Vegas,NV,89121,702 210 1994,Service@SNVLS.com
Handyman,Handyman,Allstar Handyman,9528 Kelly Creek Ave,Las Vegas,NV,89129,702 360 7310,
Handyman,Contractors Handyman,Dependable Handyman & Remodeling Services,5550 Painted Mirage RdSte 320,Las Vegas,NV,89149,702 521 2785,CS@DHSLV.com
Handyman,Handyman Contractors,Iconic Construction LLC,10009 Keifer Valley St,Las Vegas,NV,89178,702 260 9931,
Handyman,Handyman,Solyris Handyman,,,,,702 755 8701,
Handyman,Handyman,Dc Service Handyman,,Las Vegas,NV,89122,702 979 8081,
Handyman,Plumbing Handyman,SC Plumbing & Handyman,6955 N Durango Dr,Las Vegas,NV,89149,702 556 7856,
Handyman,Handyman ,Sam The Man,,,,,702 683 0081,
Handyman,Handyman,Ron Morey Handyman Services,5601 Shuttle Ct,Las Vegas,NV,89103,702 630 9193,
Handyman,Handyman Electricians, Plumbing,Your Las Vegas Handyman,8635 W Sahara Ave,Las Vegas,NV,89117,702 325 4318,
Handyman,Handyman,Davids Handyman Services,,,,,702 241 4317,
Handyman,Handyman,Sears Handyman Services,,,,,702 538 8619,
Handyman,Handyman,Valleywide Handyman,,,,,702 417 1902,
Handyman,Handyman,Fixing Las Vegas Handyman,6539 Pecan Grove Ct Ste 201,Las Vegas,NV,89142,702 290 5881,
Handyman,Handyman,RG Handyman Services,5100 Obannon Dr,Las Vegas,NV,89146,714 404 7871,
Handyman,Handyman,Sell Ready Handyman Services,848 N Rainbow BlvdSte 101,Las Vegas,NV,89107,702 595 0388,sellreadycrp@gmail.com
Handyman,Handyman Electricians, Carpeting,Nevada Repair,6509 Deadwood Rd,Las Vegas,NV,89108,702 528 8834,repairnv@gmail.com
Handyman,Handyman,Meyer Handyman Service,5850 Medallion Dr Ste 202,Las Vegas,NV,89122,702 610 5215,meyerhandymanservice@yahoo.com
Handyman,Handyman Plumbing, Heating & Air ConditioningHVAC,WC Maintenance Services,8832 Borla Dr,Las Vegas,NV,89117,702 902 0982,wcmaintserv@yahoo.com
Handyman,Handyman,Jemco Handyman Service,3925 Costa Mesa Ave,Las Vegas,NV,89110,702 502 4599,jemco.biz@gmail.com
Handyman,Contractors ,MRC Builders,4544 w. Russell Rd. Suite A,Las Vegas,NV,89118,702 220 4845,mrcbuilders@yahoo.com
Handyman,Contractors,K-C MaintenanceInc,4710 W Post Rd Ste 145,Las Vegas,NV,89118,702 228 5552,kcm@kcmaint.com
Handyman,Contractors Plumbing, MasonryConcrete,Aria Remodeling,3111 S Valley View Blvd Unit B120,Las Vegas,NV,89102,702 800 1000,eddie@ariaremodeling.com
Handyman,Contractors,Sati Construction,5031 Sobb Ave,Las Vegas,NV,89138,702 767 7666,info@saticonstruction.com
Handyman,Property Management ,Hot Point Realty,6292 W Spring Mountain Rd,Las Vegas,NV,89146,702 248 1818,info@hotpointlv.com
Handyman,Contractors Plumbing,A Family Handyman,5444 bentley ave,Las Vegas,NV,89142,702 280 9519,Chris@afamilyhandyman.com
Handyman,Contractors,Southwestern Custom Construction LLC,1210 Wigwam Pkwy,Henderson,NV,89074,702 998 8939,bids@swccllc.com
Handyman,Plumbing Water Heater InstallationRepair, Water Purification Services,Colburn Enterprises,2475 Chandler AveSte 17,Las Vegas,NV,89120,702 433 5605,colburn@lvcoxmail.com
Handyman,Plumbing,Pipe Dreams Plumbing,,,,,702 768 0428,info@pipedreamsplumbingco
Handyman,Windows Installation Glass & Mirrors,Cut Rate Glass Inc,5179 W Oquendo Rd,Las Vegas,NV,89118,702 292 9977,sales@cutrateglass.com
Handyman,Plumbing Heating & Air ConditioningHVAC,Number One Plumbing Heating & Air Conditioning,4131 W Oquendo RdSte 1,Las Vegas,NV,89118,702 850 9997,info@numberonelv.com
Handyman,Plumbing,Pure Plumbing,6255 McLeod DrSte 8,Las Vegas,NV,89120,702 534 1910,pureplumbinglasvegas@gmail.com
Handyman,Plumbing,Precision Plumbing,7500 W Lake Mead Blvd,Las Vegas,NV,89128,702 253 6363,support@precisionplumbinglv.com
Handyman,Contractors,Castillo Construction,,North Las Vegas,NV,89031,702 236 9223,eduardo@castilloconstruction.org
Handyman,Contractors,Servicemaster,7380 Eastgate Rd Ste 160,Henderson,NV,89011,702 896 4197,gflores@drylasvegas.com
Home Remodel,,,,,,,,
Home Remodel,Home Remodel,LV Restoration Inc.,500 N Rainbow Blvd,Las Vegas,NV,89107,725 777 0065,joe@lvrestoration.com
Home Remodel,Home Remodel,Xtreme Interiors Inc.,8040 Radigan Ave,Las Vegas,NV,89131,702 217 3377,XTREMEINTERIORS@YAHOO.COM
Home Remodel,Home Remodel,Team Tile & Stone,905 Joseph Kerwin Dr,Las Vegas,NV,89145,702 771 1771,estimates@teamtileandstone.com
Home Remodel,Home Remodel,Chermac Builders,2634 Westwood Dr,Las Vegas,NV,89109,702 732 7601,
Home Remodel,Home Remodel,Daltile Tile & Stone Gallery,,Las Vegas,NV,89118,702 871 8453,
Home Remodel,Home Remodel,Castillo Construction,2789Trotwood Ln,Las Vegas,NV,89108,702 236 9223,
Home Remodel,Home Remodel,Custom Closet Systems,6380 S Valley View Blvd,Las Vegas,NV,89118,702 360 0903,service@customclosetvegas.com
Home Remodel,Home Remodel,Fletcher Door and Trim,1073 Lacebark Ct,Las Vegas,NV,89123,702 340 4093,
Home Remodel,Home Remodel,MRC Builders,4544 w. Russell Rd. Suite A,Las Vegas,NV,89118,702 220 4845,mrcbuilders@yahoo.com
Home Remodel,Home Remodel,Closets Las Vegas,7060 W Warm Springs,Las Vegas,NV,89113,702 259 3000,joe@closetslasvegas.com
Home Remodel,Home Remodel,New Freedom Properties,7350 Dean Martin Dr,Las Vegas,NV,89139,702 483 1637,info@newfreedomproperties.org
Home Remodel,Home Remodel,CabinetCraft,7871 W Charleston Blvd,Las Vegas,NV,89117,702 233 1888,info@cabinetcraftvegas.com
Home Remodel,Home Remodel,BRLs Windows & Doors,4310 Losee Rd,Las Vegas,NV,89030,702 876 6579,buildingresource@earthlink.net
Home Remodel,Home Remodel,Builders United,5525 S Valley View Blvd,Las Vegas,NV,89118,702 706 2842,
Home Remodel,Home Remodel,Fresh Coat of Las Vegas,10300 W Charleston Blvd,Las Vegas,NV,89135,702 410 6991,
Home Remodel,Home Remodel,California Pools - Las Vegas,Ste 13-36,,,,800 282 7665,
Home Remodel,Home Remodel,Energy Efficient Remodel Home,7224 Carmen Blvd,Las Vegas,NV,89128,702 534 5054,annette@greenalliancenv.org
Home Remodel,Home Remodel,Custom Outdoor Living,5525 S Valley View Blvd,Las Vegas,NV,89118,702 759 2739,
Home Remodel,Home Remodel,Fernandez Construction,5353 S Valley View Blvd,Las Vegas,NV,89118,702 871 6024,
Home Remodel,Home Remodel,Ranieri Construction LLC,8237 Arch Bay Ln,Las Vegas,NV,89128,702 376 7980,
Home Remodel,Home Remodel,Ideal Plumbing Services,3508 E Charleston Blvd,Las Vegas,NV,89104,702 475 3292,info@idealservices.com
Home Remodel,Home Remodel,Las Vegas Handyman,,,,,702 248 0550,
Home Remodel,Home Remodel,Curts Home Repairs,,,,,702 880 8115,
Home Remodel,Home Remodel,Master Craftsmen,3111 S Valley View Blvd,Las Vegas,NV,89102,702 312 4606,
Home Remodel,Home Remodel,Axiom Construction & Management,3960 Howard Hughes Pkwy,Las Vegas,NV,89169,702 990 3517,
Home Remodel,Home Remodel,Brooklynn Stone,,,,,702 515 9511,
Home Remodel,Home Remodel,Las Vegas Home Remodel,5329 Cameron St,Las Vegas,NV,89118,877 207 8885,
Home Remodel,Home Remodel,J & J Contracting,Las Vegas NV 89118,,,,702 773 1842,
Home Remodel,Home Remodel,Merlin Contracting and Development,6408 Arville St,Las Vegas,NV,89118,702 257 8102,
Home Remodel,Home Remodel,Kitchenland,6455 Dean Martin Dr,Las Vegas,NV,89118,702 896 0265,
Home Remodel,Home Remodel,Jaimes Concrete Inc.,800 N Rainbow,Las Vegas,NV,89107,702 285 8788,jaimesconcreteinc@gmail.com
Home Remodel,Home Remodel,Action Plumbing,2505 Chandler Ave,Las Vegas,NV,89120,702 405 6555,
Home Remodel,Home Remodel,Westland Builders,Ste 5,Las Vegas,NV,89103,,
Home Remodel,Home Remodel,A Granite MD,2146 Highland Ave,Las Vegas,NV,89102,,
Home Remodel,Home Remodel,Iconic Construction LLC,10009 Keifer Valley St,Las Vegas,NV,89178,702 260 9931,
Home Remodel,Home Remodel,F & L Home Improvements,5235 Glendale Ave,Las Vegas,NV,89156,702 452 7721,
Home Remodel,Home Remodel,Blue Haven Pools & Spas,1126 S Rainbow Blvd,Las Vegas,NV,89146,702 795 9500,
Home Remodel,Home Remodel,Remodeling-Pros,10620 Southern Highlands Pkwy,Las Vegas,NV,89141,702 522 1919,
Home Remodel,Home Remodel,Aria Remodeling,3111 S Valley View Blvd,Las Vegas,NV,89102,702 800 1000,
Home Remodel,Home Remodel,Vegas Remodel,7560 Rancho Destino Rd,Las Vegas,NV,89123,702 772 3745,
Home Remodel,Home Remodel,MCOR Lighting,3175 W. Ali Baba Lane,Las Vegas,NV,89118,702 558 0533,
Home Remodel,Home Remodel,Copper Creek Construction,5980 Topaz St,Las Vegas,NV,89120,702 898 7873,
Home Remodel,Home Remodel,GraEagle Construction LLC,5016 Cecile Ave,Las Vegas,NV,89115,702 248 0170,info@gecsoars.com
Home Remodel,Home Remodel,Modern Building Granite Supply,3111 S Valley View Boulevard,Las Vegas,NV,89102,702 889 4788,
Home Remodel,Home Remodel,Cimarron Development Inc,,,,,702 210 0957,
Home Remodel,Home Remodel,Impressions Tile & Marble,7250 Polaris Ave,Las Vegas,NV,89118,702 860 2271,
Home Remodel,Home Remodel,Elite Flooring Plus,2555 E Tropicana Ave,Las Vegas,NV,89121,702 384 8551,
Home Remodel,Home Remodel,Dependable Handyman & Remodeling Services,5550 Painted Mirage Rd Ste 320,Las Vegas,NV,89149,702 521 2785,CS@DHSLV.com
Home Remodel,Home Remodel,K-C MaintenanceInc.,4710 W Post Rd Ste 145,Las Vegas,NV,89118,702 228 5552,kcm@kcmaint.com
Home Remodel,Home Remodel,Futures Building Company,7440 Coley Ave,Las Vegas,NV,89117,702 878 8595,rickj@futuresbuildingcompany.com
Home Remodel,Home Remodel,Oasis Springs Builders,8130 S Valley View Blvd,Las Vegas,NV,89139,702 598 3724,thebuilders@embarqmail.com
Home Remodel,Home Remodel,ALKO LLC,,Las Vegas,NV,89147,702 328 1192,nx@alkolv.com
Home Remodel,Home Remodel,Sati Construction,5031 Sobb Ave,Las Vegas,NV,89138,702 767 7666,info@saticonstuction.com
Home Remodel,Home Remodel,Committed Companies,6607 Schuster St,Las Vegas,NV,89118,702 966 5440,committedcompanies@gmail.com
Home Remodel,Home Remodel,R.W. Bugbee & Associates,8635 W Sahara Ave Ste 550,Las Vegas,NV,89117,702 388 9133,info@rwbugbee.com
Home Remodel,Home Remodel,S & S Painting & Remodeling,,Las Vegas,NV,89147,702 580 6422,sspaintremodel@yahoo.com
Home Remodel,Home Remodel,Francis Handyman Repairs,Las Vegas NV 89139,,,,702 335 4033,tim@francishandymanrepairs.com
Home Remodel,Home Remodel,Kera Bath & Shower,2813 E. Alexander Rd,North Las Vegas,NV,89030,725 333 8547,info@kmilv.com
Home Remodel,Home Remodel,West Craft Incorporated,,Las Vegas,NV,89129,702 382 6167,westcraftinc@cox.net
Home Remodel,Home Remodel,West Coast Cabinets and Countertops,950 W Warm Springs Rd Ste 112,Henderson,NV,89011,702 222 4700,John@LVCabinets.com
