SL,Category,Business Name,Street Address,City,State ,Zip,PhoneNumber,Email
Home Remodel,Home Remodel,Southwestern Custom Construction LLC,1210 Wigwam Pkwy,Henderson,NV,89074,702 998 8939,bids@swccllc.com
Home Remodel,Home Remodel,A Campagna Company LLC,1993 Whitney Mesa Dr,Henderson,NV,89014,702 516 5055,service@accplumbing.com
Home Remodel,Home Remodel,Rystin Construction,530 E Sunset Rd,Henderson,NV,89011,702 876 3045,INFO@RYSTIN.COM
Home Remodel,Home Remodel,Craft Construction,2306 Losee Rd,North Las Vegas,NV,89030,702 639 9000,mail@craftcc.com
Home Remodel,Home Remodel,Design Builders,179 N Gibson Rd,Henderson,NV,89014,702 567 1500,info@designlv.com
Home Remodel,Home Remodel,Spike Construction,4608 Wheatley Ct,North Las Vegas,NV,89031,702 281 8912,alspikeconstruction@yahoo.com
Home Remodel,Home Remodel,JDS Surfaces,4837 Lincoln Rd Ste E,N. Las Vegas,NV,89081,702 435 1607,johns@jdssurfaces.com
Home Remodel,Home Remodel,Flamingo Tile,2564 Wigwam Pkwy Ste 140,Henderson,NV,89074,702 699 9512,flamingotile@cox.net
Home Remodel,Home Remodel,Castillo Construction,,North Las Vegas,NV,89031,702 236 9223,eduardo@castilloconstruction.org
Home Remodel,Home Remodel,Room Resolutions Inc,4509 Bersaglio St,Las Vegas,NV,89135,702 505 2131,jane@roomresolutions.com
Home Remodel,Home Remodel,Efficient Space Planning,6045 Harrison Dr Ste 4,Las Vegas,NV,89120,702 259 9569,info@espnevada.com
Home Remodel,Home Remodel,Feng Shui - Design Solutions,,,,,702 354 6809,rochiel@fengshui-designsolutions.com
Home Remodel,Home Remodel,Palisade Marble & Granite,801 Kenny Way,Las Vegas,NV,89107,702 259 0862,palisadelv1@cox.net
House Cleaning,,,,,,,,
House Cleaning,Home Cleaning Office Cleaning, Carpet Cleaning,Pristine Cleaning,5637 Cameron St,Las Vegas,NV,89118,(702) 848-3993,info@pristinehousecleaning.com
House Cleaning,Home Cleaning,JNS Final Touch LLC,1201 Alderton Ln,Las Vegas,NV,89144,(702) 493-0799,jnsfinaltouch@yahoo.com
House Cleaning,Home Cleaning Carpet Cleaning, Office Cleaning ,Proficient Clean,4952 S Rainbow BlvdSte 226,Las Vegas,NV,89118,(702) 703-4148,GetCleaned@ProficientClean.com
House Cleaning,Home Cleaning Carpet Cleaning, Window Washing,Avanti Green Eco Cleaning,10161 Park Run DrSte 120,Las Vegas,NV,89145, (702) 527-2111,sales@avantigreen.com
House Cleaning,Home Cleaning Home Organization,Superb Maids,,,,,(702) 721-8858,help@superbmaids.net
House Cleaning,Home Cleaning,Tidy Maids In Las Vegas,,,,,(888) 428-4338,
House Cleaning,Home Cleaning,Check Maid Cleaning Services,3400 W Desert InnSte 44,Las Vegas,NV,89102,(800) 737-4802,hello@checkmaid.com
House Cleaning,Home Cleaning,Your Helping Hands,2881 S Valley View BlvdSte 10,Las Vegas,NV,89102,(702) 388-2542,
House Cleaning,Home Cleaning Home Organization, Window Washing,Charlies Maids,,,,,(702) 900-1406,
House Cleaning,Pressure Washers Home Cleaning, Office Cleaning,Dynasty Cleaning Services,9484 S Eastern AveSte 216,Las Vegas,NV,89123,(702) 998-4446,cory@dynastycleaninglv.com
House Cleaning,Home Cleaning,The Maids,5000 W Oakey Blvd B6,Las Vegas,NV,89146,(702) 763-8010,
House Cleaning,Home Cleaning,Rhinos Maid,8868 S Eastern AveSte 108,Las Vegas,NV,89123,(702) 900-9444,rhinosmaidlv@hotmail.com
House Cleaning,Office Cleaning Home Cleaning ,Radiant Maids Cleaning Service,10620 Southern Highlands PkwySte 137,Las Vegas,NV,89141,(702) 409-8660,
House Cleaning,Home Cleaning,Maid Brigade of North West and SW Las Vegas,3275 West Ali Baba Ln#508,Las Vegas,NV,89118,(702) 792-6243,
House Cleaning,Home Cleaning Handyman,Handy,,Las Vegas,NV,89101,,
House Cleaning,Home Cleaning,Sandis House Cleaning,,,,,(702) 628-3081,
House Cleaning,Home Cleaning Carpet Cleaning,Eco Clean,4075 Abernathy Forest Pl,Las Vegas,NV,89141,(702) 757-1137,ecodeanlasevegas@gmail.com
House Cleaning,Home Cleaning Child Care & Day Care,Nannies & Housekeepers USA,3585 E Flamingo RdSte 204,Las Vegas,NV,89121,(702) 451-0021,
House Cleaning,Home Cleaning Office Cleaning,Maria Cleaning 2,2550 Chandler AveSuite 10,Las Vegas,NV,89120,(702) 454-2031,
House Cleaning,Home Cleaning Pressure Washers, Window Washing,Precious Cleaning Service,9704 Brooks Lake Ave,Las Vegas,NV,89148,(702) 332-7251,ANTHONY@PRECIOUSCLEANING.COM
House Cleaning,Home Cleaning,Clean Queen Cleaning Services,6628 Sky Point Dr,Las Vegas,NV,89131,(702) 690-5442,
House Cleaning,Home Cleaning Carpet Cleaning,Carol Kings Cleaning LLC,780 S Rampart,Las Vegas,NV,89145,(702) 202-3915,cking@carolkingscleaning.com
House Cleaning,Home Cleaning ,Kimberlys Kleaning Service,,,,,(702) 263-0468,info@kimberlyskleaning.com
House Cleaning,Home Cleaning,iMaid Vegas,9552 W Tropicana AveSte 1064,Las Vegas,NV,89147,(702) 403-6809,
House Cleaning,ome Cleaning,Neighborhood Maids,,Las Vegas,NV,89102,(888) 266-8836,
House Cleaning,Home Cleaning,Upkeep,,,,,(855) 698-7533,
House Cleaning,Home Cleaning,Big League Cleaning,,,,,(702) 328-4052,
House Cleaning,Home Cleaning,Benitas House Cleaning,7465 W Lake Mead BlvdSte 100,Las Vegas,NV,89128,(702) 396-7279,
House Cleaning,Home Cleaning Office Cleaning ,Maidly,353 E Bonneville Ave,Las Vegas,NV,89101,(877) 407-9327,info@maidly.net
House Cleaning,Office Cleaning Home Cleaning, Carpet Cleaning,Maids In Las Vegas,10000 S Maryland PkwySte. 2029,Las Vegas,NV,89183,(725) 222-0306,
House Cleaning,Home Cleaning,Flawless Cleaning Services,6163 Bayard St,Las Vegas,NV,89148,(702) 499-2983,shari.flawless@gmail.com
House Cleaning,Home Cleaning,Maids & More Cleaning,3514 E Tropicana Ave ,Las Vegas,NV,89121,(702) 436-0136,
House Cleaning,Home Cleaning Office Cleaning, Carpet Cleaning,Clean-Mart,4580 W Sahara Ave,Las Vegas,NV,89102,(702) 870-3900,clean-mart@hotmail.com
House Cleaning,Carpet Cleaning Home Cleaning,MV Cleaning Services,3863 South Valley View Boulevard Suite 32,Las Vegas,NV,89103,(702) 395-7744,
House Cleaning,Home Cleaning,An Immaculate Touch Cleaning Service,,,,,(702) 605-0304,
House Cleaning,Home Cleaning Office Cleaning, Carpet Cleaning,Las Vegas Cleaning Service,9680 W Tropicana,Las Vegas,NV,89147,(702) 788-0221,Joe@LasVegasCleaningService.com
House Cleaning,Home Cleaning Carpet Cleaning,Absolutely Spotless,,,,,(702) 339-0234,
House Cleaning,Home Cleaning ,Green Clean Maids,3790 Paradise Rd,,,,(702) 863-2231,
House Cleaning,Home Cleaning,Brothers Cleaning Services,6500 W Charleston Blvd,Las Vegas,NV,89146,(702) 508-9032,
House Cleaning,Home Cleaning Carpet Cleaning, Office Cleaning,NaturalDry Carpet Cleaning,3650 Great Bear St,Las Vegas,NV,89147,(702) 750-7093,CustomerCare@NaturalDry.com
House Cleaning,Home Cleaning,Southern Highlands Cleaning Crew,4449 Verdiccio Ave,Las Vegas,NV,89141,(702) 885-7795,
House Cleaning,Home Cleaning,Molly Maid,6040 Smoke Ranch Rd,,,,(702) 647-4451,
House Cleaning,Office Cleaning Home Cleaning, Carpet Cleaning ,Desert Valley Cleaning,,,,,(702) 612-2152,
House Cleaning,Home Cleaning,Molly Maid,2565 Chandler AveSte 27,Las Vegas,NV,89120,(702) 750-3535,
House Cleaning,Home Cleaning Office Cleaning, Carpet Cleaning,Caros Cleaning Solutions,7789 Soda Canyon St,Las Vegas,NV,89139,(702) 327-5514,info@caroscleaningsolutions.com
House Cleaning,Landscaping Home Cleaning, Carpet Cleaning,Summerlin Maids,4550 W Oakey BlvdSte 111,Las Vegas,NV,89102,(702) 249-8329,admin@summerlinmaids.com
House Cleaning,Las Vegas NV 89110,MHK,817 Lantham Place,,,,(702) 583-8222,
House Cleaning,Home Cleaning,2 Chicks & a Broomstick,3355 Spring Mountain RdSte 50,Las Vegas,NV,89102,(702) 388-4488,info@2chicksandabroomstick.com
House Cleaning,Landscaping Home Cleaning ,Mountains Edge Maids,4550 W Oakey BlvdSte 111,Las Vegas,NV,89102, (702) 249-8329,admin@mountainsedgemaids.com
House Cleaning,Home Cleaning Carpet Cleaning, Flooring,Carbonated Solutions of Las Vegas,3535 W Harmon AveSte G,Las Vegas,NV,89103,(702) 423-6092,
House Cleaning,Home Cleaning Carpet Cleaning,Sunshine Cleaning,2430 N Decatur Blvd.Ste 120,Las Vegas,NV,89108,(702) 810-0921,sunshinecleaninglv@gmail.com
House Cleaning,Home Cleaning Office Cleaning,Pure Cleaning,3484 Nightflower LnSte B,Las Vegas,NV,89121,(702) 978-2234,purecleaninglv@gmail.com
House Cleaning,Home Cleaning Heating & Air ConditioningHVAC ,A To Z Indoor Care,11251 Andreola Ct.,Las Vegas,NV,89141,(702) 897-7395,avivit@msn.com
House Cleaning,Home Cleaning ,A&H Cleaning Services,,,,,(970) 498-9990,ahcleaningservicesllc@gmail.com
House Cleaning,Home Cleaning,OkMaids,,,,,(800) 226-0737,Hello@OkMaids.com
House Cleaning,Carpet Cleaning Office Cleaning,J2 Cleaning Las Vegas,7437 S Eastern AveSte 424,Las Vegas,NV,89123,,mail@j2clean.com
House Cleaning,Home Cleaning,Summerlin Window Cleaning,,Las Vegas,NV,89135,(702) 965-2065,info@summerlinwindowcleaning.com
House Cleaning,Home Cleaning Carpet Cleaning,Jays Carpet Cleaning,1409 Dream Bridge Dr,Las Vegas,NV,89144,(702) 430-7497,jayscarpetcleaninglv@gmail.com
House Cleaning,Home Cleaning Office Cleaning, Carpeting,Proficient Clean,9850 S Maryland PkwySte A5-559,Henderson,NV,89183,(702) 430-7497,GetCleaned@ProficientClean.com
House Cleaning,Home Cleaning ,Green Valley Maids,4550 W Oakey BlvdSte 111,Las Vegas,NV,89102,(702) 249-8329,admin@greenvalleymaids.com
House Cleaning,Home Cleaning Office Cleaning, Carpet Cleaning ,E Crew Carpet Cleaning & Tile Cleaning,4760 S Pecos RdSte 103,Las Vegas,NV,89121,(702) 521-8738,info@ecrew.vegas
House Cleaning,Home Cleaning Pet BoardingPet Sitting,Pet Sitter,,,,,(702) 439-9136,mjsummerlinhomecl@yahoo.com
House Cleaning,Home Cleaning ,Smiths Go Green Cleaning,,,,,(702) 763-3033,smithsgogreencleaning@gmail.com
House Cleaning,Pressure Washers Home Cleaning, Window Washing,Easton Pressure Washing,,,,,(702) 596-3346,easton@pressurewashlv.com
House Cleaning,Home Cleaning Office Cleaning,A Shine Above,2701 WestWood Dr,Las Vegas,NV,89109,(702) 845-1543,info@ashineabove.net
House Cleaning,Home Cleaning,Home Maid,8510 W Lake Mead Blvd,Las Vegas,NV,89128,(702) 363-7018,office@homemaidlv.com
House Cleaning,Office Cleaning Home Cleaning,Clean Pro,10300 W Charleston BlvdSte 13-411,Las Vegas,NV,89131,(702) 768-3475,carl@cleanprolasvegas.com
House Cleaning,Pet BoardingPet Sitting Home Cleaning,Mj Summerlin House Cleaning  Your Pets Nanny,,,,,(702) 439-9136,mjsummerlinhomecl@yahoo.com
House Cleaning,Office Cleaning Home Cleaning ,Mother Earth Maids,,,,,(949) 456-3994,nataspen@motherearthmaids-oc.com
House Cleaning,Home Cleaning Office Cleaning,Nextaseo Cleaning Service,3376 S EasternSte 188A,Las Vegas,NV,89169,(702) 383-7000,info@nextaseo.com
House Cleaning,Carpet Cleaning Office Cleaning,Turbo Clean Pro Carpet Cleaning,4894 W Lone Mountain RdSte 148,Las Vegas,NV,89130,(702) 622-1200,info@turbocleanlv.com
House Cleaning,Home Cleaning Carpet Cleaning, Dog Walkers,HoneySchedule,3995 W Quail Ave,Las Vegas,NV,89118,(661) 622-2226,team@honeyschedule.com
House Cleaning,Carpet Cleaning Home Cleaning,Blue Bird Carpet Cleaning,3711 Vegas Dr,Las Vegas,NV,89108,(702) 645-7070,info@bluebirdcarpet.com
House Cleaning,Home Cleaning Carpet Cleaning, Dog Walkers,HoneySchedule,3995 W Quail Ave,Las Vegas,NV,89118,(661) 622-2226,team@honeyschedule.com
House Cleaning,Office Cleaning Home Cleaning, Carpet Cleaning,Valley Star Maids,5914 Bushra Ct,Las Vegas,NV,89110,(702) 706-0206,Serviceteam@valleystarmaids.com
House Cleaning,Home Cleaning Office Cleaning, Carpet Cleaning,Marvelous Maids,,,,,(323) 535-8743,scando126@gmail.com
House Cleaning,Home Cleaning,Nice Cleaning Services,,,,,(702) 201-3199,nicecleaningservices1@gmail.com
House Cleaning,Home Cleaning ,Cleaner Vegas,,,,,(702) 374-9096,shine@cleanervegas.com
HVAC,,,,,,,,
HVAC,Heating & Air ConditioningHVAC,Sahara Air Conditioning & Heating,2718 S Highland Dr,Las Vegas,NV,89109,702 796 9677,info@saharaair.com
HVAC,Heating & Air ConditioningHVAC Solar Installation,Motors & More Inc,2315 Highland Dr,Las Vegas,NV,89102,702 320 9900,motormore@gmail.com
HVAC,eating & Air ConditioningHVAC ,Air One Heating & Air Conditioning,3046 Vegas Dr,Las Vegas,NV,89106,702 384 2471,service@aironehac.com
HVAC,Heating & Air ConditioningHVAC Contractors, Electricians,Cool Air Now AC Repair,1918 E Charleston Blvd,Las Vegas,NV,89104,702 605 6100,info@coolairconditioningnow.com
HVAC,Heating & Air ConditioningHVAC ,Lake City Air Conditioning,1180 North Town Center Dr,Las Vegas,NV,89144,702 293 4757,Julie@LakeCityaclv.com
HVAC,Heating & Air ConditioningHVAC ,AC Pro,2910 S Highland Dr,Las Vegas,NV,89109,702 829 3010,marketing@acpro.com
HVAC,Heating & Air ConditioningHVAC,702AC Air Conditioning & Heating Solutions,11700 W Charleston Blvd 170,Las Vegas,NV,89135,702 360 6777,info@702AC.com
HVAC,Heating & Air ConditioningHVAC ,Right Now Air,5166 W Patrick Ln,Las Vegas,NV,89118,702 996 6215,Service@rightnowair.com
HVAC,Heating & Air ConditioningHVAC ,Chazell Air Conditioning & Heating,4367 West Sunset Rd,Las Vegas,NV,89118,702 647 3355,service@chazellac.com
HVAC,Heating & Air ConditioningHVAC,Dans Heating & Cooling Inc.,3073 W Tompkins Ave,Las Vegas,NV,89103,702 616 2534,contact@danslasvegas.com
HVAC,Heating & Air ConditioningHVAC ,Custom Air Specialists,,,,,702 529 2106,Customairspecialists@yahoo.com
HVAC,Heating & Air ConditioningHVAC,DNA Air Conditioning & Heating,7473 W. Lake Mead Blvd,Las Vegas,NV,89128,702 562 8193, Andre@DnaAirConditioningandHeating.com
HVAC,Plumbing Heating & Air ConditioningHVAC ,Almighty Air,1412 Western Ave,Las Vegas,NV,89103,702 597 3000,office@almightyair.com
HVAC,Heating & Air ConditioningHVAC ,Honeybee AC,8311 W Sunset,Las Vegas,NV,89113,702 623 0017,info@honeybeeac.com
HVAC,Heating & Air ConditioningHVAC,Innovative Air,2827 Craigton Dr,Henderson,NV,89044,702 325 1166,Eric@Innovativeair.co
HVAC,Plumbing Electricians, Heating & Air ConditioningHVAC,Ace Services Plumbing Air Electrical,1495 Helm Dr,Las Vegas,NV,89119,702 795 3666,acea1@acea1.com
HVAC,Heating & Air ConditioningHVAC Plumbing,Montgomery Air Conditioning and Heating,,,,,702 513 9872,montgomeryacandheat@yahoo.com,
HVACHeating & Air ConditioningHVAC,ACR Mechanical, Inc,1820 Western Ave,Las Vegas,NV,89102,702 369 7015,acrmechanical@live.com
HVAC,Heating & Air ConditioningHVAC,Novotny Mechanical,,,,,702 802 0247,Scheduling@NovotnyMechanical.com
HVAC,Handyman Plumbing, Heating & Air ConditioningHVAC,WC Maintenance Services,8832 Borla Dr,Las Vegas,NV,89117,702 902 0982,wcmaintserv@yahoo.com
HVAC,Heating & Air ConditioningHVAC,Gold Medal Services,5150 S Decatur Blvd,Las Vegas,NV,89118,702 655 6100,sales@goldmedalair.com
HVAC,Plumbing Heating & Air ConditioningHVAC ,Delta Mechanical,,,,,702 731 9400,arizona@deltamechanical.com
HVAC,Heating & Air ConditioningHVAC,Ambient Air,,,,,702 501 9366,ambientair@yahoo.com
HVAC,Contractors Heating & Air ConditioningHVAC,Quality Air Conditioning & Heating,3261 S Highland Dr,Las Vegas,NV,89109,702 586 8844,qualityair58@yahoo.com
HVAC,Heating & Air ConditioningHVAC,Revolutionary Air,5300 Lochmor Ave,Las Vegas,NV ,89130,702 645 4847,cool@revolutionaryair.com
HVAC,eating & Air ConditioningHVAC,Ameripro Corp,3281 N Decatur Blvd,Las Vegas,NV,89130,702 660 9982,office@ameriprocorp.com
HVAC,Heating & Air ConditioningHVAC ,Affordable Cool Air,,,,,702 561 1304,lucian@affordablecoolair.com
HVAC,Heating & Air ConditioningHVAC,Heating & Cooling Las Vegas,4005 W Reno Ave,Las Vegas,NV,89118,702 328 0888,heatingandcoolinglv@gmail.com
HVAC,Heating & Air ConditioningHVAC,Xcellence Cooling and Heating,1537 W Oakey Blvd,Las Vegas,NV,89102,702 401 2946,xcoolingandheating@gmail.com
HVAC,Plumbing Heating & Air ConditioningHVAC,Kellys Pipe & Supply,2124 Industrial Rd,Las Vegas,NV,89102,702 382 4957,cdresch@kellyspipe.com
HVAC,Contractors Heating & Air ConditioningHVAC ,Air Conditioning Las Vegas,3151 South Highland Dr,Las Vegas,NV,89109,702 410 6576,info@air-conditioning-las-vegas.com
Janitorial Service,,,,,,,,
Janitorial Service,Carpet Cleaning Office Cleaning,J2 Cleaning Las Vegas,7437 S Eastern AveSte 424,Las Vegas,NV,89123,702 880 7890,mail@j2clean.com
Janitorial Service,Office Cleaning ,Commercial Cleaning Services,3901 West Charleston Blvd
Ste 132,Las Vegas,NV,89102,800 310 6026,sales@CommercialCleaningLV.com
Janitorial Service,Pressure Washers Home Cleaning, Office Cleaning ,Dynasty Cleaning Services,9484 S Eastern Ave
Ste 216,Las Vegas,NV,89123,7029984446
,cory@dynastycleaninglv.com
Janitorial Service,Office Cleaning ,Charlies Janitorial Services,4405 E Sahara Ave
Ste 16,Las Vegas,NV,89104,7028042828e,
Janitorial Service,Office Cleaning Carpet Cleaning, Pressure Washers, Home Cleaning,Valley Wide Janitorial,10438 September Flower St,Las Vegas,NV,89183,702 884 2247,valleywide08@yahoo.com
Janitorial Service,Carpet Cleaning Office Cleaning,Rays Professional Janitorial Services,2309 La Harve Dr,Las Vegas,NV,89106,702 677 5002,
Janitorial Service,Office Cleaning ,Trustworthy Janitorial Service,201 Las Vegas Blvd S
Ste 240,Las Vegas,NV,89101,702 970 4932,
Janitorial Service,Best Janitorial Services of Nevada,Window Washing Carpet Cleaning, Pressure Washers ,2545 Chandler Ave
Ste 7,Las Vegas,NV,89120,702 736 4785,bjsjanitorial@gmail.com
Janitorial Service,Home Cleaning,Your Helping Hands,2881 S Valley View Blvd
Ste 10,Las Vegas,NV,89102,702 388 2542,
Janitorial Service,Home Cleaning Carpet Cleaning, Office Cleaning ,Mayberrys Maids,4855 W Desert Inn Rd
Ste 105,Las Vegas,NV,89102,702 474 6243,WeCleanLasVegas@aol.com
Janitorial Service,Office Cleaning ,Vegas Clean Team,7025 Harbor View,Las Vegas,NV,89119,702 997 8496,
Janitorial Service,Office Cleaning Home Cleaning, Carpet Cleaning,Peachy Clean Janitorial Services,4350 Sanderling Cir,Las Vegas,NV,89103,702 706 8644,
Janitorial Service,Office Cleaning Carpet Cleaning,AE Janitorial Solutions,5269 Burnham Ave,Las Vegas,NV,89119,702 252 4630,services@eajanitorial.com
Janitorial Service,Home Cleaning Office Cleaning ,Nextaseo Cleaning Service,3376 S Eastern
Ste 188A,Las Vegas,NV,89169,702 383 7000,efrain@sevendaysjanitorial.com
Janitorial Service,Office Cleaning Contractors, Home Cleaning,Ebony Brothers Janitorial Services,613 North Valley View Blvd,Las Vegas,NV,89107,702 401 4882,
Janitorial Service,Office Cleaning Junk Removal & Hauling,Accurate Building Maintenance,4435 W. Sunset Rd.,Las Vegas,NV,89118,702 220 8180,
Janitorial Service,Office Cleaning,Las Vegas Shines Janitorial,9661 Swaying Trees Dr,Las Vegas,NV,89147,702 252 3560,
Janitorial Service,Office Cleaning,Green Clean Commercial Cleaning Service,6625 S Valley View Blvd
Ste 228,Las Vegas,NV,89118,702 522 1898,admin@greencleancs.com
Janitorial Service,Office Cleaning,Las Vegas Cleaning Company,840 S Rancho Dr
Ste 4-425,Las Vegas,NV,89106,702 723 7816,
Janitorial Service,Home Cleaning Carpet Cleaning, Office Cleaning,Busy B Groundskeeper & Floor Care,1700 Western Ave
Ste E,Las Vegas,NV,89102,702 330 1300,
Janitorial Service,Home Cleaning Office Cleaning, Carpet Cleaning ,Tonys Cleaning Services,3050 S Nellis Blvd,Las Vegas,NV,89121,702 557 7053,
Janitorial Service,Office Cleaning Carpet Cleaning ,Qwest Clean,6130 W Flamingo Rd
Ste 301,Las Vegas,NV,89103,702 330 9359,
Janitorial Service,Office Cleaning Window Washing ,Endless Commercial Cleaning,,,,,702 289 7318,endlesscommercialcleaning@gmail.com
Janitorial Service,Office Cleaning ,Bright Cleaning Service,7500 W Lake Mead Blvd
Ste 9,Las Vegas,NV,89128,702 242 5888,robert@brightcleaningservicelv.com
Janitorial Service,Office Cleaning Carpet Cleaning,Coverall Las Vegas,2320 Paseo del Prado
Suite B107,Las Vegas,NV,89102,702 508 9773,
Janitorial Service,Office Cleaning,Execuclean,6440 Sky Pointe Dr
Ste 140-336,Las Vegas,NV,89131,702 595 8079,execucleanlv@aol.com
Janitorial Service,Office Cleaning,Las Vegas Cleaning Company,840 S Rancho Dr
Ste 4-425,Las Vegas,NV,89106,702 723 7816,
Janitorial Service,Carpet Cleaning Home Cleaning, Office Cleaning ,Carpet Sharks,,,,,702 616 9347,
Janitorial Service,Office Cleaning,All Day & Night Professional Janitorial Services,,Las Vegas,NV,89101,702 431 0800,
Janitorial Service,Office Cleaning Carpet Cleaning, Flooring ,First Choice Carpet and Tile Care,,,,,702 565 4983,service@firstchoicecarpetlv.com
Janitorial Service,Home Cleaning Pressure Washers, Window Washing,Quality Cleaning Services,4141 Welter Ave,Las Vegas,NV,89104,702 292 9505,
Janitorial Service,Home Cleaning Office Cleaning, Carpet Cleaning,Happy Cleaning & Janitorial Services,,Las Vegas,NV,89108,702 860 9368,
Janitorial Service,Home Cleaning Office Cleaning ,AM Cleaning and Janitorial,7841 Silver Plateau Ave,Las Vegas,NV,89128,702 769 4539,
Janitorial Service,Office Cleaning Home Cleaning,On Point Cleaning Service,,,,,702 448 1220,am.cleaning.janitorial@gmail.com
Janitorial Service,Home Cleaning Carpet Cleaning, Office Cleaning,C & C Janitorial,7471 Aurora Glow St,Las Vegas,NV,89139,702 493 5704,
Janitorial Service,Office Cleaning Home Cleaning, Carpet Cleaning,Kingdom Janitorial Service,1501 Pine Leaf Dr,Las Vegas,NV,89144,702 252 4480,
Janitorial Service,Office Cleaning Home Cleaning, Window Washing,Las Vegas Janitorial Services,1990 Village Center Cir,Las Vegas,NV,89134,702 741 5415,
Janitorial Service,Office Cleaning ,Top Cat Cleaning Service,812 E Sahara Ave
Ste 4,Las Vegas,NV,89104,702 367 6412,
Janitorial Service,Office Cleaning ,A-1 Janitorial Services,,Las Vegas,NV,89101,702 658 1900,
Janitorial Service,Office Cleaning Carpet Cleaning,Granger Janitorial,1811 Pineapple Tree Ct,Las Vegas,NV,89142,702 349 6399,
Janitorial Service,Office Cleaning Carpet Cleaning, Home Cleaning,Five Star Janitorial Services,2101 Sandy Ln,Las Vegas,NV,89115,702 245 9327,
Janitorial Service,J2 Janitorial of Henderson,Office Cleaning,8170 South Eastern Ave,Las Vegas,NV,89123,702 880 7890,mail@j2clean.com
Janitorial Service,Home Cleaning,Maidz2Clean,3620 N. Rancho Dr,Las Vegas,NV,89130,702 798 0858,
Janitorial Service,Carpet Cleaning,Vegas Carpet Cleaning Pros,3191 La Barca Ln,Las Vegas,NV,89122,702 430 6779,
Janitorial Service,Contractors Home Cleaning, Department Stores,A-1 Chemical  Winzer Corp,4755 Procyon St,Las Vegas,NV,89103,702 385 7627,
Janitorial Service,Home Cleaning,Apple Janitorial Services,,Las Vegas,NV,89108,702 500 0595,
Janitorial Service,Home Cleaning,Lagunas House Cleaning & Janitorial,7708 Meadow Robin Ave,Las Vegas, NV ,89131,702 636 0943,
Janitorial Service,Home Cleaning Office Cleaning,Adair Cleaning Service,,,,,702 510 0542,
Janitorial Service,Home Cleaning ,Keep It Clean Cleaning Services and Janitorial,,Las Vegas, NV ,89128,866 974 9517,
Janitorial Service,Office Cleaning ,Roadrunner Cleaning Service,,North Las Vegas, NV ,89030,702 642 4403,ginnie@roadrunnercleaning.net
Janitorial Service,Carpet Cleaning,L V Carpet Care & Janitorial,,Las Vegas, NV ,89101,702 456 1851,mike@lvcarpetcare.com
Janitorial Service,Carpet Cleaning Tiling,Sunstone Restoration,1072 Astounding Hills Dr,Henderson, NV ,89052,702 406 6918,affiliates@bluehost.com
Landscaping ,,,,,,,,
Landscaping ,Landscaping ,Ultimate Lawn Maintenance,,,,,702 303 6898,
Landscaping ,Landscaping ,Domestic Landscape,6509 Echo Crest Ave,Las Vegas,NV,89130,702 301 3967,
Landscaping ,Landscaping ,Z Best Turf,5445 West Reno Ave,Las Vegas,NV,89103,702 951 9629,
Landscaping ,Landscaping ,Mauri Landscapes,8355 Rancho Destino Rd,Las Vegas, NV ,89123,702 837 5757,maurilandscapes@yahoo.com
Landscaping ,Landscaping ,Affordable Tree Service,1955 Mimosa Cir,Las Vegas, NV ,89123,702 837 5000,
Landscaping ,Landscaping ,Showready Landscape,,,,,702 807 9788,
Landscaping ,Landscaping ,Showready Landscape,,,,,702 807 9788,info@showreadylandscape.com
Landscaping ,Landscaping ,Vegas Valley Lawn Care,11700 W Charleston BlvdSte 170,Las Vegas, NV ,89135,702 283 3413,
Landscaping ,Landscaping ,Sunshine Landscaping,6650 W Warm Springs RdSte 1064,Las Vegas, NV ,89118,702 506 3336,
Landscaping ,Landscaping ,Sunny Landscaping,4616 W Sahara,Las Vegas,NV,89102,702 445 8948,
Landscaping ,Landscaping ,Four Seasons Landscaping & Tree ,,,,,702 255 0898,info@4seasonslandscapinglv.com
Landscaping ,Landscaping ,J&J Landscape,8430 W Lake Mead BlvdSte 100,Las Vegas, NV ,89128,702 240 3299,jj@j-jlandscape.com
Landscaping ,Landscaping ,New Vision Landscaping By Gabriel,4330 W Desert Inn Rd,Las Vegas,NV,89102,702 518 3840,nvlbygabriel@gmail.com
Landscaping ,Landscaping ,Safari Landscaping,,,,,,mike@safarilandscapinginc.com
Landscaping ,Landscaping ,VIP Landscaping And Lawn Care,6955 N Durango Dr,Las Vegas,NV,89149,702 423 1944,info@viplandscapingandlawncare.com
Landscaping ,Landscaping ,2-15 Landscaping,,,,,702 443 1689,vegasvalleylawnmaints@gmail.com
Landscaping ,Landscaping ,Distinctive Exteriors,6625 S Valley View Blvd,Las Vegas, NV ,89118,702 385 4555,info@vegasexteriors.com
Landscaping ,Landscaping ,Addison Landscapes,5470 S Cameron,Las Vegas, NV ,89118,702 233 8603,info@addisonlandscapes.com
Landscaping ,Landscaping ,Taylormade Landscapes,4046 Ponderosa Way,Las Vegas,NV,89118,702 233 2379,info@taylormadelandscapes.com
Landscaping ,Landscaping ,Twisted Trees,,             ,,,702 672 6338,
Landscaping ,Landscaping ,Poolscapes,9340 S Eastern Ave,Las Vegas, NV ,89123,702 407 8989,ivan@poolscapes.com
Landscaping ,Landscaping ,Future Yards of Las Vegas,7322 S Rainbow Blvd,Las Vegas,NV,89119,702 539 6638,
Landscaping ,Landscaping ,Jeffrey Lee Landscaping,,,,,702 896 3756,
Landscaping ,Landscaping ,PD Landscaping,10300 W Charleston Blvd,Las Vegas,NV,89135,702 360 0490,
Landscaping ,Landscaping ,GroGreen LawnCare,8316 Cove Landing Ave,Las Vegas,NV,89145,702 477 9701,
Landscaping ,Landscaping ,High Desert Landscape & Design,8820 W Lone Mountain Rd,Las Vegas,NV,89129,702 656 5758,
Landscaping ,Landscaping ,Affordable Services,1027 S Rainbow,Las Vegas,NV,89145,702 239 2676,
Landscaping ,Landscaping ,2 White Guys,1265 E Eldarado Ln,Las Vegas,NV,89123,702 544 2355,
Landscaping ,Landscaping ,Modern Landscape LLC,7733 Silver Mallard Ave,Las Vegas,NV,89131,702 467 5645,tom@modernlandscapelasvegas.com
Landscaping ,Landscaping ,Eclipse Landscape Services,3670 N Rancho Dr,Las Vegas,NV,89130,702 431 8733,
Landscaping ,Landscaping ,Select Landscape Services,,,,,702 343 8783,selectlandscape@gmail.com
Landscaping ,Nurseries & Gardening Landscaping, Tree Services,Moon Valleys Plant World Nursery,5311 W Charleston Blvd,Las Vegas,NV,89146,702 878 9485,
Landscaping ,Landscaping Gardeners, Landscape Architects,Sunscape Services,,Las Vegas,NV,89146,702 396 9863,Lawns@SunScapeServices.com
Landscaping ,Landscaping Lighting Fixtures & Equipment,Twilight Designs,,,,,702 907 5444,dbilik@landscapelighting.vegas
Landscaping ,Landscaping ,Dream Lawns,,,,,702 641 5296,LVDreamLawns@aol.com
Landscaping ,Landscaping ,Dembois Landscape,,,,,888 297 3295,
Landscaping ,Landscaping,Living Water Lawn & Garden,6955 N Durango Dr,Las Vegas, NV ,89149,702 655 5593,
Landscaping ,Landscaping Gardeners,Pineapple Lawn Service,1036 Howard Dr,Las Vegas,NV,89104,702 569 3499,
Landscaping ,Landscaping Tree Services,A Able Tree Service,6190 W Oquendo Rd,Las Vegas,NV,89118,,
Landscaping ,Landscaping,Mac Landscaping,1623 East Ln,Las Vegas,NV,89108,702 221 8049,mike@maclandscape.com
Landscaping ,Landscaping ,All American Landscape,4065 W Maulding Ave,Las Vegas,NV,89139,702 435 0025,allamericanlandscapelv@gmail.com
Landscaping ,Landscaping Tree Services,First Choice Tree Service,2165 Pama Ln,Las Vegas,NV,89119,702 564 1998,
Landscaping ,Landscaping Irrigation, Gardeners ,Quick Pickk,,,,,702 292 8563,MattPierce@QuickPickk.com
Landscaping ,Landscaping Tree Services,Schilling Horticulture Group Inc,,,,,702 452 5272,info@schillinghorticulture.com
Landscaping ,Gardeners Landscaping,Just Trimming & Lawn Care,8871 W. Flamingo Rd,Las Vegas,NV,89147,702 771 1005,
Landscaping ,Landscaping Contractors ,Synthetic lawns of Las Vegas,1925 Western Ave,Las Vegas,NV,89102,702 278 2220,lvsyntheticlawns@yahoo.com
Landscaping ,Landscaping Tree Services, Landscape Architects,Desert Springs Landscaping,8130 S Valley View Blvd,Las Vegas,NV,89139,702 436 8080,Rob@desertspringslandscapingllc.com
Landscaping ,Contractors Landscaping, MasonryConcrete,Paradise Builders,5385 Cameron St,Las Vegas,NV,89118,702 242 0271,
Landscaping ,Landscaping ,Buds Affordable Landscaping,5511 Night Swim Ln,Las Vegas,NV,89113,702 581 8690,
Landscaping ,Landscaping ,Moon-Sun Landscapes,6430 McGill Ave,Las Vegas,NV,89122,702 464 6780,Info@Moon-SunLandscapes.com
Landscaping ,Contractors Pool & Hot Tub Service, Landscaping,California Pools - Las Vegas,,,,,800 282 7665,
Landscaping ,Landscaping Landscape Architects,Leisure Lawn Artificial Grass,6780 W Gary Ave,Las Vegas,NV,89139,702 372 5296,info@leisurelawnlv.com
Landscaping ,Landscaping,Matinata Landscape,,,,,702 270 6289,raul@matiscape.com
Landscaping ,Landscaping,Jaramillo Landscape & Maintenance Company,9275 S Jones Blvd,Las Vegas,NV,89139,702 251 0011,
Landscaping ,Landscaping Gardeners, Tree Services ,LandTeck,2831 St Rose Pwy,Henderson,NV,89052,702 491 6607,LandTeckInc@gmail.com
Landscaping ,Landscaping Landscape Architects,Green Guru Landscaping,3153 Pawtucket ln,Las Vegas,NV,89141,702 949 2988,GreenGuruLandscaping@gmail.com
Landscaping ,Landscaping Tree Services ,3 Brothers Tree Service,Las Vegas NV 89014,,,,702 335 3671,augustinag45@yahoo.com
Landscaping ,Landscaping,Frontier Landscaping Inc.,3111 S Valley View Blvd,Las Vegas,NV,89102,702 341 0205,
Landscaping ,Tree Services Landscaping, Gardeners,NLS Grounds Management LLC,3975 W Dewey Dr,Las Vegas,NV,89118,702 259 6408,nlsgrounds@gmail.com
Landscaping ,Tree Services Landscaping, Irrigation ,Anthem Landscape & Design LLC,,,,,702 434 1999,peter@anthemlandscape.com
Landscaping ,Landscaping ,Superb Landscape and Maintenance,2017 Pinion Spring,Henderson,NV,89074,702 845 4199,
Landscaping ,Landscaping,McDm Landscape-Maintenance,,,,,702 388 0834,
Landscaping ,Landscaping ,The Johnson Company,8429 Wild Diamond Ave,Las Vegas,NV,89143,702 742 3992,
Landscaping ,Landscaping Contractors ,Green Planet Landscaping,7770 Duneville St,Las Vegas,NV,89118,702 614 8866,
Landscaping ,Contractors Landscaping,Proficient Patios & Backyard Designs,3310 S Valley View Blvd,Las Vegas,NV,89102,702 254 6179,nena@proficientpatios.com
Landscaping ,Landscaping Handyman ,RYCLV Services,,,,,702 850 4978,
Landscaping ,Landscaping ,LV Superior Lawn Care,1912 Saylor Wy,Las Vegas,NV,89108,702 858 2153,
Landscaping ,Landscaping,Affordable Lawn Maintenance,,Las Vegas,NV,89140,702 871 6912,
Landscaping ,Tree Services Landscaping, Gardeners,Gonzalez Landscaping,4440 Verdugo St,Las Vegas,NV,89147,702 773 5561,gonzaleslandscaping702@gmail.com
Landscaping ,Landscaping,Pueblas Landscaping & Lawn Service,3316 N Decatur Blvd,Las Vegas,NV,89130,702 334 6260,
Landscaping ,Pressure Washers Landscaping, MasonryConcrete ,Paver Sealing Vegas,2375 E Tropicana Ave,Las Vegas,NV,89119,702 701 0388,info@paversealingvegas.com
Landscaping ,Landscaping,Aztec Landscaping & Lawn Maintenance,1527 W Bonanza Rd,Las Vegas,NV,89106,702 646 3052,
Landscaping ,Landscaping ,Keepn It Green Landscaping,631 N Stephanie,Henderson,NV,89014,702 979 3357,
Landscaping ,Landscaping ,Complete Pond Care,,Las Vegas,NV,89178,702 365 6555,
Landscaping ,Landscaping,JTB Landscapers,,North Las Vegas,NV,89032,702 425 5581,
Landscaping ,Landscaping,Artificial Grass Liquidators,3686 S Highland Dr,Las Vegas,NV,89103,702 388 8891,
Landscaping ,Landscaping Home Cleaning ,Mountains Edge Maids,4550 W Oakey Blvd,Las Vegas,NV,89102,702 249 8329,admin@mountainsedgemaids.com
Landscaping ,Landscaping ,Cutting Edge Land Services,5525 Gipsy Ave,Las Vegas,NV,89107,702 418 5499,
Landscaping ,Landscaping ,Landmarc Landscapes,1731 N Rancho Drive,Las Vegas,NV,89106,702 631 3366,
Landscaping ,Landscaping,Lawn Demolition by Landmarc,1731 N Rancho Dr,Las Vegas,NV,89106,702 631 3366,
Landscaping ,Landscaping ,American Pride Landscape Llc,2206 Rawhide St,Las Vegas,NV,89119,702 866 0062,aplscape@yahoo.com
Landscaping ,Landscaping,WaterWise Landesign,Las Vegas NV 89117,,,,702 592 9459,
Landscaping ,Landscaping,Perennial Land Care,3085 S Valley View Blvd,Las Vegas,NV,89102,702 258 1056,
Landscaping ,Tovar Landscape & Design,2600 Stratford Ave,Las Vegas NV 89121,,,,702 440 4738,
Landscaping ,Landscaping,Honzo Landscape Company,4425 E Sahara Ave,Las Vegas,NV,89104,702 843 9730,
Landscaping ,Landscaping Gardeners ,R&R General Lawn Care,4213 Sawyer Ave,Las Vegas,NV,89108,702 843 9730,rrgenerallawn@rrgenerallawn.com
Landscaping ,Landscaping ,American Sprinkler Repair and Landscape,7121 W Craig Rd Suite,Las Vegas,NV,89129,702 686 5554,americansl@aol.com
Landscaping ,Landscaping Landscape Architects ,TTC Enterprises,,,,,702 348 4570,CaitlinNTorres@hotmail.com
Landscaping ,Home Cleaning Window Washing, Landscaping,Clean Windows & More By Nate,6800 E Lake Mead,Las Vegas,NV,89156,702 265 7302,nathan@cleanwindowsbynate.com
Landscaping ,Gardeners Landscaping ,Kens Lawn Service,5155 W Tropicana Ave,Las Vegas,NV,89103,702 252 0621,ken@kenslawnlv.com
Landscaping ,Landscaping Landscape Architects ,Results Services,,,,,702 236 9223,eduardo.mirage%40gmail.com
Landscaping ,Landscaping ,Premier Landscape Maintenance,Las Vegas NV 89107,,,,702 485 4060,premier_landscape_maintenance@gardener.com
Landscaping ,Landscaping Irrigation, Gardeners ,C&J Landscapers,,,,,702 445 4983,modernlandscapers@yahoo.com
Landscaping ,Landscaping ,Affordable Landscaping,5016 Schuster St,Las Vegas,NV,89118,702 348 8399,info@ontimevegas.com
Landscaping ,Landscaping Hot Tub & Pool ,Faithful Pool Services,4012 S Rainbow Blvd Suite K-599,Las Vegas,NV,89103,702 929 5303,faithfulpoolstj@gmail.com
Landscaping ,Tree Services Landscaping,Pro Tree,,,,,702 798 3997,info@protreelv.com
Landscaping ,Landscaping ,Ultimate Landscaping,,Las Vegas,NV,89101,702 361 5596,cs@ultimate.lvcoxmail.com
Landscaping ,Landscaping,Desert Greenscapes,,,,,702 529 0377, info@lvturf.com
Locksmith,,,,,,,,
Locksmith,Keys & Locksmiths,Master Lock & Security,,,,,702 637 4477,
Locksmith,Keys & Locksmiths,Silver Eagle Locksmith,1604 S Commerce St,Las Vegas,NV,89113,702 539 9581,
Locksmith,Keys & Locksmiths,911 Safe Locksmith,8049 W Hacienda Ave,Las Vegas,NV,89113,702 752 0758,702locksmith@gmail.com
Locksmith,Keys & Locksmiths,Silverstate Locksmith,800 N Rainbow Blvd,Las Vegas,NV,89107,702 445 3758,
Locksmith,Keys & Locksmiths,King Key Locksmith,,,,,702 848 4235,
