SL,Category,Business Name,Street Address,City,State ,Zip,PhoneNumber,Email
Pest Control,Pest Control ,A Better Day Pigeon Control,,,,,702 469 0250,
Pest Control,Pest Control ,EcoGen Pest Control,3280 W Hacienda Ave,Las Vegas,NV,89118,702 445 6444,info@ecogen.com
Pest Control,Pest Control ,Bugs R US,8228 Emerald Isle Avenue,Las Vegas,NV,89128,702 258 2847,
Pest Control,Pest Control ,Caudles Pest Control,6633 Cliff Shore Ct,North Las Vegas,NV,89084,702 631 2991,
Pest Control,Pest Control ,Bulwark Exterminating,3932 Octagon Rd,North Las Vegas,NV,89030,702 255 6313,service@bulwarkpest.com
Pest Control,Pest Control ,Whats Bugging You? Pest Control,1530 Bradfox Ln,North Las Vegas,NV,89032,702 406 3080,
Pest Control,Pest Control ,Environmental Pest Control,4901 Virginia Falls Ln,Las Vegas,NV,89130,702 655 2257,epclasvegas@aol.com
Pest Control,Pest Control ,Orkin Pest & Termite Control,5740 Arville St,Las Vegas,NV,89118,866 736 1021,name@example.com
Pest Control,Pest Control ,Bulwark Exterminating,5016 Alta Drive,Las Vegas,NV,89107,702 880 0888,service@bulwarkpest.com
Pest Control,Pest Control ,Rebel Pest Control,6000 S Eastern,Las Vegas,NV,89119,702 597 0707,fred@rebelpestcontrol.com
Pest Control,Pest Control ,Pigeons Be Gone - Pigeon Pest Control,,,,,702 804 4663,pigeonsbegone@gmail.com
Pest Control,Pest Control ,Skyhaven,,Las Vegas,NV,89101,702 732 8060,bkoehne5@yahoo.com
Pest Control,Pest Control ,Crispy Critters Pest Control,,,,,702 233 2847,joanne@crispycritterslasvegas.com
Pest Control,Pest Control ,Viper Pest,,Las Vegas,NV,,702 302 6346,ViperPestLV@gmail.com
Pest Control,Pest Control ,Top Line Pest Eliminators,6356 Maratea Ave,Las Vegas,NV,89130,702 425 2742,toplinepro22@gmail.com
Pest Control,Pest Control ,WB Pest Control,6210 N Jones Blvd,Las Vegas,NV,89136,702 866 2767,info@wbpestcontrol.com
Pest Control,Pest Control ,Romex Pest Control,10263 Magnolia Tree Ave,Las Vegas,NV,89135,435 272 7780,romexpc@gmail.com
Pest Control,Pest Control ,Truly Nolen Pest & Termite Control,6000 S Eastern Ave #2E,Las Vegas,NV,89119,702 798 0010,manager.050@trulymail.net
Pest Control,Pest Control ,Adams Pest Control,8304 W Gilmore Ave,Las Vegas,NV,89129,702 613 7853,trentenglish@adamspestcontrolllc.com
Pest Control,Pest Control ,Exceed pest Defense,,,,,702 340 3869,aesquivel@exceedpestdef.com
Pest Control,Pest Control ,TheLens,3411 Sunfish Dr,Henderson,NV,89014,702 582 5367,pest.service@newpestsolutions.com
Pest Control,Pest Control ,Delcon Termite & Pest Control,2410 N Decatur Blvd #115,Las Vegas,NV,89108,702 656 0455,delconpestcontrol@yahoo.com
Pest Control,Pest Control ,Blackburn Pest Control,1350 E. Flamingo Rd,Las Vegas,NV,89119,702 208 9923,info@blackburnpestcontrol.com
Pest Control,Pest Control ,Las Vegas Pest Control,3011 Rigel Ave,Las Vegas,NV,89102,702 369 2847,web2016@369bugs.com
Pest Control,Pest Control ,LV Smittys Pest Control,3651 Lindell Rd,Las Vegas,NV,89103,702 919 7378,LVSMITTYSPESTCONTROL@GMAIL.COM
Pest Control,Pest Control ,Bee Master Of Las Vegas,,Las Vegas,NV,89162,702 457 6700,beemasterlv@yahoo.com
Pest Control,Pest Control ,Pigeonpros,6130 Elton Ave,Las Vegas,NV,89107,702 382 0422,info@pigeonpros.com
Pest Control,Pest Control ,Battle Born Pigeon Control,,Las Vegas,NV,89121,702 375 2801,battlebornpigeoncontrol@yahoo.com
Pest Control,Pest Control ,Intrusion Pest Control,2850 W Horizon Ridge Pkwy,Henderson,NV,89052,702 280 4549,Info@intrusionpest.com
Pest Control,Pest Control ,Battle Born Pigeon Control,3310 China Dr,Las Vegas,NV,89121,702 375 2801,battlebornpigeoncontrol@yahoo.com
Pest Control,Pest Control ,Alias The Bug Man,,Las Vegas,NV,89101,702 395 9039,aliasthebugman@yahoo.com
Pest Control,Pest Control ,Mountian View Pest Control,4303 Hacienda Ave,Las Vegas,NV,89120,702 568 1857,info@mountainviewpestcontrol.com
Pest Control,Pest Control ,Orkin Pest & Termite Control,150 n Las Vegas boulevard,Las Vegas,NV,89101,702 939 6032,customerservice@orkin.com
Pest Control,Pest Control ,DeMille Exterminating,,Las Vegas,NV,89104,702 496 1050,demilleext@gmail.com
Pest Control,Pest Control ,All Star Maintenance,,Las Vegas,NV,89129,702 781 0092,allstar.workorders@gmail.com
Pet Trainer ,,,,,,,,
Pet Trainer ,Pet Training ,Smarty Paws South,4544 West Russell Rd,Las Vegas,NV,89118,702 396 8501,info@smartypaws.com
Pet Trainer ,Pet BoardingPet Sitting Pet Training,K-9 Kountry,8075 Rancho Destino Rd,Las Vegas,NV,89123,855 364 5663,Info@k-9kountry.com
Pet Trainer ,Pet Training,The K-9 Handler,,,,,702 882 3694,
Pet Trainer ,Pet Stores Pet Training, Pet Groomers,PetSmart,171 N Nellis Blvd,Las Vegas,NV,89110,702 438 5771,
Pet Trainer ,Pet Stores Pet Training, Pet Groomers ,Petco,10000 W Sahara Ave,,,,702 341 0142,
Pet Trainer ,Pet Training Pet BoardingPet Sitting ,4E Kennels,,,,,702 278 9388,
Pet Trainer ,Pet Training ,Gibsons Canine Classroom,,,,,702 636 8700,
Pet Trainer ,Pet Training Pet Groomers, Pet Stores,PetSmart,7050 Arroyo Crossing Parkway,Las Vegas,NV,89113,702 407 0330,
Pet Trainer ,Pet Training,Sit Means Sit Dog Training,2900 E Patrick Ln,Las Vegas,NV,89120,702 877 4581,
Pet Trainer ,Pet Training ,Sit Means Sit Summerlin,,Las Vegas,NV,89135,702 518 9444,summerlin@sitmeanssit.com
Pet Trainer ,Pet Training ,MP K9 All Breed Dog Training,,,,,702 302 2667,info@mpk9.com
Pet Trainer ,Pet Training ,Bark Busters Home Dog Training,5560 Edna Ave,Las Vegas,NV,89146,702 712 4129,
Pet Trainer ,Pet Training Pet Groomers, Pet Stores, Pet BoardingPet Sitting,PetSmart,9775 W Charleston,Las Vegas,NV,89117,702 940 5200,
Pet Trainer ,Pet Training,Smarty Paws Canine Coaching,4161 N Rancho Dr,Las Vegas,NV,89130,702 396 8501,info@smartypaws.com
Pet Trainer ,Pet Training Pet BoardingPet Sitting ,4 Pawz On the Floor,,Las Vegas,NV,89169,702 544 6024,pawzlv@gmail.com
Pet Trainer ,Pet Training ,Sin City K-9,9484 S Eastern Ave,Las Vegas,NV,89123,,
Pet Trainer ,Pet Training,Innate Dog Training,9461 Medford Falls Ave,Las Vegas,NV,89149,702 494 8393,
Pet Trainer ,Pet Training ,Innate Dog Training,9461 Medford Falls Ave,Las Vegas,NV,89149,702 494 8393,
Pet Trainer ,Pet Training Dog Walkers, Pet BoardingPet Sitting ,Gold Paw Dog Training,,,,,702 209 1016,
Pet Trainer ,Pet Stores Pet Training, Pet Groomers ,Petco,8495 W Warm Springs Rd,Las Vegas,NV,89113,702 791 7038,
Pet Trainer ,Pet Training,Paws-A-Tive Dog Training,10540 Southern Highlands Pkwy,Las Vegas,NV,89141,702 817 3495,pam@pawsativedogtraining.com
Plumbing ,,,,,,,,
Plumbing ,Plumbing,Pure Plumbing,6255 McLeod DrSte 8,Las Vegas,NV,89120,702 534 1910,pureplumbinglasvegas@gmail.com
Plumbing ,Plumbing,Pipe Dreams Plumbing,,,,,702 768 0428,info@pipedreamsplumbingco.com
Plumbing ,Plumbing,DMS Plumbing,2835 Montessouri St,Las Vegas,NV,89117,702 353 7335,
Plumbing ,Plumbing,Precision Plumbing,7500 W Lake Mead Blvd,Las Vegas,NV,89128,702 253 6363,support@precisionplumbinglv.com
Plumbing ,Plumbing Heating & Air ConditioningHVAC,Number One Plumbing Heating & Air Conditioning,4131 W Oquendo RdSte 1,Las Vegas,NV,89118,702 850 9997,info@numberonelv.com
Plumbing ,Plumbing,AllAces Plumbing,7250 Durango DrSte 130-214,Las Vegas,NV,89113,702 883 0121,aaoffice@allacesplumbing.com
Plumbing ,Plumbing Water Heater InstallationRepair, Water Purification Services,Colburn Enterprises,2475 Chandler AveSte 17,Las Vegas,NV,89120,702 433 5605,colburn@40lvcoxmail.com
Plumbing ,Plumbing,Water Heater Pros,6225 Harrison St,Las Vegas,NV,89120,702 767 5453,
Plumbing ,Plumbing,Dinos Plumbing,10300 W Charleston BlvdSte 13-433,Las Vegas,NV,89135,702 460 9426,support@dinosplumbinglv.com.
Plumbing ,Plumbing,A Better Plumbing Company,4533 Balfour Dr,Las Vegas,NV,89121,702 813 4236,
Plumbing ,Plumbing,Max Plumbing,3111 S Valley View BlvdSte E105,Las Vegas,NV,89102,702 848 2597,
Plumbing ,Plumbing,MG Handy Plumber,4184 Mango Tree Ct,Las Vegas,NV,89115,702 480 8070,contact@mghandymanplumber.com
Plumbing ,Plumbing,Elemental Plumbing,3651 Lindell RdSte D153,Las Vegas,NV,89103,702 845 8747,elementalplumbing@gmail.com
Plumbing ,Plumbing,Adaven Plumbing Inc,,,,,702 485 4191,
Plumbing ,Plumbing,Las Vegas Plumbing,6420 Windy St,Las Vegas,NV,89119,725 696 8251,support@lasvegasplumbinginc.com
Plumbing ,Plumbing ,NOW! Plumbing And Heating,3636 Meade Ave,Las Vegas,NV,89102,725 777 0099,nowplumbingandheating@gmail.com
Plumbing ,Plumbing,Capital Plumbing,8228 Old Cistern Ct,Las Vegas,NV,89131,702 656 2296,capitalplumbinginc@yahoo.com
Plumbing ,Plumbing,Code Red Emergency Plumbing,3111 S Valley ViewUnit B-117,Las Vegas,NV,89102,702 970 6128,
Plumbing ,Plumbing Heating & Air ConditioningHVAC,Yes! Air Conditioning & Plumbing,6275 S Pioneer Way,Las Vegas,NV,89113,702 577 0072,
Plumbing ,Plumbing,Drews Plumbing,3700 Regulus Ave,Las Vegas,NV,89102,702 349 2400,service@drews-plumbing.com
Plumbing ,Plumbing,Vegas Plumbing Service,1964 Sycamore Trl,Las Vegas,NV,89108,702 647 3550,vegasplumbingservice@40yahoo.com
Plumbing ,Plumbing Water Heater InstallationRepair,Andrews Plumbing and Repair,,,,,702 301 0707,
Plumbing ,Plumbing Contractors,Plumbing Solutions of Nevada,4170 Pioneer Ave Ste A,Las Vegas,NV,89102,702 919 7745,info@plumbingsolutionsofnevada.com
Plumbing ,Plumbing,Gnc Plumbing,,Las Vegas,NV,89183,702 501 2715,GncPlumbing58@gmail.com
Plumbing ,Plumbing Water Heater InstallationRepair,A to Z Plumbing Heating & Water Heater Installation Services,,,,,702 818 9075,
Plumbing ,Plumbing,LV Rooter Dan,,,,,702 431 4999,1rooterman@gmail.com
Plumbing ,Plumbing Heating & Air ConditioningHVAC,Handy Manny Services,5400 W Cheyenne AveSte 1012,Las Vegas,NV,89108,702 595 6365,
Plumbing ,Heating & Air ConditioningHVAC Plumbing,Rebel Refrigeration,2630 S Highland Dr,Las Vegas,NV,89109,725 696 8414,support@rebelrefrigeration.com
Plumbing ,Heating & Air ConditioningHVAC Plumbing, Water Heater InstallationRepair,Advanced Mechanical,133 E Warm Springs RdSte 101,Las Vegas,NV,89119,702 592 0907,
Plumbing ,Plumbing Heating & Air ConditioningHVAC,JMAC Plumbing & Air Conditioning,4225 W. Post Rd.,Las Vegas,NV,89118,702 227 5622,
Plumbing ,Plumbing Heating & Air ConditioningHVAC,Nationwide Plumbing,3716 Ashling St,Las Vegas,NV,89129,702 686 4068,nationwideplumbingllc@40gmail.com
Plumbing ,Heating & Air ConditioningHVAC Plumbing,Air Squad Heating & Air Conditioning,3017 Rigel Ave,Las Vegas,NV,89102,702 701 7797,airsquadlv@hotmail.com
Plumbing ,Heating & Air ConditioningHVAC Plumbing ,The Cooling Company,6380 McLeod Dr,Las Vegas,NV,89120,702 567 0707,
Plumbing ,Plumbing ,ORourke Plumbing Service,1750 Highland Ave,Las Vegas,NV,89102,702 871 4666,
Plumbing ,Contractors Handyman, Plumbing ,Las Vegas Handyman,,,,,702 248 0550,
Plumbing ,Plumbing,Sound Plumbing & Heating,6000 S Eastern AveSte 11-C,Las Vegas,NV,89119,702 837 1494,info@soundplumbinglv.com
Plumbing ,Plumbing,Downunder Plumbing,7040 Laredo StSte D,Las Vegas,NV,89117,702 556 9156,
Plumbing ,Plumbing ,Buddys Plumbing Repair,5417 Madre Mesa Drive,Las Vegas,NV,89108,702 648 6113,
Plumbing ,Plumbing,Elliotts Sewer & Drain Cleaning Service,,Las Vegas,NV,89126,702 382 7389,elliottssd@cox.net
Plumbing ,Plumbing,Aqua Plumbing LLC,6226 S Sandhill RdSte B,Las Vegas,NV,89120,702 642 8400,
Plumbing ,Plumbing,Complete Service Solutions Co,,,,,702 750 2575,
Plumbing ,Plumbing,Halcyon Plumbing,5415 Cameron St,Las Vegas,NV,89118,702 368 7540,
Plumbing ,Plumbing,Sage Plumbing,,Las Vegas,NV,89103,702 622 8626,
Plumbing ,Plumbing Water Heater InstallationRepair ,On Time Service,,,,,702 504 4544,
Plumbing ,Plumbing Contractors,Ideal Plumbing Services,3508 E Charleston Blvd,Las Vegas,NV,89104,702 475 3292,idealservices@idealservices.com
Plumbing ,Plumbing,M.C. Plumbing LLC,205 E. Brooks AveSte A,North Las Vegas,NV,89030,702 389 7312,mcplumbingllc@gmail.com
Plumbing ,Plumbing,Jump 2 It Plumbing,6895 E Lake Mead BlvdSte 6-178,Las Vegas,NV,89156,702 438 3106,
Plumbing ,Heating & Air ConditioningHVAC,Anytime Plumbing Heating & Air Conditioning,4690 W Post RdSte 130,Las Vegas,NV,89118,702 518 7968,
Plumbing ,Plumbing,Jack Dish Plumbing,1452 W Horizon Ridge PkwySte 560,Henderson,NV,89012,702 283 2320,info@jackdishplumbing.com
Plumbing ,Plumbing Painters, Drywall Installation & Repair ,LV House Doctor,3325 Ali Baba LnSte 613,Las Vegas,NV,89118,702 489 5164,info@lvhousedoctor.com
Plumbing ,Plumbing Water Purification Services ,Serv-all Water Conditioning,3065 N Rancho DrSte 128,Las Vegas,NV,89130,725 222 4306,affiliates@bluehost.com
Plumbing ,Plumbing,Las Vegas Sewer,2104 Club Pacific WaySte 103,Las Vegas,NV,89128,702 945 3664,adir1224@40hotmail.com
Plumbing ,Plumbing ,Raptor Plumbing,8755 Lindell RdSte 100,Las Vegas,NV,89139,702 257 7511,delinda@raptorplumbing.com
Plumbing ,Plumbing Contractors,Hague Quality Water,8700 Castle Hill Ave,Las Vegas,NV,89129,702 914 2400,Dylan@HagueLasVegas.com
Plumbing ,Heating & Air ConditioningHVAC ,Legacy Air,6525 Button Quail St,Las Vegas,NV,89084,702 453 4229,info@legacyac.com
Plumbing ,Plumbing,Sin City Plumbing and Maintenance,1840 Whitney Mesa DrSte 160,Las Vegas,NV,89014,702 431 6502,contactus@sincityplumbing.com
Plumbing ,Irrigation Landscaping, Plumbing,Las Vegas Irrigation Repair,2831 St Rose PkwySte 200,Las Vegas,NV,89052,702 802 8974,LasVegasIrrigationRepair@gmail.com
Plumbing ,Plumbing Contractors,CSI Plumbing Service And Repair,1113 Nevada Blaze Ave,North Las Vegas,NV,89081,702 468 2473,csioffice@csinev.com
Plumbing ,Plumbing Heating & Air ConditioningHVAC,Almighty Air,1412 Western Ave,Las Vegas,NV,89103,702 597 3000,office@almightyair.com
Plumbing ,Plumbing Electricians, Heating & Air ConditioningHVAC,Ace Services Plumbing Air Electrical,1495 Helm Dr,Las Vegas,NV,89119,Phonenumber7027953666,cea1@acea1.com
Plumbing ,Plumbing,Southwest Plumbing and Repair,10040 W. Cheyenne AveSte 170-26,Las Vegas,NV,89129,,southwestrepairservices@gmail.com
Plumbing ,Plumbing Carpet Installation, Pest Control,All Star Maintenance,,Las Vegas,NV,89129,702 781 0092,allstar.workorders@gmail.com
Plumbing ,Heating & Air ConditioningHVAC Plumbing,Montgomery Air Conditioning and Heating,,,,,702 513 9872,montgomeryacandheat@yahoo.com
Plumbing ,Plumbing,Catania & Son Plumbing LLC,,,,,702 533 5940,info@cataniaplumbinglv.com
Plumbing ,Plumbing,Silver Star Plumbing Drain & Sewer,452 E Silverado RanchSte 169,Las Vegas,NV,89183,702 363 4114,silverstarpds@aol.com
Plumbing ,Plumbing,MG Handy Plumber,,,,,702 480 8070,contact@mghandymanplumber.com
Plumbing ,Handyman Plumbing, Heating & Air ConditioningHVAC,WC Maintenance Services,8832 Borla Dr,Las Vegas,NV,89117,702 902 0982,wcmaintserv@yahoo.com
Plumbing ,Contractors Plumbing, MasonryConcrete,Aria Remodeling,3111 S Valley View BlvdUnit B120,Las Vegas,NV,89102,702 800 1000,eddie@ariaremodeling.com
Plumbing ,Plumbing Heating & Air ConditioningHVAC,Delta Mechanical,,,,,702 731 9400,california@deltamechanical.com
Plumbing ,Plumbing ,F and G Janitorial Supply,5012 Arville St,Las Vegas,NV,89118,702 473 9634,ochoagabino@yahoo.com
Plumbing ,Plumbing Damage Restoration,247 Restoration,,,,,702 719 6919,bids@247restorationandconstruction.com
Plumbing ,Plumbing Heating & Air ConditioningHVAC,Quality Mechanical,5701 W Sunset Rd,Las Vegas,NV,89118,702 960 1854,estimation@qualitymechanical.com
Plumbing ,Plumbing Heating & Air ConditioningHVAC ,Pure Plumbing,6295 McLeod DrSte 8,Las Vegas,NV,89120,702 534 1910,pureplumbinglasvegas@gmail.com
Sports Instructor (Tennis Lessons Golf Lessons Etc..),,,,,,,,
Sports Instructor (Tennis Lessons Golf Lessons Etc..),Sporting Goods,Sport Chalet,8825 W Charleston Blvd,Las Vegas,NV,89117,702 255 7570,
Sports Instructor (Tennis Lessons Golf Lessons Etc..),Sports Wear Outdoor Gear, Golf Equipment,Golf Galaxy,8621 W Charleston Blvd,Las Vegas,NV,89117,702 932 4110,
Sports Instructor (Tennis Lessons Golf Lessons Etc..),Gyms Sports Clubs, Trainers,Life Time Athletic,10721 W Charleston Blvd,Las Vegas,NV,89135,702 228 2611,
Sports Instructor (Tennis Lessons Golf Lessons Etc..),American (Traditional) Casinos, American (New) ,Hooters Casino Hotel,115 E Tropicana Ave,Las Vegas,NV,89109,866 584 6687,
Sports Instructor (Tennis Lessons Golf Lessons Etc..),Chinese Mexican,China Poblano,3708 Las Vegas Blvd S,Las Vegas,NV,89109,702 698 7900,
Sports Instructor (Tennis Lessons Golf Lessons Etc..),Casinos Resorts, Day Spas,Green Valley Ranch Resort & Spa,2300 Paseo Verde Pkwy,Henderson,NV,89052,702 617 7777,
Towing,,,,,,,,
Towing,Towing ,Express Towing,3620 Las Vegas Blvd S,Las Vegas, NV ,89109,702 818 0177,
Towing,Towing,Economy Towing,2901 Windstorm Ave,Las Vegas, NV ,89106,702 498 1063,
Towing,Towing ,Olmstead Towing,6325 S Pecos Rd,Las Vegas, NV ,89120,702 523 7708,
Towing,Towing ,Las Vegas Towing,2968 Marco St,Las Vegas, NV ,89115,702 651 0105,
Towing,Towing ,Around the Clock Towing Services,600 W Bonanza Rd,Las Vegas, NV ,89106,702 378 5591,
Towing,Towing,Quick Response Towing,6120 W Tropicana Ave,Las Vegas, NV ,89106,702 540 1117,
Towing,Towing ,Anytime Express Towing,4770 S Pecos Rd,Las Vegas, NV ,89121,702 787 1936,
Towing,Towing ,Instant Towing,,,,,702 606 4322,info@intanttowinglasvegas.com
Towing,Towing,Shauns Towing,2315 N Decatur Blvd,Las Vegas, NV ,89108,702 296 0659,
Towing,Towing,The Tow Truck Company,3975 W Hacienda Ave,Las Vegas, NV ,89118,702 434 7175,
Towing,Towing,Anthonys Towing,5375 S Cameron St,Las Vegas, NV ,89118,702 379 1930,
Towing,Towing ,Code Blue Towing,3595 Polaris St,Las Vegas, NV ,89103,702 908 6354,
Towing,Towing,Larrys Towing & Transport,6800 W Gary Ave,Las Vegas, NV ,89139,702 254 0395,
Towing,Auto Repair ,Sun Auto Service,6800 W Gary Ave,Las Vegas, NV ,89139,702 254 0395,
Towing,Auto Repair ,Sun Auto Service,9530 W Tropicana Ave,Las Vegas, NV ,89147,702 474 6777,
Towing,Towing ,Quick Towing,415 W Bonanza Rd,Las Vegas, NV ,89106,702 540 1117,
Towing,Towing ,Commerce Auto Towing CPCN7293,1407 industrial st,Las Vegas, NV ,89102,702 968 2410,care@commerceautobodylv.com
Towing,Auto Repair ,Sun Auto Service,7555 W Washington Ave,Las Vegas, NV ,89128,702 304 1010,
Towing,Towing ,777 Towing,231 Utah Ave,Las Vegas, NV ,89102,702 724 9000,
Towing,Auto Repair,CJ Auto Repair,3350 E Flamingo Rd,Las Vegas, NV ,89121,725 222 6408,
Towing,Auto Repai,Sun Auto Service,9530 W Tropicana Ave,Las Vegas, NV ,89147,702 474 6777,
Towing,Towing,Minuteman Towing,Ste A,Las Vegas, NV ,89101,702 228 5138,
Towing,Body Shop,Evolution Auto Body,3859 S Valley View Blvd,Las Vegas, NV ,89103,702 233 8889,
Towing,Auto Repai,Carburetors & More,3071 Fremont St,Las Vegas, NV ,89104,702 331 4961,
Towing,Towing,Stus Motorcycle Towing,9484 S Eastern Ave,Las Vegas, NV ,89123,702 263 1344,
Towing,Towing ,Ewing Bros,1200 N A St,Las Vegas, NV ,89106,702 382 9261,
Towing,Auto Repai,Pacific Auto Care,1238 S Main St,Las Vegas, NV ,89104,702 310 9365,truckshop@sierranv.net
Towing,Towing ,Quality Towing,4100 E Cheyenne Ave,Las Vegas, NV ,89115,702 649 5711,
Towing,Towing,Castillo Towing,,Las Vegas,NV ,89104,702 689 3881,
Towing,Body Shop,Platinum Collision,4440 S Arville St,Las Vegas, NV ,89103,702 476 9119,info@platinumcollisionlv.com
Towing,Auto Parts & Supplies Auto Repair, Car Dealers,1st Response Auto,4215 Bertsos Dr,Las Vegas, NV ,89103,702 476 9366,
Towing,Towing,Ashleys Towing,3030 Sheridan St,Las Vegas, NV ,89102,702 382 3508,
Towing,Auto Repair,The Car Works,5445 S Decatur Blvd,Las Vegas, NV ,89118,702 251 1112,thecarworksinc.com
Towing,Towin,Tri State Towing and Recovery,4140 W Desert Inn Rd,Las Vegas, NV ,89102,702 642 4648,
Towing,Auto Repair ,T & M Automotive,3921 W Oquendo Rd,Las Vegas, NV ,89118,702 617 2770,
Towing,Auto Repai,Quality Star Imports & Domestics,3420 N. Rancho Dr,Las Vegas, NV ,89130,702 685 6500,
Towing,Towing ,Chykkos Towing,,Las Vegas,NV ,89139,702 245 9971,
Towing,Towing ,Express Towing,3620 Las Vegas Blvd S,Las Vegas, NV ,89109,702 757 1896,
Towing,Towing,Silver State Towing,2400 S Highland Dr,Las Vegas, NV ,89102,702 837 2655,
Towing,Towing,Quick Response Towing,5295 S Decatur Blvd,Las Vegas, NV ,89118,702 951 0713,
Towing,Auto Repair,Professional Brake Service,544 E Silverado Ranch Blvd,Las Vegas, NV ,89183,702 897 1988,
Towing,Towing,National Towing,1920 S Highland Ave,Las Vegas, NV ,89102,702 642 0134,nationaltowing1@gmail.com
Towing,Towing,Ottos Towing Inc,844 N Rainbow Blvd,Las Vegas, NV ,89107,855 978 6145,contact@ottostowing.com
Towing,Towing ,Alex Towing,5917 Smoke Ranch Rd Unit a,Las Vegas, NV ,89108,702 883 2791,
Towing,Towing ,Best Towing Service,1945 Village Center Cir,Las Vegas, NV ,89134,702 951 2767,
Towing,Auto Repai,Superior Tire - Goodyear Auto Service Center,3590 E Tropicana Ave,Las Vegas, NV ,89121,702 458 5767,
Towing,Auto Repai,ABC Towing and Auto Repair,1414 Industrial Rd,Las Vegas, NV ,89102,702 598 1630,
Towing,Auto Repai,Fast Towing,2201 S Commerce St,Las Vegas, NV ,89102,702 383 3278,Fasttowing_lv@yahoo.com
Towing,Towin,Custom Towing,2775 Betty Ln,Las Vegas, NV ,89156,702 368 7800,
Towing,Auto Repai,Hi Star Auto Center LLC,4881 West Hacienda Ave,Las Vegas, NV ,89118,702 432 8686,HiStarLV702@yahoo.com
Towing,Towin,Anywhere Auto Repair & Towing,1750 N Rancho Dr,Las Vegas, NV ,89106,702 517 9077,torythetowman@yahoo.com 
Towing,Towing ,Titan Towing,Las Vegas NV 89109,Las Vegas,NV ,89109,702 333 8697,admin@miseenplacenv.com
Towing,Auto Repai,Car-Ready,214 W Wyoming Ave,Las Vegas, NV ,89102,702 477 0474,info @ car-ready.com
Towing,Auto Repai,All Team Auto Repair and Collision,6960 W Russell Rd,Las Vegas, NV ,89113,702 227 1990,allteamcollision@yahoo.com
Towing,Auto Parts & Supplies Auto Repair ,CARS Complete Auto Repair Specialists,6280 S Valley View Blvd,Las Vegas, NV ,89118,702 823 2277,info@carsnv.com
Towing,Body Shops ,Green Valley Body Shop,6275 Harrison Dr,Las Vegas, NV ,89120,702 739 0008,gvbodyshop@earthlink.net
Towing,Auto Repair ,American Auto Care,10177 W Charleston Blvd,Las Vegas, NV ,89135,702 259 2600,towingamerican@yahoo.com
Towing,Towin,Direct Connect Auto Transport,3565 Las Vegas Blvd S,Las Vegas, NV ,89109,702 800 5949,info@directconnectauto.com
Towing,Auto Repair ,Carlss Cool Cars,5115 Dean Martin Dr,Las Vegas, NV ,89118,702 771 0770,atkaparking%40hotmail.com
Towing,Auto Repair,El Jesse Auto Repair,3071 North Nellis Blvd,Las Vegas, NV ,89115,702 644 3882,eljessev@yahoo.com
Towing,Towing,Royalty Towing,595 East Brooks Ave,North Las Vegas, NV ,89030,702 869 5464, info@royaltytowing.com
Towing,Towing,Repo-Zone,,,,,,repozone7@aol.com
Towing,Auto Repai ,Bobs Autodynamics,3015 S Valley View Blvd,Las Vegas, NV ,89102,702 367 0944,bob@bobsautodynamics.com
Towing,Towing,Tiks Quick Towing,4570 E Carey Ave,Las Vegas, NV ,89115,702 525 2194,info@tiksquicktowing.com
Towing,Oil Change Stations Auto Repair,YourMechanic,Ste 2,,,,800 701 6230,hi@yourmechanic.com
Towing,Towing,Fast Towing,3850 Losee Rd,North Las Vegas, NV ,89030,702 383 3278,Fasttowing_lv@yahoo.com
Towing,Auto Repai,American Auto and Tire,3220 N Durango Dr,,,,702 259 8473,towingamerican@yahoo.com
Towing,Auto Repai ,Pep Boys Auto Parts & Service,637 E Sahara Ave,Las Vegas, NV ,89104,702 796 0600,contactus@pepboys.com
Towing,Auto Repair ,Cool Runnings Automotive Repair,5115 Dean Martin Dr,Las Vegas, NV ,89118,702 771 1257,Neil@CoolRunningsAutomotiveRepair.com
Towing,Auto Repai,Charlies Car Repair,4012 W Charleston Blvd,Las Vegas, NV ,89102,702 880 9300,aaacharliesauto@gmail.com
Towing,Auto Repair Oil Change Stations, Transmission Repair ,Dons DI Auto Repair Service,973 E Desert Inn Rd,Las Vegas, NV ,89109,702 734 6144,diautoservice@diautorepair.com
Towing,Auto Repair ,Doctor Auto,6450 W Craig Rd,Las Vegas, NV ,89108,702 645 9934, drjohn@doctorautolv.com
Towing,Auto Repai,Desert Oasis European Auto Service & Repair,2079 S Rainbow Blvd,Las Vegas, NV ,89146,702 255 4090,service@desertoasisautorepair.com
Towing,Tire,Pep Boys,3995 E Charleston Blvd,Las Vegas, NV ,89104,702 452 7168,contactus@pepboys.com
Towing,RV Repai,Busted Knuckle Mobile Mechanic,,Las Vegas, NV ,89120,702 767 7125,bustedkuncklemechanics@gmail.com

TowingCar Dealer,Park Place Infiniti,5555 W Sahara Ave,Las Vegas, NV ,89146,702 252 8100,jtortomasi@parkplace.com
Towing,Auto Repair ,Howies Automotive Service Center,980 S Main Street,Las Vegas, NV ,89101,702 979 4185,howiesauto@lvcoxmail.com
Towing,Auto Repair,Charleston Auto Repair LLC,4024 West Charleston BLVD,Las Vegas, NV ,89102,702 550 1114,lvcharleston@gmail.com
Towing,Auto Repair,Wallys Independent Honda & Acura Service Center,3290 Pinks Pl,Las Vegas, NV ,89102,702 871 7310,info@wallyslv.com
Towing,Tires ,Ted Wiens Tire & Auto,1201 S Rainbow Blvd,Las Vegas, NV ,89146,702 363 4434,manager8@tedwiens.com
Towing,Auto Repair,European Motor Cars,3440 Spring Mountain Rd,Las Vegas, NV ,89102,702 832 5105,service@emcnv.com
Towing,Body Shop,S&M Auto Body & Paint,4376 E Alexander Rd,Las Vegas, NV ,89115,702 981 7110,MyAutoService80@yahoo.com
Towing,Auto Repair,Decatur Auto Electric,2695 S Decatur Blvd,Las Vegas, NV ,89102,702 364 0043,decaturautoelectric@yahoo.com
Towing,Auto Repai,Express Collision Center,4755 W Flamingo Rd,Las Vegas, NV ,89103,702 676 2010,info@expresscollisionlv.com
Towing,Tire,Ted Wiens Tire & Auto Centers,4055 S Fort Apache Rd,Las Vegas, NV ,89147,702 435 1515,comment@tedwiens.com
Towing,Auto Repair ,Express Collision Center,4755 W Flamingo Rd,Las Vegas, NV ,89103,702 676 2010,info@expresscollisionlv.com
Towing,Auto Repair ,Delta Auto Care,6658 Boulder Hwy,Las Vegas, NV ,89122,702 550 9000, info@deltaautocare.com
Towing,Auto Repair,Outlaw Classic & Exotic Motorcars,4700 W Russell Rd,Las Vegas, NV ,89118,702 222 2277,outlawclassiccars@gmail.com
Towing,Auto Repair,The Auto Clinic,5390 S Decatur Blvd,Las Vegas, NV ,89118,702 257 0101,theautoclinicpro@aol.com
Towing,Auto Repair ,Precision Performance,3290 Pinks Pl,Las Vegas, NV ,89102,702 871 2842,info@precisionperformancelv.com
Towing,Car Dealer,Commerce Auto Body & Sales,1410 S Commerce St,Las Vegas, NV ,89102,702 474 6556,care@commerceautobodylv.com
Water Fire Damage,,,,,,,,
Water Fire Damage,Damage Restoration,Insurance Restoration Services,4544 W Russell Rd, Ste A,Las Vegas,NV,89118,702 879 4672,info@irsvegas.com
Water Fire Damage,Contractors Plumbing, Damage Restoration ,LV Restoration Inc,500 N Rainbow Blvd Ste 300,Las Vegas,NV,89107,725 777 0065,joe@lvrestoration.com
Water Fire Damage,Damage Restoration ,Absolute Flood Response,4387 W Sunset Rd,Las Vegas,NV,89118,702 243 5663,
Water Fire Damage,Damage Restoration,Trademark Restoration Services,5980 Topaz St,Las Vegas,NV,89120,702 749 9999,info@trs24-7.com
Water Fire Damage,Damage Restoration,Advanced Pro Remediation,5961 McLeod Dr,Las Vegas,NV,89120,702 252 0880,claims@westsiderestoration.com
Water Fire Damage,Damage Restoration,Mold Eliminators,1964 Sycamore Trl,Las Vegas,NV,89108,702 442 1126,
Water Fire Damage,Damage Restoration,Thistle DKI,2710 S Highland Dr,Las Vegas,NV,89109,702 871 8462,
Water Fire Damage,Damage Restoration,Thistle DKI,2710 S Highland Dr,Las Vegas,NV,89109,702 871 8462,
Water Fire Damage,Carpet Cleaning Damage Restoration,All American Repair Services Inc,5606 South Eastern Ave Ste A,Las Vegas,NV,89119,702 434 0716,
Water Fire Damage,Damage Restoration,Summit Restoration,5032 W Post Rd,Las Vegas,NV,89118,702 740 4731,service@summitrestorationlv.com
Water Fire Damage,Damage Restoration,Absolute Flood Response,4387 W Sunset Rd,Las Vegas,NV,89118,702 243 5663,
Water Fire Damage,Home Cleaning Damage Restoration, Office Cleaning,Rainbow International Of Las Vegas West,3140 Polaris AveSte 27,Las Vegas,NV,89102,702 289 9788,
Water Fire Damage,Damage Restoration Home Cleaning, Office Cleaning,Servpro of Summerlin Northsun City,10161 Park Run DrSte 150,Las Vegas,NV,89145,702 778 9461,jzachary@desertvalleyco.com
Water Fire Damage,Damage Restoration Home Inspectors,DryTech Restoration,5145 South Arville St Ste B,Las Vegas,NV,89118,702 912 4499,drytechlv@gmail.com
Water Fire Damage,Damage Restoration,Water Damage Las Vegas Group,4735 Deckow Ln Suite B-18,Las Vegas,NV,89169,702 983 5841,
Water Fire Damage,Contractors Damage Restoration ,Trustworthy Restoration,,,,,702 965 4134,
Water Fire Damage,Carpet Cleaning Damage Restoration,Rainbow International Of Centennial,7517 Heather Knoll Cir,Las Vegas,NV,89129,702 656 3570,
Water Fire Damage,Damage Restoration Contractors, Plumbing,911 Restoration of Las Vegas,,Las Vegas,NV,89101,702 623 0019,
Water Fire Damage,Damage Restoration,Ready Flood Restoration,1421 N Jones,Las Vegas,NV,89108,702 591 8889,readyfloodrestoration@gmail.com
Water Fire Damage,Damage Restoration,Aquamasters Restoration,5710 E Tropicana Ste 2187,Las Vegas,NV,89122,702 704 1282,
Water Fire Damage,Flooring Contractors, Damage Restoration ,Ultimate Choice Restoration,3040 N Simmons St Ste 104,North Las Vegas,NV,89032,702 515 1485,
Water Fire Damage,Damage Restoration ,Servpro Of Downtown Las Vegas,3995 W Cheyenne Ave Ste 107,North Las Vegas,NV,89032,702 778 9451,
Water Fire Damage,Home Cleaning Carpet Cleaning, Damage Restoration,Servpro of Northern Las Vegas,2828 Synergy St,N Las Vegas,NV,89030,702 656 0203,
Water Fire Damage,Contractors Damage Restoration, Home Inspectors,ERX Emergency Restoration Experts,2850 Synergy Street,North Las Vegas,NV,89030,702 830 9444,
Water Fire Damage,Damage Restoration,1st Response Restoration,86 Corporate Park Dr Ste 100,Henderson,NV,89074,702 462 2000,ClientCare@1stResponseRestores.com
Water Fire Damage,Damage Restoration Contractors,American Technologies Inc,70 Corporate Park Drive,Henderson,NV,89074,702 568 0800,
Water Fire Damage,Carpet Cleaning Home Cleaning, Damage Restoration,SERVPRO of Henderson Boulder City,791 Middlegate Rd,Henderson,NV,89011,702 564 8508,
Water Fire Damage,Carpet Cleaning Damage Restoration,DryFast,3433 Neeham Rd Ste 4,North Las Vegas,NV,89030,702 727 4252,customerservice@dryfast.net
Water Fire Damage,Damage Restoration ,MOLD-OUT Services,826 Baritone Way,North Las Vegas,NV,89032,800 980 8003,customerservice@moldoutservices.com
Water Fire Damage,Carpet Cleaning Damage Restoration,Steamatic of Southern Nevada,2851 Synergy St,North Las Vegas,NV,89030,702 633 0384,
Water Fire Damage,Damage Restoration,Able Restoration,3940 Garner Rd,Riverside,CA,92501,951 686 3841,
Water Fire Damage,Carpet Cleaning Damage Restoration, Home Cleaning,Rainbow International,114 Corporate Park Dr Ste 100,Henderson,NV,89074,702 566 0447,
Water Fire Damage,Carpet Cleaning Damage Restoration, Home Cleaning,Residential Service Center,1675 S Mojave Rd,Las Vegas,NV,89104,702 431 4311,
Window Washing,,,,,,,,
Window Washing,Window Washing ,G & S Window Cleaning,8121 W Rochelle Ave,Las Vegas,NV,89147,702 889 9779,kevin@gandswindowcleaning.com
Window Washing,Window Washing ,J & J Window Wash,6360 McLeod Dr,Las Vegas,NV,89074,702 274 8128,jjwindowwash
Window Washing,Window Washing ,Squeegee & Me,,,,,702 625 9421,
Window Washing,Window Washing ,Mint Clean Window Cleaning,3111 S Valley View Blvd,Las Vegas,NV,89102,888 798 6468,
Window Washing,Window Washing ,Window Masters,5086 W Post Rd,Las Vegas,NV,89118,702 794 4321,
Window Washing,Window Washing ,A Pane In the Glass,3540 W Sahara,Las Vegas,NV,89102,702 233 9274,a_paneintheglass@yahoo.com
Window Washing,Window Washing ,Flat Rate Window Cleaning,7950 W Flamingo Rd,Las Vegas,NV,89147,702 526 5145,
Window Washing,Window Washing ,Red Rock Window Cleaning,1201 Arville St,Las Vegas,NV,89102,702 804 1806,Info@RedRockWindows.com
Window Washing,Window Washing ,Eclipse Solar Screens,108 Hillsway Dr.,Las Vegas,NV,89110,702 219 4282,iliad711@yahoo.com
Window Washing,Window Washing ,Easton Pressure Washing,,,,,702 596 3346,easton@pressurewashlv.com
Window Washing,Window Washing ,Fresco Carpet Cleaning,,,,,702 340 9377,
Window Washing,Window Washing ,Quality Cleaning Services,4141 Welter Ave,Las Vegas,NV,89104,702 292 9505,
Window Washing,Window Washing ,Window Bright Window Cleaning,,,,,702 497 6342,
Window Washing,Window Washing ,Blue Truck Window Cleaning,11733 Polaris Ave,Las Vegas,NV,89141,702 461 5445,btwindowcleaning@gmail.com
Window Washing,Window Washing ,Precious Cleaning Service,9704 Brooks Lake Ave,Las Vegas,NV,89148,702 332 7251,ANTHONY@PRECIOUSCLEANING.COM
Window Washing,Window Washing ,Poseidon Pressure Washing & Window Cleaning,3816 W Colton Av,North Las Vegas,NV,89032,252 619 9050,Info@PoseidonPw.com
Window Washing,Window Washing ,1Pro Window Cleaning,,,,,702 245 9166,
Window Washing,Window Washing ,Charlies Maids,,,,,702 900 1406,
Window Washing,Window Washing ,H & J Window Cleaning,1094 Azure Heights Pl,Las Vegas,NV,89110,702 771 4548,
Window Washing,Window Washing ,Showcase Window Cleaning,5801 W Lake Mead Blvd,Las Vegas,NV,89157,702 813 3887,
Window Washing,Window Washing ,Ray Love Window Cleaning Service,8321 W Sahara Ave,Las Vegas,NV,89117,702 203 1222,
Window Washing,Window Washing ,Reflections Window Washing-Cleaning Services,8275 S Eastern Ave,Las Vegas,NV,89123,702 260 4665,
Window Washing,Window Washing ,House & Window Cleaning Art,,,,,702 460 1647,
Window Washing,Window Washing ,Squeegee Butlers,,,,,702 900 3012,
Window Washing,Window Washing ,Best Janitorial Services of Nevada,2545 Chandler Ave,Las Vegas,NV,89120,702 736 4785,bjsjanitorial@gmail.com
Window Washing,Window Washing ,Doris Cleaning & Services,,Las Vegas,NV,89135,702 236 2204,doriscleaningandservices@yahoo.com
Window Washing,Window Washing ,Home Quality Maids,,,,,702 929 3502,
Window Washing,Window Washing ,Looking Glass Window Cleaning,,,,,702 868 1320,
Window Washing,Window Washing ,Window Sparkle,817 S Main St,Las Vegas,NV,89101,702 758 3211,contact@windowsparkle.com
Window Washing,Window Washing ,Endless Commercial Cleaning,,,,,702 289 7318,endlesscommercialcleaning@gmail.com
Window Washing,Window Washing ,Vertical Resources,,,,,702 818 6673,info@vertical-resources.com
Window Washing,Window Washing ,Mr Squeegee Window Cleaning,,,,,702 538 9757,
Window Washing,Window Washing ,Kelly House Kleaners,,,,,702 330 2426,
Window Washing,Window Washing ,Pristine Clean,,Las Vegas,NV,89180,702 280 0701,Sean.Hubbard@PristineCleanLV.com
