SL,Category,Business Name,Street Address,City,State ,Zip,PhoneNumber,Email
Window Washing,Window Washing ,Sky High Window Cleaning,6130 W Flamingo Rd,Las Vegas,NV,89103,702 465 7562,
Window Washing,Window Washing ,Southwest Ultra Clear,1421 N Jones Blvd,Las Vegas,NV,89108,702 219 3525,
Window Washing,Window Washing ,Bee-Kleen Windows,5211 Souvenir Ln,Las Vegas,NV,89118,702 878 3464,
Window Washing,Window Washing ,Simply the Best Window Cleaning Ltd.,1525 E Fremont St,Las Vegas,NV,89101,702 845 8564,
Window Washing,Window Washing ,Chapman Detail,,Las Vegas,NV,,702 717 0048,
Window Washing,Window Washing ,Las Vegas Solar Screen,1824 Leonard Ln,Las Vegas,NV,89108,702 647 9274,
Window Washing,Window Washing ,ABC Real,848 N Rainbow Blvd,Las Vegas,NV,89107,702 292 4335,abcreal@cox.net
Window Washing,Window Washing ,Nevada Solar Clean,,Las Vegas,NV,,702 461 5445,
Window Washing,Window Washing ,Affordable Window Cleaning,7928 Arden Point,Las Vegas,NV,89149,702 658 3649,
Window Washing,Window Washing ,Heritage Window Cleaning and Pressure Washing,2635 Mann St,Las Vegas,NV,89146,702 265 2003,
Window Washing,Window Washing ,Fast Friendly Spotless,6955 N Durango Drive,Las Vegas,NV,89149,702 960 4711,
Window Washing,Window Washing ,Budget Janitorial,3111 S Valley View Blvd,Las Vegas,NV,89102,702 564 2307,
Window Washing,Window Washing ,My Window Cleaners,6425 Morley Ave,,,,702 326 5016,
Window Washing,Window Washing ,Fantastic Oven Cleaning Las Vegas,4370 S Grand Canyon Dr,Las Vegas,NV,89147,702 965 4026,
Window Washing,Window Washing ,FinishÂ ,7059 Kenwood St,Las Vegas,NV,89147,702 635 6675,RogerHarris@niceguysfinishglass.com
Window Washing,Window Washing ,Nevada Cleaning Systems,2505 Chandler Ave,Las Vegas,NV,89120,702 771 6013,ncscommercial@gmail.com
Window Washing,Window Washing ,Bright Cleaning Service,,,,,702 242 5888,robert@brightcleaningservicelv.com
Window Washing,Window Washing ,Nevada Glass Restoration,,Las Vegas,NV,89131,702 513 8310,nvglassrestoration@gmail.com
Window Washing,Window Washing ,Powell Window Cleaning,8167 Mystic Desert Ave,Las Vegas,NV,89131,702 587 7487,Caden@PowellWindowsLV.com
Window Washing,Window Washing ,Summerlin Maids,4550 W Oakey Blvd,Las Vegas,NV,89102,702 249 8329,admin@summerlinmaids.com
Window Washing,Window Washing ,Home Maid,8510 W Lake Mead Blvd,Las Vegas,NV,89128,702 363 7018,office@homemaidlv.com
Window Washing,Window Washing ,Mayberrys Maids,4855 W Desert Inn Rd,Las Vegas,NV,89102,702 474 6243,WeCleanLasVegas@aol.com
Window Washing,Window Washing ,ABC Real Complete Cleaning and Restoration Specialists,3450 Tanto Cir,Las Vegas,NV,89121,702 292 4335,abcreal@cox.net
Window Washing,Window Washing ,Mayberrys Maids,100 N Green Valley Pkwy,Henderson,NV,89074,702 474 6243,WeCleanLasVegas@aol.com
Window Washing,Window Washing ,A+ Foreclosure Cleanup & Property Preservation,6125 Jones Cir,Las Vegas,NV,89107,702 219 3490,kathypye06@gmail.com
Window Washing,Window Washing ,Mother Earth Maids,Castle Canyon Ave,Las Vegas,NV,89052,949 456 3994,nataspen@motherearthmaids-oc.com
Veterinary Services,,,,,,,,
Veterinary Services,Veterinarians,Boca Park Animal Hospital,1050 S Rampart Blvd,Las Vegas,NV,89145,702 675 7000,bpah@bocaparkanimalhospital.com
Veterinary Services,Veterinarians Pet BoardingPet Sitting ,Cheyenne West Animal Hospital,3650 N Buffalo Dr,Las Vegas,NV,89129,702 395 1800,admin@cheyennewest.com
Veterinary Services,Veterinarians Pet BoardingPet Sitting,Aloha Animal Hospital,7341 South Torrey Pines Dr,Las Vegas,NV,89139,702 567 5222,info@alohaah.com
Veterinary Services,Veterinarians,Mountain Vista Animal Hospital,4675 E Flamingo Rd,Las Vegas,NV,89121,702 970 4624,
Veterinary Services,Veterinarians ,Haven Animal Hospital,7775 S Rainbow Blvd Ste 160,Las Vegas,NV,89139,702 260 6260,
Veterinary Services,Veterinarians,West Flamingo Animal Hospital,5445 W Flamingo Rd,Las Vegas,NV,89103,,
Veterinary Services,Veterinarians,Pet Health Hospital,8520 W Desert Inn Rd Ste 1,Las Vegas,NV,89117,702 910 4500,
Veterinary Services,Veterinarians,Sunset Eastern Animal Hospital,6521 S Eastern Ave,Las Vegas,NV,89119,702 361 2566,
Veterinary Services,Veterinarians,Sunset Eastern Animal Hospital,6521 S Eastern Ave,Las Vegas,NV,89119,702 361 2566,
Veterinary Services,Veterinarians,Craig Road Animal Hospital,5051 W Craig Rd,Las Vegas,NV,89130,702 645 0331,
Veterinary Services,Veterinarians,Cheyenne Tonopah Animal Hospital,3348 N Rancho Dr,Las Vegas,NV,89130,702 645 3036,someone@domain.com
Veterinary Services,Veterinarians,Sahara Pines Animal Hospital,6533 W Sahara Ave,Las Vegas,NV,89146,702 876 7580,
Veterinary Services,Veterinarians,Rainbow Animal Hospital,244 S Rainbow Blvd,Las Vegas,NV,89145,702 363 1300,hr@rainbowanimalhospital.com
Veterinary Services,Veterinarians,East Charleston Animal Hospital,601 E Charleston Blvd,Las Vegas,NV,89101,702 386 0901,petcare@ecanimalcare.com
Veterinary Services,Veterinarians,Veterinary Emergency & Critical Care,,,,,,
Veterinary Services,Veterinarians,Sahara Animal Hospital,4301 W Sahara Ave,Las Vegas,NV,89102,702 876 2338,
Veterinary Services,Veterinarians ,Northwest Veterinary Hospital,6124 W Cheyenne Ave,Las Vegas,NV,89108,702 645 7999,
Veterinary Services,Veterinarians Pet BoardingPet Sitting,West Russell Animal Hospital,9140 W Russell Rd,Las Vegas,NV,89148,702 477 0144,
Veterinary Services,Veterinarians ,Durango Animal Hospital,3615 S Durango Dr,Las Vegas,NV,89147,702 242 9044,
Veterinary Services,Veterinarians ,Durango Animal Hospital,3615 S Durango Dr,Las Vegas,NV,89147,702 242 9044,
Veterinary Services,Veterinarians,Paradise Pet Hospital,1060 E Flamingo Rd,Las Vegas,NV,89119,702 734 1711,
Veterinary Services,Veterinarians,Blue Cross Animal Hospital,3470 S Hualapai Way,Las Vegas,NV,89117,702 384 8737,
Veterinary Services,Veterinarians ,Southern Hills Animal Hospital,6545 S Fort Apache Rd Ste 150,Las Vegas,NV,89148,702 586 1300,southernhillsah@gmail.com
Veterinary Services,Veterinarians Pet Services,Flamingo Pet Clinic,2675 E Flamingo Rd Ste 1,Las Vegas,NV,89121,725 696 7757,
Veterinary Services,Veterinarians,Warm Springs Animal Hospital,2500 West Warm Springs Road,Las Vegas,NV,89119,702 361 2500,
Veterinary Services,Veterinarians,Sandy Hill Animal Clinic,3752 E Tropicana Ave,Las Vegas,NV,89121,702 451 8808,cherylanast@cox.net
Veterinary Services,Veterinarians ,Spencer Springs Animal Hospital,1855 E Warm Springs Rd,Las Vegas,NV,89119,702 896 9999,info@spencersprings.com
Veterinary Services,Veterinarians Pet Services,Spay and Neuter Center of Southern Nevada,3475 E Flamingo Rd Ste 500,Las Vegas,NV,89121,702 240 7729,
Veterinary Services,Veterinarians,Gentle Doctor Animal Hospital,1550 S Rainbow Blvd,Las Vegas,NV,89146,702 259 9200,
Veterinary Services,Veterinarians Pet BoardingPet Sitting, Pet Groomers,South Shores Animal Hospital,8420 W Lake Mead Blvd Ste 102,Las Vegas,NV,89128,702 255 8050,
Veterinary Services,Veterinarians ,Animal Emergency Center,,,,,,
Veterinary Services,Veterinarians,Sunrise Veterinary Clinic,417 N Eastern Avenue,Las Vegas,NV,89101,702 382 4671,
Veterinary Services,Veterinarians,South Buffalo Springs Animal Hospital,7385 S Buffalo,Las Vegas,NV,89113,702 333 1770,
Veterinary Services,Veterinarians,West Charleston Animal Hospital,7891 W Charleston Blvd,Las Vegas,NV,89117,702 362 7387,
Veterinary Services,Veterinarians,Desert Inn Animal Hospital,3065 E Desert Inn Rd,Las Vegas,NV,89121,702 763 7855,
Veterinary Services,Veterinarians,Banfield Pet Hospital,9869 S Eastern Ave,Las Vegas,NV,89183,702 312 3286,
Veterinary Services,Veterinarians,All American Animal Hospital,6795 W Flamingo Rd,Las Vegas,NV,89103,702 227 3755,
Veterinary Services,Veterinarians Pet Groomers, Pet BoardingPet Sitting,VCA Spring Mountain Animal Hospital,5590 W Spring Mountain Road,Las Vegas,NV,89146,702 625 9570,
Veterinary Services,Veterinarians,Mauer Animal Clinic,6115 W Charleston Blvd,Las Vegas,NV,89146,702 870 1011,
Veterinary Services,Veterinarians ,Lone Mountain Animal Hospital,6688 W Cheyenne Ave,Las Vegas,NV,89108,702 645 3116,lonemountain@embarqmail.com
Veterinary Services,Veterinarians,VCA Hualapai Animal Hospital,1165 S Hualapai Way,Las Vegas,NV,89117,702 789 6969,
Veterinary Services,Veterinarians,VCA Decatur Animal Hospital,1117 N Decatur Boulevard,Las Vegas,NV,89108,702 625 9189,
Veterinary Services,Veterinarians,Tropicana Animal Hospital,2385 E Tropicana Ave,Las Vegas,NV,89119,702 736 4944,
Veterinary Services,Veterinarians,Dewey Veterinary Medical Center,4800 W Dewey Dr,Las Vegas,NV,89118,702 997 8091,
Veterinary Services,Veterinarians,Banfield Pet Hospital,9775 W Charleston Blvd,Las Vegas,NV,89117,702 932 1213,
Veterinary Services,Veterinarians,South Valley Animal Hospital,11940 Southern Highlands Pkwy,Las Vegas,NV,89141,702 451 5111,SouthValleyAnimalHospitalLVNV@gmail.com
Veterinary Services,Veterinarians Pet BoardingPet Sitting,Companion Animal Hospital,8485 W Flamingo Rd,Las Vegas,NV,89147,702 254 7387,
Veterinary Services,Veterinarians Pet Groomers, Pet BoardingPet Sitting,American Pet Hospital,3879 E Sunset Rd,Las Vegas,NV,89120,702 454 7740,
Veterinary Services,Veterinarians ,VCA Nellis Animal Hospital,20 N Nellis Boulevard,Las Vegas,NV,89110,702 789 6818,
Veterinary Services,Veterinarians ,Alta Buffalo Animal Hospital,450 S Buffalo Dr Ste 118,,,,702 838 0700,
Veterinary Services,Veterinarians,Southwest Animal Hospital,6101 W Tropicana Ave,Las Vegas,NV,89103,702 367 6700,infoswah@lvcoxmail.com
Veterinary Services,Veterinarians,Veterinary Ophthalmology Service,1914 E Sahara Ave,Las Vegas,NV,89104,702 457 6523,homewardboundcats@hotmail.com.
Veterinary Services,Veterinarians,Pebble Maryland Animal Hospital,1247 E Pebble Rd,Las Vegas,NV,89123,702 407 8311,4078311@gmail.com
Veterinary Services,Veterinarians ,Las Vegas Animal Emergency Hospital,5231 W Charleston Blvd,Las Vegas,NV,89146,702 822 1045,info@lvaeh.com
Veterinary Services,Veterinarians,Summerlin Animal Hospital,8564 Del Webb Blvd,Las Vegas,NV,89134,702 255 8499,summerlinah@yahoo.com
Veterinary Services,Veterinarians Pet BoardingPet Sitting ,Pet Medical Center of Las Vegas,9140 W Sahara Ave,Las Vegas,NV,89117,702 228 4000,staff@petmedicalcenter.com
Veterinary Services,Pet BoardingPet Sitting Veterinarians, Pet Groomers,Siena Animal Hospital,5625 S Grand Canyon Dr,Las Vegas,NV,89148,702 258 0006,info@sienaanimalhospital.com
Veterinary Services,Veterinarians ,Blue Diamond Animal Hospital,8090 Blue Diamond Rd Ste 100,Las Vegas,NV,89178,702 850 5008,bdanimalhosptal@gmail.com
Veterinary Services,Veterinarians ,Park Animal Hospital,8400 S Eastern Ave,Las Vegas,NV,89123,702 361 5850,parkanimalhosp@aol.com
Veterinary Services,Veterinarians Pet Services ,Centennial Hills Animal Hospital,7551 N Cimarron Rd,Las Vegas,NV,89131,702 655 0241,CentennialHillsAH@ymail.com
Veterinary Services,Veterinarians,Sun City Animal Hospital,9320 W Lake Mead Blvd,Las Vegas,NV,89134,702 228 4411,info@suncityvet.com
Veterinary Services,Veterinarians Pet Services,Animal Allergy & Dermatology Specialists,6032 S Durango Dr Ste 100,Las Vegas,NV,89113,702 243 1885,staff@animaldermspecialists.com
Veterinary Services,Exceptional veterinary care in Las Vegas,Pecos Russell Animal Hospital,3488 E. Patrick Lane,Las Vegas,,,702 456 3848,contactus@pecosrussellah.com
Veterinary Services,Veterinarians,Carey Animal Clinic,2000 E Carey Ave,North Las Vegas,NV,89030,702 649 4291,CareyAnimalClinic@Gmail.com
Veterinary Services,Pet BoardingPet Sitting Pet Groomers,Just Like Home Doggie Hotel And Grooming,4872 W Lake Mead Blvd,Las Vegas,NV,89108,702 558 5689,info@jlhdogcare.com
Veterinary Services,Veterinarians,Veterinary Surgical Services,6995 Alamitos Cir,Las Vegas,NV,89120,702 435 1375,drbojrab@aol.com
Veterinary Services,Veterinarians,Horizon Veterinary Clinic,601 Greenway Rd,Henderson,NV,89002,702 558 4552,hznvet@hznvet.com
Veterinary Services,Pet BoardingPet Sitting Pet Groomers,The Pug Mom,,Las Vegas,NV,89117,702 862 6426,alexatakesphotos@gmail.com
Veterinary Services,Pet BoardingPet Sitting Pet Groomers,Hot Diggity Dog Daycare,3290 N Buffalo Dr,Las Vegas,NV,89129,702 728 4863,info@hotdiggitydogdaycare.com
Veterinary Services,Pet BoardingPet Sitting,Camp Bow Wow Las Vegas,5175 S Valley View Blvd,Las Vegas,NV,89118,702 255 2267,lasvegas@campbowwowusa.com
Veterinary Services,Veterinarians,Carey Animal Clinic,2000 E Carey Ave,Las Vegas,NV,89030,702 649 4291,CareyAnimalClinic@Gmail.com
Veterinary Services,Veterinarians,Banfield Pet Hospital,6650 N Durango Dr,Las Vegas,NV,89149,702 307 2596,BanfieldWebSupport@banfield.com
Veterinary Services,Pet BoardingPet Sitting Pet Groomers,Just Like Home Doggie Hotel And Grooming,4872 W Lake Mead Blvd,Las Vegas,NV,89108,702 558 5689,info@jlhdogcare.com
Veterinary Services,Veterinarians,Veterinary Surgical Services,6995 Alamitos Cir,Las Vegas,NV,89120,702 435 1375,drbojrab@aol.com
Veterinary Services,Veterinarians,Shawn D. Frehner DVM,7245 N Tenaya Way,Las Vegas,NV,89131,702 396 6188,drshawnfrehner@gmail.com
Veterinary Services,Veterinarians,Horizon Veterinary Clinic,601 Greenway Rd,Henderson,NV,89002,702 558 4552,hznvet@hznvet.com
Veterinary Services,Veterinarians,St. Rose Animal Urgent Care,3255 St Rose Pkwy,Henderson,NV,89052,702 776 7650,info@stroseauc.com
Veterinary Services,Pet Stores Pet BoardingPet Sitting ,A Puppy Paradise,1950 S. Rainbow Blvd,Las Vegas,NV,89146,702 871 3100,info@apuppyparadise.com
Veterinary Services,Pet BoardingPet Sitting Pet Groomers ,Luxe Pet Hotels,3480 Cavaretta Ct,Las Vegas,NV,89103,702 222 9220,info@luxepethotels.com
Veterinary Services,Pet BoardingPet Sitting Pet Groomers,The Pug Mom,,Las Vegas,NV,89117,702 862 6426,alexatakesphotos@gmail.com
Veterinary Services,Pet BoardingPet Sitting ,LV Dog Resort,6810 W Sahara Ave,Las Vegas,NV,89146,702 560 7387,info@lvdoghotel.com
Veterinary Services,Pet BoardingPet Sitting Pet Groomers ,Small Town Dog,3430 E Tropicana Ave,Las Vegas,NV,89121,702 750 9962,smalltowndoglv@yahoo.com
Veterinary Services,Pet BoardingPet Sitting Pet Groomers ,Hot Diggity Dog Daycare,3290 N Buffalo Dr,Las Vegas,NV,89129,702 728 4863,info@hotdiggitydogdaycare.com
Veterinary Services,Pet Stores Pet BoardingPet Sitting ,A Puppy Paradise,1950 S. Rainbow Blvd,Las Vegas,NV,89146,702 871 3100,info@apuppyparadise.com
Veterinary Services,Veterinarians,Shawn D. Frehner DVM,7245 N Tenaya Way,Las Vegas,NV,89131,702 396 6188,drshawnfrehner@gmail.com
Veterinary Services,Veterinarians Pet Groomers, Pet BoardingPet Sitting,Pecos Russell Animal Hospital,3488 E Patrick Ln,Las Vegas,NV,89120,702 456 3848,contactus@pecosrussellah.com
Veterinary Services,Veterinarians Pet Groomers, Pet BoardingPet Sitting,Legacy Animal Hospital,2591 Windmill Pkwy,Henderson,NV,89074,702 263 9004,legacyanimalhospital@yahoo.com
