SL,Category,Business Name,Street Address,City,State ,Zip,PhoneNumber,Email
Appliance Repair,Appliances & Repair,Zenon Repair,,,,,702 609 2333,
Appliance Repair,Appliances & Repair ,Goods Appliance Repair,,,,,702 704 5444,goodsappliancerepair@gmail.com
Appliance Repair,Appliances & Repair ,High Quality Service,9633 Crimson Ave,Las Vegas,NV,89129,702 431 3175,highqualityservice@hqslasvegas.com
Appliance Repair,Appliances & Repair ,Appliance Repair Experts,4920 W Cheyenne Ave,Las Vegas,NV,89130,702 515 1515,
Appliance Repair,Appliances & Repair ,Apex Appliance Repair,7612 Cruz Bay CT,Las Vegas,NV,89128,702 850 5613,Apexappliancerepair1@yahoo.com
Appliance Repair,Appliances & Repair ,Appliance Rescue,501 N Eastern Ave,Las Vegas,NV,89101,702 850 5613,appliancepartscenter@gmail.com
Appliance Repair,Handyman Appliances & Repair ,A Problem Solved Maintenance LLC,,Las Vegas,NV,89147,702 487 8875,info@aproblemsolvedllc.com
Appliance Repair,Appliances & Repair ,A Professional Appliance Repair,,Las Vegas,NV,,702 768 0944,
Appliance Repair,Appliances & Repair Appliances,American Appliance Company,889 S Rainbow Blvd Ste 609,Las Vegas,NV,89145,702 701 8557,americanappliancecompany@gmail.com
Appliance Repair,Appliances & Repair,Katanny Appliances Services,,Las Vegas,NV,89129,702 768 8540,
Appliance Repair,Appliances & Repair ,Emergency Appliance Repair,848 N Rainbow Blvd,Las Vegas,NV,89107,702 983 5922,emergencyappliancerepairlv@gmail.com
Appliance Repair,Appliances & Repair,Appliance Alliance,8323 Fort Hallock Ave,Las Vegas,NV,89131,702 366 1861,info@allhomeappliancelv.com
Appliance Repair,Appliances & Repair,Absolute Appliance Services,6655 Pendle Priory Ave,Henderson,NV,89011,702 496 3576,
Appliance Repair,Appliances & Repair,Econ-the Appliance People,6630 Arroyo Springs St,Las Vegas,NV,89113,702 384 4682,
Appliance Repair,Appliances & Repair,Las Vegas Refrigerator Repair,7537 S Rainbow Blvd,Las Vegas,NV,89139,702 838 6231,
Appliance Repair,Appliances & Repair,M&M Appliance,4829 Greencreek Dr,Las Vegas,NV,89110,702 354 8491,
Appliance Repair,Appliances & Repair ,Kirby Company Service of Las Vegas,5643 W Charleston Blvd,Las Vegas,NV,89146,702 362 9007,
Appliance Repair,Appliances & Repair ,Reliable Appliances,3421 E Tropicana Ave,Las Vegas,NV,89120,702 848 4526,
Appliance Repair,Heating & Air ConditioningHVAC Appliances & Repair,Royal Refrigeration Air Conditioning & Heating,5150 Arville St,Las Vegas,NV,89118,702 658 3445,contact@royalac.com
Appliance Repair,Appliances & Repair,Sunrise Appliance Service,,Las Vegas,NV,89101,702 457 0844,
Appliance Repair,Appliances & Repair Heating & Air ConditioningHVAC,AtCher Service,3281 N Decatur Blvd,Las Vegas,NV,89130,702 505 8111,
Appliance Repair,Appliances & Repair Heating & Air ConditioningHVAC,Pauls Washer and Dryer Repair,10624 S Eastern Ave,Henderson,NV,89052,702 218 4300,
Appliance Repair,Appliances & Repair Heating & Air ConditioningHVAC,GE Appliance Service,4610 Arville St,Las Vegas,NV,89103,702 733 1500,
Appliance Repair,Appliances & Repair Heating & Air ConditioningHVAC,All City Refrigeration,8550 W Charleston Blvd,Las Vegas,NV,89117,702 838 6231,
Appliance Repair,Appliances & Repair Heating & Air ConditioningHVAC,Appliance EMT Experts,,,,,702 347 0739,
Appliance Repair,Appliances & Repair Heating & Air ConditioningHVAC,GE Appliance Repair,,Las Vegas,NV,89136,702 433 4020,
Appliance Repair,Appliances & Repair ,Buylow Appliance Sales & Service,5730 Boulder Hwy,Las Vegas,NV,89122,702 433 4020,
Appliance Repair,Appliances & Repair ,Vegas Vacuum and Sewing,5965 W Sahara Ave,Las Vegas,NV,89146,702 364 1107,allvacuumsewing@msn.com
Appliance Repair,Appliances & Repair ,S.O.S. Appliance Service,,Las Vegas,NV,89130,702 720 9666,
Appliance Repair,Plumbing Appliances & Repair,The Water Heater Man,3700 Meade Ave,Las Vegas,NV,89102,702 222 0041,rcox@whmlv.com
Appliance Repair,Appliances & Repair ,A & R Appliance,1932 Western Ave,Las Vegas,NV,89102,702 384 6633,
Appliance Repair,Appliances & Repair ,A-1 Vacuum & Sewing,4069 W Charleston Blvd,Las Vegas,NV,89102,702 870 7986,
Appliance Repair,Appliances & Repair ,Two-Way Communications,4674 S Valley View Blvd,Las Vegas,NV,89103,702 739 7212,twowaycurt@earthlink.net
Appliance Repair,Appliances & Repair ,All Desert Appliances,222 S Rainbow Blvd,Las Vegas,NV,89145,702 472 9900,
Appliance Repair,Appliances & Repair ,Las Vegas Appliance Repair Doctors,1736 E Charleston Blvd,Las Vegas,NV,89104,702 291 7949,
Appliance Repair,Outlet Stores Appliances & Repair, Appliances,Smart Buy Appliance Outlet,5280 S Valley View Blvd,Las Vegas,NV,89118,702 601 3972,
Appliance Repair,Appliances & Repair ,Absolutely Elite Appliance,,Las Vegas,NV,,702 239 3697,
Appliance Repair,Appliances & Repair Heating & Air ConditioningHVAC,Rent Cold Air,6825 Speedway Blvd,Las Vegas,NV,89115,702 504 3636,
Appliance Repair,Appliances & Repair ,Elite Vacuums Plus,10170 W Tropicana Ave,Las Vegas,NV,89147,702 998 9990,
Appliance Repair,Appliances & Repair ,Payless Appliance Repair,(702) 689-2066,Las Vegas,NV,89123,,
Appliance Repair,Appliances & Repair ,All Valley Washer and Dryer Repair,6868 Sky Pointe Dr,Las Vegas,NV,89131,702 994 5157,
Appliance Repair,Appliances & Repair ,Appliance Parts Company,2001 S. Western Ave.,Las Vegas,NV,89102,702 382 6532,
Appliance Repair,Appliances & Repair ,Las Vegas Appliance Repair,3565 S Las Vegas Blvd,Las Vegas,NV,89109,702 302 4991,
Appliance Repair,Appliances & Repair ,Vegas Vacuum & Sewing,2243 N Rampart Blvd,Las Vegas,NV,89128,702 242 1725,allvacuumsewing@msn.com
Appliance Repair,Appliances & Repair ,Action Appliance,2245 N Decatur Blvd,Las Vegas,NV,89108,702 742 2531,
Appliance Repair,Appliances & Repair ,Elite Installs,3470 E Russell Rd,Las Vegas,NV,89120,702 758 4412,
Appliance Repair,Appliances & Repair ,Certified Appliance,3395 S Jones Blvd,Las Vegas,NV,89146,702 877 1000,
Appliance Repair,Appliances & Repair ,Kings Appliance Repair,6550 S Pecos Rd,Las Vegas,NV,89120,702 294 2900,mahlerappliance@optonline.net
Appliance Repair,Contractors Garage Door Services, Appliances & Repair ,Vantage Garage Doors,3651 Lindell Rd,Las Vegas,NV,89103,702 419 7559,vantagedoors@gmail.com
Appliance Repair,Appliances & Repair ,Las Vegas Appliance Service,1155 E Twain Ave,Las Vegas,NV,89169,702 358 0092,appliancesc@yahoo.com
Appliance Repair,Appliances & Repair ,Best Choice Appliance Repair,1905 Betsy Ross Dr,Las Vegas,NV,89108,702 835 2590,bestchoiceapplianceslv@gmail.com
Appliance Repair,Appliances Appliances & Repair, Kitchen & Bath ,AHS Group,4350 Arville St,Las Vegas,NV,89103,702 369 6318,ahsgroup@lvcoxmail.com
Appliance Repair,Appliances Appliances & Repair, Kitchen & Bath ,Red Rock Coffee Outfitters,,Las Vegas,NV,89106,702 964 7726,patrick@redrockcoffeeoutfitters.com
Appliance Repair,Appliances Appliances & Repair, Kitchen & Bath ,Reliable Pump & Motor,4105 W Bell Dr,Las Vegas,NV,89118,702 243 5116,info@rpmindustrial.com
Appliance Repair,Appliances Appliances & Repair, Kitchen & Bath ,Sun City Appliance Repair,6779 Flora Dr,Las Vegas,NV,89103,702 574 3899,suncityappliancerepair@gmail.com
Appliance Repair,Appliances Appliances & Repair, Kitchen & Bath ,Fidelity Appliances Services Team,,Las Vegas,NV,89145,702 506 8224,fidelityapplianceserviceteam@gmail.com
Appliance Repair,Appliances Appliances & Repair, Kitchen & Bath ,Allstate Appliances,4995 S Eastern Ave,Las Vegas,NV,89919,702 891 9112,mmgoodwin3@gmail.com
Appliance Repair,Appliances & Repair Appliances,Appliance Solutions,2500 Karen Ave,Las Vegas,NV,89121,702 488 4799,appliance.solutions@ymail.com
Appliance Repair,Appliances Appliances & Repair, Kitchen & Bath ,Sams Appliance Repair,8440 W Cliff Dr,Las Vegas,NV,89145,702 256 6212,sam@samsappliancerepair.com
Appliance Repair,Appliances & Repair Appliances,Champion Electronics,4425 E Stewart Ave,Las Vegas,NV,89110,702 531 3300,erickmedranoza@yahoo.com
Appliance Repair,Appliances & Repair Appliances,Wilshire Refrigeration & Appliance Inc.,,Las Vegas,NV,89103,800 427 3653,service@wilshirerefrigeration.com
Appliance Repair,Appliances & Repair,Mr Appliance of West Las Vegas,2284 Aragon Canyon St,Las Vegas,NV,89135,725 696 8690,info@MrAppliance.com
Appliance Repair,Heating & Air ConditioningHVAC Appliances & Repair ,Jet Stream Air LLC and Appliance,7450 Palmyra Ave,Las Vegas,NV,89117,443 763 1801,williamlowman.wl@gmail.com
Appliance Repair,Appliances & Repair,Insertcoins,3111 S Valley View,Las Vegas,NV,89102,702 518 4735,info@insertcoins.com
Appliance Repair,Appliances & Repair,Vegas Vacuum and Sewing,9711 S Eastern Avenue,Las Vegas,NV,89183,702 735 4900,allvacuumsewing@msn.com
Appliance Repair,Plumbing Heating & Air ConditioningHVAC, Appliances & Repair,Sunrise Mechanical Inc,7380 Commercial Way,Henderson,NV,89011,702 568 5500,service@sunrisehvac.com
Appliance Repair,Appliances & Repair,Ionized Water Company,8275 S Eastern Ave,Las Vegas,NV,89123,888 868 5428,info@ionized-water.co
Appliance Repair,Appliances & Repair,Appliance Repair Las Vegas,3925 Marble Mountain St,Las Vegas,NV,89129,702 989 2064,appointment@appliancerepairlasvegas.mobi
Appliance Repair,Outlet Stores Appliances & Repair, Appliances ,Sears Outlet,10405 South Eastern Ave,Henderson,NV,89052,702 361 3803,outlet@customerservice.sears.com
Appliance Repair,Appliances & Repair,Stone Free Commercial Services,,Las Vegas,NV,89131,702 255 7668,service@stonefreecommercialservices.com
Appliance Repair,Appliances & Repair Heating & Air ConditioningHVAC, Handyman,Aire Force One AC and Heat,,Henderson,NV,89014,702 339 4006,aireforce1@yahoo.com
Appliance Repair,Appliances & Repair Heating & Air ConditioningHVAC, Handyman,Banks Oreck Vacuum & Clean Home Centers,1205 W Warm Springs Rd,Henderson,NV,89014,702 964 1003,manchester@banksoreck.com
Appliance Repair,Contractors Plumbing, Damage Restoration,LV Restoration Inc.,500 N Rainbow Blvd,Las Vegas,NV,89107,725 777 0065,joe@lvrestoration.com
Carpenter,Handyman Plumbing, Heating & Air ConditioningHVAC ,WC Maintenance Services,8832 Borla Dr,Las Vegas,NV,89117,702 902 0982,wcmaintserv@yahoo.com
Carpenter,Handyman Landscaping,Sun City Lawn and Handymen Services,1733 Kassavian Ave,Las Vegas,NV,89104,702 980 1881,edgaritodoniz94@gmail.com
Carpenter,Handyman ,Sell Ready Handyman Services,848 N Rainbow Blvd Ste 101,Las Vegas,NV,89107,702 595 0388,sellreadycorp@gmail.com
Carpenter,Handyman ,Meyer Handyman Service,5850 Medallion Dr Ste 202,Las Vegas,NV,89122,702 610 5215,meyerhandymanservice@yahoo.com
Carpenter,Handyman,Handyman Restorations,6350 W Cheyenne Ave,Las Vegas,NV,89108,702 539 3969,handymanrestore@gmail.com
Carpenter,Handyman,Jemco Handyman Service,3925 Costa Mesa Ave,Las Vegas,NV,89110,702 502 4599,jemco.biz@gmail.com
Carpenter,Handyman,Handyman For Vegas,9752 Ocotillo Falls,Las Vegas,NV,89183,702 403 0830,handymanforvegas@gmail.com
Carpenter,Handyman Framing ,Hanging Around Town,2972 S Rainbow Blvd Ste A,Las Vegas,NV,89146,702 271 2038,info@hatlv.com
Carpenter,Handyman,R and R Services,,Las Vegas,,,702 289 5145,aaron@randrservicesnv.com
Carpenter,Handyman,Red Rock Handyman,11020 Napa Rdg,Las Vegas,NV,89144,702 353 6935,mark@redrockhandyman.com
Carpenter,Handyman,A Z Handyman,6895 E Lake Mead Blvd A6-176,Las Vegas,NV,89156,702 685 6377,a-zhandyman@cox.net
Carpenter,Electricians Handyman,A Helping Hand Handyman Services,1716 Linn Ln,Las Vegas,NV,89156,702 812 2103,jon@helpinghandlv.com
Carpenter,Handyman Painters,Zorro Remodelers,,Las Vegas,,,702 639 0569,customersupport@zorroremodelers.com
Carpenter,Handyman,JC On The Job,,Las Vegas,,,702 525 7661,JC@jconthejob.com
Carpenter,Appliances & Repair Heating & Air ConditioningHVAC, Handyman,Aire Force One AC and Heat,,Las Vegas,NV,89014,702 339 4006,aireforce1@yahoo.com
Carpenter,Handyman,Clocks and Locks,183 N Gibson Rd,Las Vegas,NV,89014,702 454 8444,clocksandlocks@aol.com
Carpenter,Handyman,McIntire Handyman and Remodeling Service,,Las Vegas,NV,89074,702 300 2925,jessemcintire1@gmail.com
Carpenter,Handyman,Exact Home Solutions,,Las Vegas,,,702 480 7277,shannon@exacthomesolutions.com
Carpenter,Handyman,First Stop Maintenance,124 Kola Street,Las Vegas,NV,89015,702 708 4463,info@firststopmaintenance.com
Carpenter,Personal Care Services Handyman, Home Health Care,Unique In-Home Care,,Las Vegas,NV,89052,702 527 2537,Admin@UniqueIHC.com
Carpenter,Handyman ,Akamai Handyman & Pool Service,,Las Vegas,,,702 423 0258,akamaihmps@outlook.com
Carpenter,Handyman ,Lake Front Pool & Spa,,Las Vegas,NV,89005,702 294 8000,info@lakefrontpools.com
Car Washing,Car Wash Auto Detailing,Windy City Wash and Wax,4790 Polaris Ave,Las Vegas,NV,89103,702 227 9274,Info@WindyCityWash.com
Car Washing,Auto Detailing Car Wash, Auto Repair ,EcoWash Automotive Center,7235 S Rainbow Blvd,Las Vegas,NV,89118,702 270 9274,ecowashautospa@yahoo.com
Car Washing,Car Wash Auto Detailing, Windshield Installation & Repair,Alamo Hand Car Wash,5705 S Rainbow Blvd,Las Vegas,NV,89118,702 876 3500,michael@alamohandcarwash.com
Car Washing,Car Wash Auto Detailing, Auto Glass Services,Flamingo Hand Car Wash,6047 W Flamingo Rd,Las Vegas,NV,89103,702 517 3387,
Car Washing,Car Wash,Desert Car Wash,7890 W Ann Rd,Las Vegas,NV,89149,702 534 0300,
Car Washing,Auto Detailing Car Wash,N&J Mobile Car Wash And Detail,7885 W Flamingo,Las Vegas,NV,89147,702 418 9887,
Car Washing,Car Wash,Quick & Clean Car Wash,3265 S Nellis Blvd,Las Vegas,NV,89121,702 629 6600,
Car Washing,Car Wash,Super Hand Car Wash,2250 S Maryland Pkwy,Las Vegas,NV,89104,702 715 8183,
Car Washing,Car Wash Body Shops,Oasis Hand Car Wash,3425 E Flamingo Rd,Las Vegas,NV,89121,702 433 3680,
Car Washing,Auto Detailing Car Wash,Alamo Hand Car Wash,2901 N Rancho Dr,Las Vegas,NV,89130,702 850 7258,
Car Washing,Auto Detailing Car Wash,Gloss-It Auto Detailing Studio,4060 W Hacienda Ave Ste 110,Las Vegas,NV,89118,702 252 4000,info@gloss-it.com
Car Washing,Car Wash,University Auto Spa,1196 E Tropicana Ave,Las Vegas,NV,89119,,
Car Washing,Car Wash Auto Detailing,Charleston West Car Wash,4820 W Charleston Blvd,Las Vegas,NV,89146,702 878 4825,bobscarwash@lvcoxmail.com
Car Washing,Smog Check Stations Car Wash,Super Smog One,1465 E Windmill Ln,Las Vegas,NV,89123,702 376 3811,
Car Washing,Car Wash Auto Detailing, Smog Check Stations,Premier Car wash,6451 W Charleston Blvd,Las Vegas,NV,89146,702 821 1808,
Car Washing,Car Wash Gas & Service Stations,Terrible Herbst,4090 S Maryland Pkwy,Las Vegas,NV,89119,702 735 8108,
Car Washing,Car Wash Gas & Service Stations,Splash N Dash Car Wash,7282 S Fort Apache Dr,Las Vegas,NV,89148,702 651 0007,
Car Washing,Car Wash,Terrible Herbst,4070 S Arville St,Las Vegas,NV,89103,702 364 2514,
Car Washing,Car Wash Convenience Stores,Terrible Herbst,11330 Southern Highlands Pkwy,Las Vegas,NV,89141,,
Car Washing,Gas & Service Stations Car Wash,Terrible Herbst,9415 W Tropicana Ave,Las Vegas,NV,89147,702 222 9429,
Car Washing,Car Wash,World Famous Glasshouse Carwash,1550 W Oakey Blvd,Las Vegas,NV,89102,702 366 0071,
Car Washing,Car Wash Gas & Service Stations,Terrible Herbst,7510 W Cheyenne,Las Vegas,NV,89129,702 395 0270,
Car Washing,Car Wash Convenience Stores,Fabulous Freddys,4350 S Durango Dr,Las Vegas,NV,89147,702 367 2250,
Car Washing,Gas & Service Stations Car Wash,Terrible Herbst,333 S Main St,Las Vegas,NV,89101,702 386 1747,
Car Washing,Car Wash Oil Change Stations, Gas & Service Stations,Fabulous Freddys,1101 S Fort Apache Rd,Las Vegas,NV,89117,702 967 1000,
Car Washing,Auto Detailing Car Wash,Vegas Pro Wash Mobile Detailing,,Las Vegas,NV,,702 460 5378,
Car Washing,Auto Detailing Car Wash,Premier Auto Wash,4975 E Charleston Blvd,Las Vegas,NV,89104,702 431 8177,
Car Washing,Car Wash,Heisenberg Car Launder,1717 S Decatur Blvd,Las Vegas,NV,89102,702 377 9307,
Car Washing,Gas & Service Stations Car Wash,Terrible Herbst,7301 W Lake Mead Boulevard,Las Vegas,NV,89128,702 869 0291,
Car Washing,Car Wash,Speedy Car Wash,1402 N Eastern Ave,Las Vegas,NV,89101,702 900 5136,
Car Washing,Gas & Service Stations Car Wash,Terrible Herbst,4075 S Buffalo Drive,Las Vegas,NV,89147,702 221 9902,
Car Washing,Car Wash Convenience Stores, Windshield Installation & Repair,Fabulous Freddys,7155 Grand Montecito Pkwy,Las Vegas,NV,89149,702 405 2960,
Car Washing,Auto Detailing Car Wash,DeTemple Mobile Detailing,4800 Charelston,Las Vegas,NV,89107,702 576 6939,
Car Washing,Car Wash,Bubbles Auto Spa,2535 S Torrey Pines Dr,Las Vegas,NV,89146,702 489 7990,
Car Washing,Car Wash,Foster Day Car Wash,7501 Alta Dr,Las Vegas,NV,89145,702 605 2127,
Car Washing,Gas & Service Stations Car Wash,Terrible Herbst,6915 Blue Diamond Rd,Las Vegas,NV,89178,702 492 0261,
Car Washing,Car Wash Auto Detailing, Gas & Service Stations,Showtime Carwash,5893 W Tropicana Ave,Las Vegas,NV,89103,702 889 6511,info@showtimecarwash.com
Car Washing,Car Wash,Quick N Clean Car Wash,5550 W Charleston Blvd,Las Vegas,NV,89146,480 444 8060,info@quicknclean.net
Car Washing,Auto Detailing Car Wash, Smog Check Stations,Country Club Auto Spa,9260 S Eastern Ave,Las Vegas,NV,89123,702 614 6146,countryclubautospa@gmail.com
Car Washing,Gas & Service Stations Propane, Car Wash,Red Rock Chevron,8500 W Charleston Blvd,Las Vegas,NV,89117,702 255 2272,lubetek@chevron.com
Car Washing,Car Wash,Friendly Bear Full Service Hand Car Wash,895 N Nellis Blvd,Las Vegas,NV,89110,702 531 0900,annotationstar@2x.png
Car Washing,Gas & Service Stations Car Wash, Smog Check Stations,Sinclair Choice,8095 S Rainbow Blvd,Las Vegas,NV,89139,702 589 2840,david_sinclair@hms.harvard.edu
Car Washing,Auto Detailing Car Wash, Wheel & Rim Repair,The Specialists Automotive Detail Studio,6275 Hinson St,Las Vegas,NV,89118,702 580 6027,steve@superiordetailer.com
Car Washing,Car Wash Oil Change Stations, Auto Detailing,Fabulous Freddys Summerlin,9611 Trailwood Dr,Las Vegas,NV,89134,702 942 3170,ajax-loader@2x.gif
Car Washing,Auto Detailing,The Best Detail,8566 Hogan Falls Cir,Las Vegas,NV,89123,702 577 2470,peter@thebestdetail.com
Car Washing,Car Wash,Sparkle Car Wash,9780 W Tropicana Ave,Las Vegas,NV,89147,702 362 3150,info@speedysparklecarwash.com
Car Washing,Car Wash Smog Check Stations,Oasis Car Wash and Smog,2080 E Warm Springs Rd,Las Vegas,NV,89119,702 914 7878,Jdlv1@cox.net
Car Washing,Car Wash,Vegas Suds Carwash,3810 N Jones Blvd,Las Vegas,NV,89108,702 641 0970,jim@nvwash.com
Car Washing,Car Wash Convenience Stores,Fabulous Freddys,4350 S Durango Dr,Las Vegas,NV,89147,702 367 2250,ajax-loader@2x.gif
Car Washing,Car Wash,Platinum Plus Mobil Car Wash,953 E Sahara Ave,Las Vegas,NV,89104,702 731 9004,hello@platinumcarwashandoil.com
Car Washing,Car Wash Oil Change Stations, Gas & Service Stations,Fabulous Freddys,1101 S Fort Apache Rd,Las Vegas,NV,89117,702 967 1000,ajax-loader@2x.gif
Car Washing,Convenience Stores Gas & Service Stations, Car Wash,Peak Mart,9010 W Flamingo Rd,Las Vegas,NV,89147,702 233 8061,edgar@eltonoptics.com
Car Washing,Auto Detailing Car Wash,Paradise Mobile Detail,,Las Vegas,NV,89144,702 448 2300,james@paradisedetail.com
Car Washing,Auto Detailing Car Wash,MAD Mobile Auto Detailing,4510 W Diablo DrSte 111,Las Vegas,NV,89118,702 540 6213,MADMOBILEDETAIL@AOL.COM
Car Washing,Gas & Service Stations Convenience Stores, Car Wash,Chevron,1196 E Tropicana Ave,Las Vegas,NV,89119,702 736 0838,media@chevron.com
Car Washing,Auto Detailing Car Wash, Car Stereo Installation,Xtreme Image,4991 Merrill Ave,Las Vegas,NV,89120,702 400 1283,xtremeimage2005@Yahoo.com
Car Washing,Gas & Service Stations Car Wash,Fills No 2,6985 S Rainbow Blvd,Las Vegas,NV,89118,702 307 8659,info@fillsgas.com
Car Washing,Car Wash Auto Detailing,Ecos Auto Detail,304 N Wallace Dr,Las Vegas,NV,89107,702 606 9274,ecosautodetail@gmail.com
Car Washing,Car Wash,Blue Beacon,2932 Losee Rd,Las Vegas,NV,89030,702 642 4999,wash@BlueBeacon.com
Car Washing,Car Wash,Valle Verde Hand Car Wash,5790 E Charleston Blvd,Las Vegas,NV,89142,702 336 7098,richardest5@40me.com
Car Washing,Convenience Stores Gas & Service Stations, Car Wash,Fills,7110 S Durango Dr,Las Vegas,NV,89113,702 454 5505,info@fillsgas.com
Car Washing,Gas & Service Stations Car Wash, Convenience Stores,Get N Go,3366 St. Rose Pkwy,Henderson,NV,89052,702 260 0280,lubetek@chevron.com
Car Washing,Auto Detailing Car Wash,White Glove Auto Spa,,Henderson,NV,89052,702 832 5533,inquiry@whitegloveauto.com
Car Washing,Car Wash Auto Detailing,Vegas Pressure Clean,3451W Martin Ave,Las Vegas,NV,89118,702 577 0894,Vegaspressureclean@gmail.com
Car Washing,Auto Detailing Car Wash,Famous Auto Detailing,,Las Vegas,NV,89128,702 277 5303,keith@famousdetailing.com
Car Washing,Car Wash,Luxury Auto Spa,3655 S Fort Apache Road,Las Vegas,NV,89147,702 645 2347,contact@DomainMarket.com
Car Washing,Auto Detailing,Sin City Mobile Detailing,768 Rustic Desert Pl,Henderson,NV,89011,702 533 0516,customercare@help.mindspark.com
Car Washing,Auto Detailing Car Wash,Sunnys Auto Spa and Detail LLC,3216 E Fremont St,Las Vegas,NV,89104,702 494 7722,heredetailing4u@gmail.com
Car Washing,Gas & Service Stations Convenience Stores, Car Wash,Chevron Station,3061 St Rose Pkwy,Henderson,NV,89052,702 896 7081,fueltek@chevron.com
Car Washing,Car Wash Gas & Service Stations,7-Eleven,2525 Deer Springs Way,Las Vegas,NV,89084,702 733 7111,Franchise.Inquiries@7-11.com
Car Washing,Gas & Service Stations Car Wash,Rebel,250 W Craig Rd,Las Vegas,NV,89031,702 642 4142,warehouse@rebeloil.com
Car Washing,Car Wash,Sparkle Mobile Car Wash,8316 Ashkum St,Las Vegas,NV,89149,702 374 4468,info1@sparklemobilecarwash.com
Car Washing,Auto Detailing Car Wash,Monarch Car Care,,Las Vegas,NV,89135,702 326 2724,david@monarchcarcare.com
Car Washing,Auto Detailing,Convenience Crew,848 N. Rainbow Blvd,Las Vegas,NV,89107,702 610 4153,hello@burgerlover.com
Car Washing,Carpet Cleaning Auto Detailing, Car Wash,A & A Auto Detailing,,Las Vegas,NV,89110,702 505 2458,andy0974@gmail.com
Car Washing,Auto Detailing Car Wash,Bravo Detailing,231 W Horizon Ridge Pkwy,Henderson,NV,89012,702 373 6739,jbravodetailing@gmail.com
Car Washing,Auto Detailing Car Wash,Las Vegas Professional Detailing,809 Biljac St,Las Vegas,NV,89145,702 773 6219,Detail@LVPD.email
Car Washing,Auto Detailing Pressure Washers,Clean Freaks Mobile Detailing,4538 Palm Mesa Dr,Las Vegas,NV,89120,702 544 0424,mike@mobilecleanfreaks.com
Car Washing,Auto Detailing,G.O.A.T. Mobile Detailing & Services,,,,,702 587 9183,goatmobiledas @gmail.com
Car Washing,Carpet Cleaning Auto Detailing,Jays Mobile Detail & Carpet Cleaning,9117 Ripple Ridge Ave,Las Vegas,NV,89136,702 480 8682,jayzmobiledetail@aol.com
Carpet Cleaning,,,,,,,,
Carpet Cleaning,Carpet Cleaning Damage Restoration, Pressure Washers ,Noble Carpet Cleaners,7770 Duneville St Ste 4,Las Vegas,NV,89139,702 675 4348,service@noblecapetcleanerslv.com
Carpet Cleaning,Carpet Cleaning Damage Restoration,Carpet Monkeys Of Las Vegas,8985 S Durango Dr,Las Vegas,NV,89113,702 561 3560,
Carpet Cleaning,Carpet Cleaning Office Cleaning,J2 Cleaning Las Vegas,7437 S Eastern Ave Ste 424,Las Vegas,NV,89123,702 880 7890,mail@j2clean.com
Carpet Cleaning,Carpet Cleaning Office Cleaning,Turbo Clean Pro Carpet Cleaning,4894 W Lone Mountain Rd Ste 148,Las Vegas,NV,89130,702 622 1200,info@turbocleanlv.com
Carpet Cleaning,Carpet Cleaning ,Eco Friend Carpet Care,9154 badby ave,Las Vegas,NV,89148,702 768 4900,
Carpet Cleaning,Carpet Cleaning Carpeting,Care-Pro Carpet Cleaning,,,,,702 468 6813,
Carpet Cleaning,Carpet Cleaning,Aardvark Affordable,8331 Campana Drive,Las Vegas,NV,89147,702 873 7500,hallubarsky@gmail.com
Carpet Cleaning,Carpet Cleaning ,Heavens Best Carpet Cleaning,,,,,702 454 1900,billcleland@cleanworldlv.com
Carpet Cleaning,Carpet Cleaning,Scrub Buds,4646 Fiesta Way,Las Vegas,NV,89121,702 272 3319,billcleland@cleanworldlv.com
Carpet Cleaning,Home Cleaning Carpet Cleaning,Eco Clean,4075 Abernathy Forest Pl,Las Vegas,NV,89141,702 757 1137,ecocleanlasvegas@gmail.com
Carpet Cleaning,Carpet Cleaning,Best Carpet Cleaning Co,,,,,702 604 4420,
Carpet Cleaning,Home Cleaning Carpet Cleaning, Office Cleaning,NaturalDry Carpet Cleaning,3650 Great Bear St,Las Vegas,NV,89147,702 750 7093,CustomerCare@NaturalDry.com
Carpet Cleaning,247 Carpet & Floor Care,Carpet Cleaning ,9505 Teton Vista Ave,Las Vegas,NV,89117,702 472 5547,
Carpet Cleaning,Carpet Cleaning ,Complete Carpet & Tile Care,,,,,702 201 6121,
Carpet Cleaning,Carpet Cleaning,Las Vegas Carpet Cleaning Organization,7034 Palisade Dr,Las Vegas,NV,89103,702 330 8472,
Carpet Cleaning,Carpet Cleaning,Happy Carpet & Upholstery Cleaning,8220 Waterfall Ranch Ct.,Las Vegas,NV,89131,702 648 1212,
Carpet Cleaning,ome Cleaning Office Cleaning, Carpet Cleaning ,Pristine Cleaning,5637 Cameron St,Las Vegas,NV,89118,702 848 3993,info@pristinehousecleaning.com
Carpet Cleaning,Home Cleaning Carpet Cleaning, Office Cleaning,Proficient Clean,4952 S Rainbow Blvd Ste 226,Las Vegas,NV,89118,702 703 4148,GetCleaned@ProficientClean.com
Carpet Cleaning,Home Cleaning Carpet Cleaning, Window Washing,Avanti Green Eco Cleaning,10161 Park Run Dr Ste 120,Las Vegas,NV,89145,702 527 2111,customerservice@avantigreen.com
Carpet Cleaning,Home Cleaning Carpet Cleaning,Jays Carpet Cleaning,1409 Dream Bridge Dr,Las Vegas,NV,89144,702 430 7497,jayscarpetcleaninglv@gmail.com
Carpet Cleaning,Carpet Cleaning,Service Clean,,,,,702 660 2041,
Carpet Cleaning,Personal Touch Carpet Cleaning,Carpet Cleaning ,,,,,702 499 7847,PTCARPETCLEANING@YAHOO.COM
Carpet Cleaning,Carpet Cleaning,Stanley Steemer Carpet Cleaner,,,,,702 361 2277,
Carpet Cleaning,Carpet Cleaning Heating & Air ConditioningHVAC,Raysco,3995 W Quail Ave Ste D,Las Vegas,NV,89118,702 837 4914,info@rayscoinc.com
Carpet Cleaning,Carpet Cleaning Carpeting,Precision Chem-Dry,3320 Sunrise Ave Ste 110,Las Vegas,NV,89101,702 438 2436,
Carpet Cleaning,Home Cleaning Carpet Cleaning,A1 Carpet Care,2626 S Rainbow Blvd Ste 202,Las Vegas,NV,89146,702 871 9933,
Carpet Cleaning,Carpet Cleaning,Keep It Clean,8825 Arabian Filly Ave,Las Vegas,NV,89143,844 568 1518,keepitcleanlasvegas@gmail.com
Carpet Cleaning,Carpeting Carpet Cleaning,Champion Carpet Cleaning,,,,,702 510 4691,
Carpet Cleaning,Carpet Cleaning ,New Concept Cleaning,,,,,702 545 7813,newconceptcleaning@gmail.com
Carpet Cleaning,Carpet Cleaning,Magic Mike Carpet Cleaning,20 E Serene Ave. Suite 303,Las Vegas,NV,89123,702 443 3630,
Carpet Cleaning,Carpet Cleaning ,Fresh Start Carpet Cleaning,1645 Ravanusa,Henderson,NV,89052,702 283 3302,cfreshstart@gmail.com
Carpet Cleaning,Carpet Cleaning Window Washing ,Fresco Carpet Cleaning,,,,,702 340 9377,
Carpet Cleaning,Carpet Cleaning Auto Detailing,Jays Mobile Detail & Carpet Cleaning,9117 Ripple Ridge Ave Ste 101,Las Vegas,NV,89136,702 480 8682,jayzmobiledetail@aol.com
Carpet Cleaning,Carpet Cleaning Office Cleaning ,Zerorez- Las Vegas,7540 Dean Martin Dr Ste 503,Las Vegas,NV,89139,702 567 0016,hello@zerorezlv.com
Carpet Cleaning,Home Cleaning Carpet Cleaning,Road Runner Carpet Care,8985 S Eastern Ave Ste 325,Las Vegas,NV,89123,702 262 6061,
Carpet Cleaning,Carpet Cleaning Furniture Reupholstery,Ecodry Carpet Cleaning,8025 W Russell Rd,Las Vegas,NV,89113,702 292 4252,
Carpet Cleaning,Carpet Cleaning Damage Restoration, Pressure Washers,Best Clean Carpet & Upholstery Cleaning,7065 W Ann Rd Ste 130 -122,Las Vegas,NV,89130,702 478 9036,
Carpet Cleaning,Home Cleaning Office Cleaning, Carpet Cleaning,E Crew Carpet Cleaning & Tile Cleaning,4760 S Pecos Rd Ste 103,Las Vegas,NV,89121,702 521 8738,info@ecrew.vegas.com
Carpet Cleaning,Carpet Cleaning ,Star Chem-Dry,5000 W Oakey Blvd Ste E6,Las Vegas,NV,89146,702 878 7827,starchemdry@yahoo.com
Carpet Cleaning,Carpet Cleaning,Oxi Fresh of Las Vegas Carpet Cleaning,10870 W Charleston Blvd,Las Vegas,NV,89135,702 824 9401,
Carpet Cleaning,Carpet Cleaning,Keystone Carpet Care LLC,2756 N Green Valley Pkwy Ste 409,Henderson,NV,89014,702 597 9606,info@KeystoneServicesLV.com
Carpet Cleaning,Home Cleaning Office Cleaning, Carpet Cleaning,Caros Cleaning Solutions,7789 Soda Canyon St,Las Vegas,NV,89139,702 327 5514,info@caroscleaningsolutions.com
Carpet Cleaning,Carpet Installation Carpet Cleaning,Carpet Green Clean,3111 S Valley View Blvd Ste E133,Las Vegas,NV,89108,702 478 4782,info@drycarpetslv.com
Carpet Cleaning,Carpeting Carpet Cleaning, Damage Restoration,A-1 Carpet Masters,6125 Halifax Cir,Las Vegas,NV,89107,702 259 6500,
Carpet Cleaning,Carpet Cleaning ,Ivys Carpet Care,4520 Harmon Cir,Las Vegas,NV,89122,702 372 8926,
Carpet Cleaning,Carpet Cleaning Heating & Air ConditioningHVAC,Sears Carpet Cleaning & Air Duct Cleaning,4355 W Reno Ave Suite 1,Las Vegas,NV,89118,702 736 8150,
Carpet Cleaning,Home Cleaning Carpet Cleaning,Absolutely Spotless,,,,,702 339 0234,
Carpet Cleaning,Carpet Cleaning ,Southwest Chem-Dry,6165 Harrison Dr. Ste 11,Las Vegas,NV,89120,702 712 4303,
Carpet Cleaning,3535 W Harmon Ave Ste G,Carbonated Solutions of Las Vegas,3535 W Harmon Ave Ste G,Las Vegas,NV,89103,702 423 6092,
Carpet Cleaning,Carpet Cleaning ,Alliance Carpet Cleaning,4075 Abernethy Forest Pl,Las Vegas,NV,89141,702 772 2590,allianceccs@gmail.com
Carpet Cleaning,Carpet Cleaning ,Sunrise Carpet & Upholstery Cleaning,,,,,702 454 5393,louissarti7@gmail.com
Carpet Cleaning,Home Cleaning Office Cleaning, Carpet Cleaning,Clean-Mart,4580 W Sahara Ave,Las Vegas,NV,89102,702 870 3900,clean-mart@hotmail.com
Carpet Cleaning,Carpet Cleaning Flooring ,A One Carpet Cleaning,3320 S Fort Apache Rd,Las Vegas,NV,89117,702 795 3333,sales@interdeal.co.il
Carpet Cleaning,Home Cleaning Carpet Cleaning,Carol Kings Cleaning LLC,780 S Rampart,Las Vegas,NV,89145,702 202 3915,cking@carolkingscleaning.com
Carpet Cleaning,Carpet Cleaning,J2 Carpet Cleaning of Henderson,8170 S Eastern Ave Ste 4-424,Las Vegas,NV,89123,702 880 7890,mail@j2clean.com
Carpet Cleaning,Carpet Cleaning Home Cleaning ,Blue Bird Carpet Cleaning,3711 Vegas Dr,Las Vegas,NV,89108,702 645 7070,info@bluebirdcarpet.com
Carpet Cleaning,Carpet Cleaning Damage Restoration,Green Carpet Cleaning Pros,6130 W Flamingo Rd Ste 381,Las Vegas,NV,89103,888 233 7613,Cleanersnv@gmail.com
Carpet Cleaning,Home Cleaning Carpet Cleaning,Sunshine Cleaning,2430 N Decatur Blvd. Ste 120,Las Vegas,NV,89108,702 810 0921,sunshinecleaninglv@gmail.com
Carpet Cleaning,Home Cleaning Office Cleaning, Carpet Cleaning,Las Vegas Cleaning Service,9680 W Tropicana,Las Vegas,NV,89147,702 788 0221,Joe@LasVegasCleaningService.com
Carpet Cleaning,Office Cleaning Carpet Cleaning, Flooring,First Choice Carpet and Tile Care,,,,,702 565 4983,service@firstchoicecarpetlv.com
Carpet Cleaning,Carpet Cleaning,Pride Cleaning Services,,,,,702 541 5000,Pridecarpetcleaninglv@gmail.com
Carpet Cleaning,Office Cleaning Carpet Cleaning,MC Carpet Cleaning,813 Sportsman Dr,Las Vegas,NV,89107,702 237 4751,Info@mccarpetcleaninglv.com
Carpet Cleaning,Home Cleaning Carpet Cleaning, Office Cleaning,Mayberrys Maids,4855 W Desert Inn Rd Ste 105,Las Vegas,NV,89102,702 474 6243,WeCleanLasVegas@aol.com
Carpet Cleaning,Carpet Cleaning,AAA Carpet Cleaning,2550 E Desert Inn Rd Ste 118,Las Vegas,NV,89121,702 458 2870,ourstudio@somemail.com
Carpet Cleaning,Carpet Cleaning,Wall To Wall Carpet Cleaning,,,,,702 579 7799,walltowallhomeservices@gmail.com
Carpet Cleaning,Office Cleaning Home Cleaning, Carpet Cleaning ,Valley Star Maids,5914 Bushra Ct,Las Vegas,NV,89110,702 706 0206,Serviceteam@valleystarmaids.com
Carpet Cleaning,Home Cleaning Carpet Cleaning, Dog Walkers ,HoneySchedule,3995 W Quail Ave,Las Vegas,NV,89118,661 622 2226,team@honeyschedule.com
Carpet Cleaning,Home Cleaning Office Cleaning, Carpet Cleaning,Marvelous Maids,,,,,323 535 8743,scando126@gmail.com
Carpet Cleaning,Office Cleaning Home Cleaning, Carpet Cleaning ,Peachy Clean Janitorial Services,4350 Sanderling Cir,Las Vegas,NV,89103,702 706 8644,peachycleanlv@gmail.com
Carpet Cleaning,Office Cleaning Carpet Cleaning, Flooring,Seven Days Janitorial & Carpet Cleaning,,,,,702 428 8803,efrain@sevendaysjanitorial.com
Carpet Cleaning,Carpet Cleaning Home DÃ©cor,Ultraviolet Carpet Cleaners,1101 E Tropicana Suite 2170,Las Vegas,NV,89119,702 937 1937,uvcarpetcleaners@gmail.com
Carpet Cleaning,Carpet Cleaning ,Servicemaster by Al,,,,,702 436 4421,sales@smclean.com
Carpet Cleaning,Carpet Cleaning,Las Vegas Tile & Grout Cleaning,916 Bob Barney Ave,North Las Vegas,NV,89086,702 595 8178,lvtandg@gmail.com
Carpet Cleaning,Carpet Cleaning Home Cleaning,Universal Carpet Care,3111 S Valley View Blvd,Las Vegas,NV,89102,702 220 9003,info@universalcarpetcare.com
Carpet Cleaning,Carpet Cleaning,Eco Clean,3960 Howard Hughes Pkwy,Las Vegas,NV,89169,702 277 3814,ecocleanlasvegas@gmail.com
Computer Repair,,,,,,,,
Computer Repair,IT Services & Computer Repair ,Compudoc Computer Repair,708 S Jones Blvd,Las Vegas,NV,89107,702 871 1881,
Computer Repair,IT Services & Computer Repair Electronics Repair,Computers,Computer Doctor BG,4075 S Durango Dr Ste 105-B,Las Vegas,NV,89147,702 802 3300,
Computer Repair,IT Services & Computer Repair ,Computer Repair Las Vegas,2741 Losee Rd Ste K,North Las Vegas,NV,89030,702 608 2123,Contact@CRLV.com
Computer Repair,IT Services & Computer Repair Shipping Centers, Notaries,Tech Mail,5455 S Fort Apache Rd Ste 108,Las Vegas,NV,89148,702 363 4499,service@attechmail.com
Computer Repair,IT Services & Computer Repair,ICU Computer Solutions,9550 S Eastern Ave Ste 225,Las Vegas,NV,89123,702 696 8872,info@icucomputer.com
Computer Repair,T Services & Computer Repair Electronics Repair,NVpcfix Computers,9330 W Sahara Ave Ste 150,Las Vegas,NV,89117,702 982 1320,info@nvpcfix.com
Computer Repair,IT Services & Computer Repair Electronics Repair, Computers,Neon Computers,6830 S Rainbow Blvd Ste 150,Las Vegas,NV,89118,702 240 6366,info@neoncomputers.com
Computer Repair,Electronics Repair IT Services & Computer Repair,iRepairs Wireless,3735 Spring Mountain Rd Ste 202,Las Vegas,NV,89102,702 927 6912,info@iphonerepairsvegas.com
Computer Repair,Mobile Phone Repair,Gadget Experts Computer Solutions,7920 S Rainbow Blvd Ste 125,Las Vegas,NV,89139,702 848 1555,
Computer Repair,Electronics Repair IT Services & Computer Repair ,Smart Fix Las Vegas,3355 Spring Mountain Rd Ste 9,Las Vegas,NV,89103,702 875 4050,
Computer Repair,IT Services & Computer Repair,Simple Computer Repair,1000 N Green Valley Pkwy,Henderson,NV,89074,702 483 5464,
Computer Repair,IT Services & Computer Repair ,SpeakGeek PCs,9484 S Eastern Ave Ste 278,Las Vegas,NV,89123,702 758 5569,service@speakgeekpcs.com
Computer Repair,Mobile Phone Repair Data Recovery ,Wireless Doctor Computer Solutions,8550 W Charleston Blvd Ste 108,Las Vegas,NV,89117,702 487 3115,
Computer Repair,Mobile Phone Repair Data Recovery,Smart Fix Summerlin,8221 W Charleston Blvd Ste 107,Las Vegas,NV,89117,702 979 9400,
Computer Repair,Mobile Phone Repair Electronics Repair,Wireless Doctor Computer Solutions,7377 S. Jones Ave.Ste 111,Las Vegas,NV,89139,702 488 4222,
Computer Repair,Mobile Phone Repair,Vegas Computer & Wireless Doctor,923 S Decatur Blvd,Las Vegas,NV,89107,702 354 6000,leo@vegascomputerdoctor.com
Computer Repair,Mobile Phone Repair Electronics Repair,Affordable Technology Repairs,2960 S Durango Dr Ste 113,Las Vegas,NV,89117,702 704 9005,
Computer Repair,IT Services & Computer Repair Computers,Big Sky Computers Llc,600 W Sunset Rd Ste 104,Henderson,NV,89011,702 243 1775,bigskycomputers@hotmail.com
Computer Repair,Mobile Phone Repair Electronics Repair,One Stop Wireless,9890 S Maryland PkwySte 23,Las Vegas,NV,89183,702 269 1366,
Computer Repair,IT Services & Computer Repair Computers,Century 23 Computers & Technology,5000 W Oakey Blvd Ste B5,Las Vegas,NV,89146,702 870 1534,
Computer Repair,IT Services & Computer Repair,TLC Computer Solutions,7501 W Lake Mead Blvd Ste 112,Las Vegas,NV,89128,702 275 8455,info@tlcpcsolutions.com
Computer Repair,Mobile Phone Repair Electronics Repair,iMergency Las Vegas,9680 W Tropicana Ave Ste 135,Las Vegas,NV,89147,702 247 6850,fixyourpda@gmail.com
Computer Repair,Electronics Repair Mobile Phone Repair,Wireless Doctor Computer Solutions,4990 W Craig Rd Suite 12,Las Vegas,NV,89130,702 675 4774,
Computer Repair,Mobile Phone Repair,Fixitup Iphone and IPad Repair,3311 S Rainbow Blvd Suite 101,Las Vegas,NV,89146,626 873 3697,
Computer Repair,Electronics Repair IT Services & Computer Repair,iFixit,3720 W Tropicana Ave Ste 13,Las Vegas,NV,89103,702 501 7504,
Computer Repair,IT Services & Computer Repair Computers ,Duke of Computers,8447 W Lake Mead Blvd,Las Vegas,NV,89128,702 586 0950,info@dukeofcomputers.com
Computer Repair,Electronics Repair Mobile Phone Repair,Desert Wireless iPhone Repair,1500 E Tropicana AveSte 226,Las Vegas,NV,89119,702 339 0992,desert.wireless@yahoo.com
Computer Repair,PC Laptops,Computers IT Services & Computer Repair,390 N Stephanie St Ste 102,Henderson,NV,89014,702 940 7283,corporate@pclaptops.com
Computer Repair,IT Services & Computer Repair,Abcd Computers,6625 Navio Dr,Las Vegas,NV,89103,702 253 0091,pete@abcdcomputers.com
Computer Repair,IT Services & Computer Repair,Computer Medics,,Las Vegas,NV,89101,702 270 4550,
Computer Repair,Mobile Phone Repair,Cell Circle,6280 S Valley View Blvd Ste 108,Las Vegas,NV,89118,702 202 0131,
Computer Repair,IT Services & Computer Repair,Doctors of Technology Computer Repair,2560 E Sunset RdSte 111,Las Vegas,NV,89120,702 277 0000,
Computer Repair,Web Design IT Services & Computer Repair, Home Network Installation,The Computer Guys Las Vegas,3571 E Sunset Rd Ste 208,Las Vegas,NV,89120,702 944 9635,
Computer Repair,IT Services & Computer Repair,LVIT Computer Repair,2545 S Torrey Pines,Las Vegas,NV,89146,702 334 2323,Sales@lvit.com
Computer Repair,Electronics Repair Mobile Phone Repair,My Computer Bytes,1033 S Rainbow Blvd,Las Vegas,NV,89145,702 331 1800,
Computer Repair,IT Services & Computer Repair Computers,Supertech Computers,2927 W Sahara Ave,Las Vegas,NV,89102,702 382 1119,
Computer Repair,Mobile Phone Repair Electronics Repair,Phones and Computer Repairs FixZone,7035 W Sahara Ave Ste 500,Las Vegas,NV,89117,725 222 6555,info@fixzonelv.com
Computer Repair,IT Services & Computer Repair Computers, Electronics Repair,Laptop Xchange,3823 Spring Mountain Rd,Las Vegas,NV,89102,702 878 8500,NV10002@devicepitstop.com
Computer Repair,IT Services & Computer Repair Computers,Sin City PC,9640 W Tropicana Ave Ste 118,Las Vegas,NV,89147,702 518 9544,support@sincitypc.com
Computer Repair,Electronics Repair Mobile Phones, Mobile Phone Repair,uBreakiFix,695 N Stephanie St,Henderson,NV,89014,702 485 2889,support@uBreakiFix.com
Computer Repair,Mobile Phone Repair,Go Gadgets,5030 Paradise RdSte B202,Las Vegas,NV,89119,702 202 9506,go_gadgets@hotmail.com
Computer Repair,Mobile Phone Repair,iFIX LV,3909 W Sahara Ave Ste 6,Las Vegas,NV,89102,702 388 4349,
Computer Repair,Web Design Software Development, Data Recovery,Doctors of Technology,3655 S Rainbow BlvdSte 101,Las Vegas,NV,89103,702 277 0000,
Computer Repair,Data Recovery Mobile Phone Repair,ABC Technologies,,,,,702 813 8569,bhuiras25@outlook.com
Computer Repair,Electronics Repair Mobile Phone Repair,FoneStar Repair,4911 Alta Dr,Las Vegas,NV,89107,702 822 6931,
Computer Repair,Electronics Repair Mobile Phone Repair ,FoneStar Repair,4911 Alta Dr,Las Vegas,NV,89107,702 822 6931,
Computer Repair,IT Services & Computer Repair,Xpress PC Repair,,,,,702 499 3352,
Computer Repair,IT Services & Computer Repair,Pro-Tech IT,3311 S Rainbow Blvd #145,Las Vegas,NV,89146,702 285 9891,
Computer Repair,Mobile Phone Repair,Wireless Doctor Computer Solutions,183 N Gibson Rd Ste 170,Henderson,NV,89014,702 527 7473,
Computer Repair,IT Services & Computer Repair,Rays Mobile Onsite Computer Repair,,,,,702 542 6109,
Computer Repair,Mobile Phone Repair ,Premier Telecom iPhone Repair,4535 W Sahara Ste 112D,Las Vegas,NV,89102,702 521 9589,
Computer Repair,IT Services & Computer Repair,Sunshine Data Solutions,1705 Double Arrow Place,Las Vegas,NV,89128,702 425 3380,sales@lvdatarecovery.com
Computer Repair,IT Services & Computer Repair,MacTEK Consulting & Repairs,3085 S Valley View Blvd,Las Vegas,NV,89102,702 396 0697,webmaster@mactek.net
Computer Repair,Electronics Repair Mobile Phone Repair,iTech Customs,1717 S Decatur Blvd Booth J3,Las Vegas,NV,89102,805 232 4159,info@itechcustoms.com
Computer Repair,IT Services & Computer Repair,Guru Crew,1717 N Decatur BlvdBooth B-4,Las Vegas,NV,89108,701 714 0010,info@gurucrewlv.com.com
Computer Repair,Mobile Phone Repair ,Fast Fix Wireless iPhone Computer Ipad Repair & Cell Phone Plans,5645 S Eastern AveSte 2,Las Vegas,NV,89119,702 724 1424,GalaxyCprVegas@gmail.com
Computer Repair,IT Services & Computer Repair ,Guru Crew,1717 N Decatur Blvd Booth B-4,Las Vegas,NV,89108,701 714 0010,info@gurucrewlv.com.com
Computer Repair,Mobile Phone Repair ,Samsung Galaxy CPR,5241 W Charleston Blvd,Las Vegas,NV,89146,702 457 4000,GalaxyCprVegas@gmail.com
Computer Repair,Mobile Phone Repair ,Wireless Phone Doctors,1645 W Warm Springs Rd,Henderson,NV,89014,702 767 7775,phonedoctorslv@yahoo.com
Computer Repair,IT Services & Computer Repair,Lynk IT,,,,,805 394 5953,support@lynkitnv.com
Computer Repair,IT Services & Computer Repair,MacCure Consulting,,,,,702 438 2873,contact@maccure.com
Computer Repair,IT Services & Computer Repair ,iFIX Computer Repair,1955 Jasmine Cir,Las Vegas,NV,89123,702 366 4342,ifixlv@gmail.com
Computer Repair,IT Services & Computer Repair,CCRepairz,871 Coronado Center Dr Ste 200,Henderson,NV,89052,702 979 0033,info@ccrepairz.com
Computer Repair,IT Services & Computer Repair,Las Vegas Geeks,2400 North Tenaya Way,Las Vegas,NV,89128,702 369 4335,webmaster@lasvegasgeeks.com
Computer Repair,IT Services & Computer Repair,Technology Mechanics,6769 W Charleston Blvd Ste D,Las Vegas,NV,89146,702 812 4756,info@techmechlv.com
Computer Repair,Mobile Phone Repair,Wireless Phone Medics,3118 N Rainbow Blvd,Las Vegas,NV,89108,702 908 9288,info@wirelessphonemedicslv.com
Computer Repair,Data Recovery Electronics Repair,Majestec Office Solutions & Technologies,,Las Vegas,NV,89108,702 518 6678,info@callthemost.com
Computer Repair,IT Services & Computer Repair Web Design, Internet Service Providers,Vegas Telecom,6285 S Mojave Rd Ste E,Las Vegas,NV,89120,702 260 4559,sales@vegastelecom.com
Computer Repair,IT Services & Computer Repair ,LBA Networking,2251 N Rampart Blvd Ste 375,Las Vegas,NV,89128,702 553 3200,sales@LVMedIT.com
Computer Repair,IT Services & Computer Repair,Max Repairs Las Vegas Computer repair,1000 N Martin Luther King Blvd Ste A,Las Vegas,NV,89106,702 843 0099,maxrepairs@live.com
Computer Repair,IT Services & Computer Repair Computers,Device Pitstop Henderson,1351 W Sunset Rd Ste 110,Henderson,NV,89014,702 876 3636,nv10001@devicepitstop.com
Computer Repair,IT Services & Computer Repair,Qwerty Computers USA,330 E Warm Springs Rd,Las Vegas,NV,89119,702 726 7324,info@qwertycomputersusa.com
Computer Repair,Electronics Repair Mobile Phone Repair,iPhone DOCTOR,751 N Rancho Dr Ste 150,Las Vegas,NV,89106,702 638 7200,info@myiphonedoctor.com
Computer Repair,IT Services & Computer Repair Home Theatre Installation, Home Automation ,Geekatoo Tech Support,,,,,800 640 9005,support@geekatoo.com
Computer Repair,IT Services & Computer Repair,Just Fixing Computers,,,,,702 748 7079,david.wood@justfixingcomputers.com
Computer Repair,Mobile Phone Repair,Wireless Phone Medics - South West,7835 S Rainbow Blvd Ste 16,Las Vegas,NV,89139,702 606 1191,info@wirelessphonemedicslv.com
Computer Repair,IT Services & Computer Repair ,Laptop Repairs,1555 E Flamingo Rd,Las Vegas,NV,89119,702 832 1967,tech@laptoprepairs.com
Computer Repair,Television Service Providers IT Services & Computer Repair, Internet Service Providers,COX,3441 W Sahara Ave Ste B7,Las Vegas,NV,89102,702 489 4939,cox@modernutilities.com
Computer Repair,Web Design IT Services & Computer Repair,IV Technology,,Las Vegas,NV,89102,702 997 4919,info@lvwebpage.com
Concrete Masonry,,,,,,,,
Concrete Masonry,MasonryConcrete,Arteagas Concrete,1806 W Oakey Blvd,Las Vegas,NV,89102,702 813 9108,
Concrete Masonry,MasonryConcrete Building Supplies ,Concrete Accessories Inc,3500 Meade Ave,Las Vegas,NV,89102,702 873 4810,info@cainevada.com
Concrete Masonry,Contractors MasonryConcrete,Celebrity Patios,2421 Tech Center Ct,Las Vegas,NV,89128,702 526 4303,
Concrete Masonry,MasonryConcrete Contractors,Daltile Tile & Stone Gallery,3455 W Sunset Rd,Las Vegas,NV,89118,702 871 8453,
Concrete Masonry,MasonryConcrete ,Pebble Stone Coatings,3210 W Desert Inn Rd,Las Vegas,NV,89102,702 243 7866,
Concrete Masonry,MasonryConcrete ,Sierra Masonry,6396 McLeod Dr,Las Vegas,NV,89120,702 270 3000,
Concrete Masonry,MasonryConcrete ,Sierra Masonry,6396 McLeod Dr,Las Vegas,NV,89120,702 270 3000,sierramasonry@gmail.com
Concrete Masonry,MasonryConcrete ,Park Stone Pavers,,Las Vegas,NV,89031,702 769 5465,
Concrete Masonry,MasonryConcrete Building Supplies, Contractors,L.A. Spas,9350 W Tropicana Av,Las Vegas,NV,89147,702 251 9494,
Concrete Masonry,Contractors MasonryConcrete,Nevada Mobile Mix Inc,3450 S Procyon Ave,Las Vegas,NV,89102,702 208 7333,
Concrete Masonry,Contractors Landscaping, MasonryConcrete,Paradise Builders,5385 Cameron St,Las Vegas,NV,89118,702 242 0271,
Concrete Masonry,Contractors MasonryConcrete,The Paver Guy,4035 S Tenaya Wy,Las Vegas,NV,89147,702 431 0254,
Concrete Masonry,MasonryConcrete ,Blakeley Sam Masonry,,Las Vegas,NV,89101,702 564 7764,
Concrete Masonry,Contractors MasonryConcrete,Concrete Universal,71 N. Pecos Rd,Las Vegas,NV,89101,702 838 4444,
Concrete Masonry,Flooring Contractors, MasonryConcrete ,Concrete Texturing,3675 W Teco Ave,Las Vegas,NV,89118,702 991 1322,
Concrete Masonry,MasonryConcrete ,Daltile Natural Stone Showroom & Slab Yard,3455 W. Sunset Rd.,Las Vegas,NV,89118,702 361 6873,
Concrete Masonry,MasonryConcrete ,Americote Coating Systems,4300 N Pecos Rd,Las Vegas,NV,89115,702 648 3999,
Concrete Masonry,Pressure Washers Landscaping, MasonryConcrete,Paver Sealing Vegas,2375 E Tropicana Ave,Las Vegas,NV,89119,702 701 0388,
Concrete Masonry,Landscaping MasonryConcrete ,Tovar Landscape & Design,2600 Stratford Ave,Las Vegas,NV,89121,702 440 4738,
Concrete Masonry,MasonryConcrete ,Coronado Concrete & Masonry,5620 Stephanie St,Las Vegas,NV,89122,702 853 2312,
Concrete Masonry,Landscaping Irrigation, MasonryConcrete ,LV Yard Doctor,3325 Ali Baba Ln,Las Vegas,NV,89118,702 373 1060,lvyarddoctor@hotmail.com
Concrete Masonry,Contractors Plumbing, MasonryConcrete ,Aria Remodeling,3111 S Valley View Blvd,Las Vegas,NV,89102,702 800 1000,eddie@ariaremodeling.com
Concrete Masonry,Home Cleaning MasonryConcrete,Master Grout Surgeon,,,,,702 504 4712,jon@mastergroutsurgeon.com
Concrete Masonry,MasonryConcrete ,Artistic Masonry,,,,,702 876 1901,ArtisticMasonryLasVegas@gmail.com
Concrete Masonry,MasonryConcrete,Drew Asphalt Paving,,,,,702 656 0220,
Concrete Masonry,MasonryConcrete,Stripe A Lot,3111 S Valley View Blvd,Las Vegas,NV,89102,702 870 3585,ji@lvstriping.com
Concrete Masonry,MasonryConcrete,House Of Concrete,,,,,702 241 5246,
Concrete Masonry,Contractors Plumbing, MasonryConcrete ,Developers Choice,4480 W. Nevso Dr.,Las Vegas,NV,89103,702 873 4377,
Concrete Masonry,MasonryConcrete,Concrete Solutions,4290 Cameron St,Las Vegas,NV,89103,702 431 1003,
Concrete Masonry,MasonryConcrete,Expert Concrete Coatings,2401 West Charleston Blvd,Las Vegas,NV,89102,702 809 0173,
Concrete Masonry,Electricians Fences & Gates, MasonryConcrete ,Alumacast,105 W Charleston Blvd,Las Vegas,NV,89102,702 678 6888,alumacast43@yahoo.com
Concrete Masonry,MasonryConcrete,Ozzy D. Concrete Construction,6983 Starwood Drive,Las Vegas,NV,89147,702 502 6747,
Concrete Masonry,Landscaping MasonryConcrete, Home Decor ,Simple Creations In Concrete,1832 Hermitage Dr,Las Vegas,NV,89108,702 280 0137,
Concrete Masonry,MasonryConcrete Contractors ,Daltile Sales Service Center,3755 W Sunset Rd,Las Vegas,NV,89118,702 365 6265,
Concrete Masonry,Landscaping MasonryConcrete, Tree Services,Valley Wide Landscape and Concrete LLC,,,,,702 822 6000,
Concrete Masonry,Flooring MasonryConcrete, Contractors ,American Olean Sales Service Center,6975 S. Decatur Blvd.,Las Vegas,NV,89118,702 248 3040,
Concrete Masonry,Contractors Flooring, MasonryConcrete,A Affordable Installers,1721 S Mojave Rd,Las Vegas,NV,89104,702 739 7601,
Concrete Masonry,MasonryConcrete,Monty Malloy Masonry,3320 Wynn Road,Las Vegas,NV,89102,702 438 1004,
Concrete Masonry,MasonryConcrete,Ramco Masonry,3686 S Highland Dr,Las Vegas,NV,89103,702 253 9893,
Concrete Masonry,Contractors MasonryConcrete ,Brown Masonry,,Las Vegas,NV,89104,702 930 5661,
Concrete Masonry,MasonryConcrete,Epo Concrete,8384 Pearl Beach Ct,Las Vegas,NV,89139,702 985 3453,
Concrete Masonry,MasonryConcrete,Las Vegas Paving Corp,4420 S Decatur Blvd,Las Vegas,NV,89103,702 251 5800,
Concrete Masonry,Contractors MasonryConcrete ,Zomax Concrete Pumping,5375 Cameron St,Las Vegas,NV,89118,702 877 2250,
Concrete Masonry,MasonryConcrete,Silverstone Construction,,Las Vegas,NV,89131,702 509 4986,john.smith@email.com
Concrete Masonry,MasonryConcrete Contractors,Noriega Masonry,,Las Vegas,NV,89149,702 303 0645,
Concrete Masonry,Landscaping MasonryConcrete, Tree Services,New Image Scapes,848 N Rainbow Blvd,Las Vegas,NV,89107,702 832 5643,
Concrete Masonry,Contractors MasonryConcrete ,Neptune Masonry & Cement Cleaning Inc.,,Las Vegas,NV,89129,702 656 8826,
Concrete Masonry,MasonryConcrete,Iovino Masonry,9260 El Camino Rd,Las Vegas,NV,89139,702 253 1602,
Concrete Masonry,MasonryConcrete Contractors,Otte Mobile Mix,401 S Buffalo Dr,Las Vegas,NV,89145,702 255 7026,
Concrete Masonry,MasonryConcrete,Robbs Concrete Pumping,,Las Vegas,NV,89101,702 456 6224,ottemobilemix@yahoo.com
Concrete Masonry,Contractors Fences & Gates,J or J Welder,2870 N Commerce St,Las Vegas,NV,89030,702 372 4951,info@jorjwelder.com
Concrete Masonry,MasonryConcrete,Andres Mobile Mix Concrete,1422 Bugle Boy Dr,Henderson,NV,89014,702 456 7775,ottemobilemix@yahoo.com
Concrete Masonry,MasonryConcrete,Concrete Resurfacing Las Vegas,1173 Via Vernio,Henderson,NV,89052,702 979 7722,info@concreteresurfacinglasvegas.com
Concrete Masonry,MasonryConcrete,Centennial Concrete Design,5782 Kingsbury Rd,Las Vegas,NV,89030,702 979 7722,info@centennialconcrete.com
Concrete Masonry,Gardeners MasonryConcrete, Landscaping ,Hectors Gardening and Landscaping,,,,,909 427 9070,hls.gardening@gmail.com
Concrete Masonry,Landscape Architects,Alpha Landscape,4270 W Patrick Ln,Las Vegas,NV,89118,702 214 8000,salesanddesign@alphalandscapeslv.com
Electricians,Electricians,247 Electrical Services LLC,6541 Bradford Ln,Las Vegas,NV,89108,702 927 1054,info@24-7electricalservices.com
Electricians,Electricians Lighting Fixtures & Equipment,Eco Electric,5380 Cameron St,Las Vegas,NV,89118,702 682 2436,officemanager@ecoelectriclv.com
Electricians,Electricians,Affordable Las Vegas Electrician,,,,,760 658 7375,
Electricians,Electricians,Allstate Electric,4815 W Russell Rd,Las Vegas,NV,89118,702 868 1304,shannon@allstateelectriclv.com
Electricians,Electricians Home Theatre Installation, Home Automation,Alfonso & Co. Technology Services,,,,,702 350 6599,AlfonsonCo@gmail.com
Electricians,Electricians,Mr. Electric of Las Vegas,,Las Vegas,NV,89193,702 737 8423,
Electricians,Electricians,New Venture Henderson Electrical,10940 S Eastern Ave,Henderson,NV,89052,702 580 1414,
Electricians,Electricians Electronics Repair,Las Vegas Electrician,,Las Vegas,NV,89109,702 608 7507,uslasvegaselectrician@gmail.com
Electricians,Handyman Electricians,R & L Handyman Services,4001 S Decatur Blvd,Las Vegas,NV,89103,702 785 2798,handy_russ@yahoo.com
Electricians,Electricians,FNS Electric LLC,5032 N Valadez St,Las Vegas,NV,89149,702 491 5771,Howard4@fnselectric.com
Electricians,Electricians,German Tech Electrical Services LLC,3779 Bossa Nova Dr,Las Vegas,NV,89129,702 290 8492,germantechlv@gmail.com
Electricians,Electricians,Let There Be Light Electrical Svcs,6364 W Sahara Ave,Las Vegas,NV,89151,702 540 9975,
Electricians,Electricians,Advantage Services,7495 W Azure Dr,Las Vegas,NV,89130,702 541 8600,info@getadvantageservices.com
Electricians,Electricians Lighting Fixtures & Equipment,Task Electric,7260 Cimarron Rd,Las Vegas,NV,89113,702 985 3005,Info@TaskElectric.com
Electricians,Electricians,Eckerdt Electric,,,,,702 416 1282,
Electricians,Electricians,Pacific Electric,2919 Meade Ave,Las Vegas,NV,89102,702 433 8777,Pauline@pacificelectriclv.com
Electricians,Electricians,Vegas Pro Electrical Services,3555 S Highland,Las Vegas,NV,89103,702 339 1554,
Electricians,Electricians,Litchy Electric,3590 W Cougar Ave,Las Vegas,NV,89139,702 435 4434,estimating@litchyelectric.com
Electricians,Electricians,Can Can Electrical,5116 Yellow Dawn Ct,Las Vegas,NV,89130,702 658 6276,CanCanElectric1@aol.com
Electricians,Electricians,Anytime Electric,,Las Vegas,NV,89117,702 526 8028,
Electricians,Handyman Electricians,Lighting Las Vegas,10305 Burwood St,Las Vegas,NV,89178,702 589 1477,
Electricians,Electricians,Day One Electric,,Las Vegas,NV,89118,725 696 8762,
Electricians,Heating & Air ConditioningHVAC Contractors, Electricians,Cool Air Now AC Repair,1918 E Charleston Blvd,Las Vegas,NV,89104,702 605 6100,info@coolairconditioningnow.com
Electricians,Electricians,Softcell Electrical,,Las Vegas,NV,,702 461 2615,
Electricians,Electricians,All Lit Up Electric,10501 W Gowan Rd Ste 140,Las Vegas,NV,89129,702 240 4723,
Electricians,Electricians Solar Installation,Solar Panel Install,3565 S Las Vegas blvd,Las Vegas,NV,89109,702 472 8598,
Electricians,Electricians,Helix Electric,3078 E Sunset Road,Las Vegas,NV,89120,702 732 1188,projects@company.com
Electricians,Handyman Electricians, Plumbing,Your Las Vegas Handyman,8635 W Sahara Ave,Las Vegas,NV,89117,702 325 4318,
Electricians,Electricians,Carlson Electric Motor Service,709 N Main St,Las Vegas,NV,89101,702 384 8246,
Electricians,Electricians,Desert Home Electric,,Las Vegas,NV,89101,702 228 1727,info@deserthomeelectric.com
Electricians,Electricians,Hot Connection Electric Inc,2220 Lindell Rd,Las Vegas,NV,89146,702 254 9006,
Electricians,Electricians,BB & G Electric,3635 W Twain Ave,Las Vegas,NV,89103,702 871 7500,bbgelectriclv@aol.com
Electricians,Electricians,Master Electric Services,4985 Cecile Ave,Las Vegas,NV,89115,702 632 1399,info@masterelectricinc.com
Electricians,Electricians Lighting Fixtures & Equipment,Beach Electric,3275 W Ali Baba,Las Vegas,NV,89118,702 736 1437,
Electricians,Electricians,Williams Electric,,Las Vegas,NV,89101,702 657 1218,
Electricians,Electricians,Penny Electric,,Henderson,NV,89053,702 279 6040,email@pennyelectric.com
Electricians,Solar Installation Electricians, Professional Services,Solar-Action,8710 Mann St,Las Vegas,NV,89139,702 233 6691,Info@solar-action.com
Electricians,Electricians Lighting Fixtures & Equipment,Matthews Electrical Services,Ste 314,Henderson,NV,89074,702 426 8379,
Electricians,Electricians,Nash Electric Inc,330 E Warm Springs Rd,Las Vegas,NV,89119,702 979 2423,
Electricians,Electricians,JT Electric,9811 W Charleston Blvd,Las Vegas,NV,89117,702 343 9371,
Electricians,Electricians Home Inspectors, Lighting Fixtures & Equipment,AAA Certified Electric,,Las Vegas,NV,89109,702 333 1540,
Electricians,Electricians Pool & Hot Tub Service,Murphy Electric,7155 Bermuda Rd Ste A,Las Vegas,NV,89119,702 597 2403,
Electricians,Lighting Fixtures & Equipment Electricians, Contractors,MCOR Lighting,3175 W. Ali Baba Lane,Las Vegas,NV,89118,702 558 0533,
Electricians,Electricians,Vegas Electric,3888 W Sahara Ave,Las Vegas,NV,89102,702 752 9149,
Electricians,Electricians,M & M Electric,3655 W Dewey Dr,Las Vegas,NV,89118,702 798 1077,
Electricians,Electricians,Robertson Bright Industries LLC,452 E Silverado Ranch Blvd,Las Vegas,NV,89183,702 914 2290,
Electricians,Electricians,Beldy Electric,2754 S Highland Dr,Las Vegas,NV,89109,702 645 6296,contact@beldyelectric.com
Electricians,Solar Installation Electricians, Utilities,Jersey Solar,4325 W Patrick Ln,Las Vegas,NV,89118,877 437 6527,sales@JerseySolarLasVegas.com
Electricians,Electricians,Now Electric,3002 Rigel Ave,Las Vegas,NV,89102,702 736 4040,
Electricians,Electricians,Mojave Electric,3755 W Hacienda Ave,Las Vegas,NV,89118,702 798 2970,admin@mojaveelectric.com
Electricians,Electricians Contractors,Cordello & Co,,,,,702 235 5000,angelo@cordellocompany.com
Electricians,Electricians,Schematic Electric LLC,500 N Rainbow Blvd,Las Vegas,NV,89107,702 940 6772,info@SchematicElectricLLC.com
Electricians,Handyman Electricians, Carpeting,Nevada Repair,6509 Deadwood Rd,Las Vegas,NV,89108,702 528 8834,repairnv@gmail.com
Electricians,Electricians,Strip Emergency Electrician,3565 S Las Vegas Blvd,Las Vegas,NV,89109,702 608 8920,stripelectrican@gmail.com
Electricians,Lighting Fixtures & Equipment Electricians,Vegas LED,3261 S Highland Dr,Las Vegas,NV,89109,702 751 5177,email@vegasled.vegas
Electricians,Electricians Fences & Gates, MasonryConcrete,Alumacast,105 W Charleston Blvd,Las Vegas,NV,89102,702 678 6888,alumacast43@yahoo.com
Electricians,Electricians,Summerlin Electrician,8653 W Sahara Ave,Summerlin,NV,89117,702 608 8363,uslasvegaselectrician@gmail.com
Electricians,Plumbing Electricians,Access Services Group,126 Cassia Way,Henderson,NV,89014,702 597 1611,office@asgnv.net
Electricians,Contractors Electricians,Las Vegas Electrical Services Inc,6767 W Tropicana Ave,Las Vegas,NV,89103,702 706 1757,Info@LVESI.com
Electricians,Electricians,BriteSol LLC,5969 Mcleod Dr,Las Vegas,NV,89120,702 534 0829,sales@britesol.com
Electricians,Plumbing Electricians, Heating & Air ConditioningHVAC,Ace Services Plumbing Air Electrical,1495 Helm Dr,Las Vegas,NV,89119,702 795 3666,acea1@acea1.com
Electricians,Electricians,M+S Electric,6430 Sunset Corporate Dr,Las Vegas,NV,89120,702 545 0980,brenda@mselectriclv.com
Electricians,Handyman Electricians, Contractors,Francis Handyman Repairs,,Las Vegas,NV,89139,702 335 4033,tim@francishandymanrepairs.com
Electricians,Electricians Wholesale Stores,Emergency Lights,500 S Grand Central Pkwy,Las Vegas,NV,89106,800 480 0707,sales@emergencylights.net
Electricians,Electricians Solar Installation,Best Green Energy Solutions,4760 S Pecos Rd,Las Vegas,NV,89121,702 907 9102,bgenergysave@gmail.com
Electricians,Electricians,Next Generation Electrical Technologies,,,,,702 539 3516,Nina@Nextgenelectrical.com
Electricians,Electricians,The Electrician Smart Agent,,Las Vegas,NV,89106,702 589 1255,yourelectricalagent729@gmail.com
Electricians,Electricians,Ben David Electric Company,1675 S Mojave Road,Las Vegas,NV,89104,702 457 7707,info@nhwusa.com
Electricians,Electricians,Casas Electric,2710 E Patrick Lane,Las Vegas,NV,89120,702 597 2093,info@casaselectric.com
Electricians,Home Theatre Installation Electricians,Mountain West Electric,7225 Bermuda Rd,Las Vegas,NV,89119,702 207 4743,MWE@MountainWesteElectric.com
Electricians,Electricians,Century Electric,3440 Precision Dr,North Las Vegas,NV,89032,702 436 9500,bpool@centuryelectricllc.com
Electricians,Electricians Contractors, Heating & Air ConditioningHVAC,Lint Busters,505 Dutchman Ave,Henderson,NV,89011,702 565 2299,lynn@lintbusters.com
Electricians,Electricians Handyman,A Helping Hand Handyman Services,1716 Linn Ln,Las Vegas,NV,89156,702 812 2103,jon@helpinghandlv.com
Electricians,Electricians,TBM Electric,2371 Flute Ave,Henderson,NV,89052,702 277 5031,tbmelectric@cox.net
Electricians,Electricians Solar Installation,LED Electric,,,,,702 776 8197,ledbettereric27@gmail.com
Electricians,Electricians,Bright Lights Electric,112 Continental Ave,Henderson,NV,89015,702 553 6893,dcduey@yahoo.com
Electricians,Electricians,Native Electrical Contracting,1750 Ashburn Dr,North Las Vegas,NV,89032,702 491 5073,necnv@hotmail.com
Handyman,,,,,,,,
Handyman,Handyman,The Red Truck Handyman,1930 Village Center Cir Ste 3-224,Las Vegas,NV,89134,702 483 8104,
Handyman,Handyman Painters,Handyman Services,,,,,702 768 5700,
Handyman,Handyman,Your Handy PRO,10923 Vista Marbella Ave,Las Vegas,NV,89144,702 427 1919,yourhandypro@gmail.com
Handyman,Handyman,Call 4 Handyman,8029 W Hacienda Ave,Las Vegas,NV,89113,702 752 0758,
Handyman,Handyman,Arturo The Handyman Repairs,2113 Valley Dr,Las Vegas,NV,89108,702 569 7035,
Handyman,Contractors Handyman, Plumbing,Las Vegas Handyman,,,,,702 248 0550,
Handyman,Handyman,Mr Handy Handyman Service Inc,3855 S Valley View,Las Vegas,NV,89103,702 875 4477,mrhandylv@aol.com
Handyman,Handyman,THM Services,3651 Lindell Rd Ste D193,Las Vegas,NV,89103,702 758 4724,info@thmservicesltd.com
Handyman,Handyman,A 2 Zen Handyman,,,,,702 858 4876,
Handyman,Home Cleaning Handyman,Handy,,Las Vegas,NV,89101,,
Handyman,Handyman Painters,Mr Fix It,,,,,702 204 1447,
Handyman,Handyman Appliances & Repair,A Problem Solved Maintenance LLC,,Las Vegas,NV,89147,702 487 8875,info@aproblemsolvedllc.com
Handyman,Handyman ,Handy Dan,505 E Windmill Ln,Las Vegas,NV,89123,702 755 1769,
Handyman,Handyman Electricians,R & L Handyman Services,4001 S Decatur Blvd Ste 37,Las Vegas,NV,89103,702 785 2798,handy_russ@yahoo.com
Handyman,Handyman Painters, Drywall Installation & Repair,Renaissance Residential Maintenance,,,,,702 755 0256,
Handyman,Flooring Handyman,All-Pro Handyman,1750 Buffalo Dr,Las Vegas,NV,89128,702 752 2075,
Handyman,Handyman,My Amigo Handyman,8000 Badura AveApt 2130,Las Vegas,NV,89113,702 550 2636,
Handyman,Handyman ,Handyman Randy,,Las Vegas,NV,89120,702 203 3613,
Handyman,Handyman,Mattgyvers Helping Hands,,,,,702 639 7358,
Handyman,Carpet Cleaning Handyman,Luxe Home Service,,,,,725 696 8257,
Handyman,Painters Handyman,The Fascia Kings,1177 Matthew Ave,Las Vegas,NV,89123,702 524 1042,
Handyman,Handyman,Solve It Handyman,5418 St. Bernard Ct,Las Vegas,NV,89131,702 757 5042,
Handyman,Garage Door Services Handyman ,RXGDS,2657 Windmill Pkwy Ste 647,Henderson,NV,89074,702 275 5001,
Handyman,Handyman Flooring,J & M Flooring,7075 W Gowen Rd Ste 205,Las Vegas,NV,89129,702 337 2111,
Handyman,Handyman,Steves Handyman Servicve,218 Locust Valley Ave,Las Vegas,NV,89148,702 722 4404,
Handyman,Handyman ,Savvy Handyman,11359 Corsica Mist Ave,Las Vegas,NV,89135,702 767 7989,
Handyman,Handyman,Homer The Handyman,,,,,702 894 9000,
Handyman,Handyman,Jimmys Handyman Service,,Las Vegas,NV,,702 300 0679,
Handyman,Handyman Contractors,Silver Desert Handyman,,Henderson,NV,89012,702 370 7279,silverdeserthandyman@gmail.com
Handyman,Handyman Painters, Contractors,Castillo Construction,2789Trotwood Ln,Las Vegas,NV,89108,702 236 9223,eduardo@castilloconstruction.org
Handyman,Handyman,San Romans Handyman,,Las Vegas,NV,89147,702 370 8404,
Handyman,Handyman,Mr G Handyman Services,4523 El Campana Way,Las Vegas,NV,89121,702 672 3560,
Handyman,Damage Restoration Handyman, Drywall Installation & Repair,Handyman Las Vegas,4850 S Decatur Blvd,Las Vegas,NV,89103,725 261 2068,
Handyman,Handyman,Brothers Handyman,4706 Procyon St,Las Vegas,NV,89103,702 637 9469,
Handyman,Handyman,Mario Munoz,,Las Vegas,NV,89108,702 684 1702,
Handyman,Handyman,Axis Home Services LLC,3528 Laguna Veneta Ave,Las Vegas,NV,89141,702 417 4277,axishomeservice@gmail.com
Handyman,Handyman ,Handyman Services of Southern Nevada,925 Alan Shepard Street,Las Vegas,NV,89145,702 259 1050,
Handyman,Handyman,Southern Nevada Landlord Services,,Las Vegas,NV,89121,702 210 1994,Service@SNVLS.com
Handyman,Handyman,Allstar Handyman,9528 Kelly Creek Ave,Las Vegas,NV,89129,702 360 7310,
Handyman,Contractors Handyman,Dependable Handyman & Remodeling Services,5550 Painted Mirage RdSte 320,Las Vegas,NV,89149,702 521 2785,CS@DHSLV.com
Handyman,Handyman Contractors,Iconic Construction LLC,10009 Keifer Valley St,Las Vegas,NV,89178,702 260 9931,
Handyman,Handyman,Solyris Handyman,,,,,702 755 8701,
Handyman,Handyman,Dc Service Handyman,,Las Vegas,NV,89122,702 979 8081,
Handyman,Plumbing Handyman,SC Plumbing & Handyman,6955 N Durango Dr,Las Vegas,NV,89149,702 556 7856,
Handyman,Handyman ,Sam The Man,,,,,702 683 0081,
Handyman,Handyman,Ron Morey Handyman Services,5601 Shuttle Ct,Las Vegas,NV,89103,702 630 9193,
Handyman,Handyman Electricians, Plumbing,Your Las Vegas Handyman,8635 W Sahara Ave,Las Vegas,NV,89117,702 325 4318,
Handyman,Handyman,Davids Handyman Services,,,,,702 241 4317,
Handyman,Handyman,Sears Handyman Services,,,,,702 538 8619,
Handyman,Handyman,Valleywide Handyman,,,,,702 417 1902,
Handyman,Handyman,Fixing Las Vegas Handyman,6539 Pecan Grove Ct Ste 201,Las Vegas,NV,89142,702 290 5881,
Handyman,Handyman,RG Handyman Services,5100 Obannon Dr,Las Vegas,NV,89146,714 404 7871,
Handyman,Handyman,Sell Ready Handyman Services,848 N Rainbow BlvdSte 101,Las Vegas,NV,89107,702 595 0388,sellreadycrp@gmail.com
Handyman,Handyman Electricians, Carpeting,Nevada Repair,6509 Deadwood Rd,Las Vegas,NV,89108,702 528 8834,repairnv@gmail.com
Handyman,Handyman,Meyer Handyman Service,5850 Medallion Dr Ste 202,Las Vegas,NV,89122,702 610 5215,meyerhandymanservice@yahoo.com
Handyman,Handyman Plumbing, Heating & Air ConditioningHVAC,WC Maintenance Services,8832 Borla Dr,Las Vegas,NV,89117,702 902 0982,wcmaintserv@yahoo.com
Handyman,Handyman,Jemco Handyman Service,3925 Costa Mesa Ave,Las Vegas,NV,89110,702 502 4599,jemco.biz@gmail.com
Handyman,Contractors ,MRC Builders,4544 w. Russell Rd. Suite A,Las Vegas,NV,89118,702 220 4845,mrcbuilders@yahoo.com
Handyman,Contractors,K-C MaintenanceInc,4710 W Post Rd Ste 145,Las Vegas,NV,89118,702 228 5552,kcm@kcmaint.com
Handyman,Contractors Plumbing, MasonryConcrete,Aria Remodeling,3111 S Valley View Blvd Unit B120,Las Vegas,NV,89102,702 800 1000,eddie@ariaremodeling.com
Handyman,Contractors,Sati Construction,5031 Sobb Ave,Las Vegas,NV,89138,702 767 7666,info@saticonstruction.com
Handyman,Property Management ,Hot Point Realty,6292 W Spring Mountain Rd,Las Vegas,NV,89146,702 248 1818,info@hotpointlv.com
Handyman,Contractors Plumbing,A Family Handyman,5444 bentley ave,Las Vegas,NV,89142,702 280 9519,Chris@afamilyhandyman.com
Handyman,Contractors,Southwestern Custom Construction LLC,1210 Wigwam Pkwy,Henderson,NV,89074,702 998 8939,bids@swccllc.com
Handyman,Plumbing Water Heater InstallationRepair, Water Purification Services,Colburn Enterprises,2475 Chandler AveSte 17,Las Vegas,NV,89120,702 433 5605,colburn@lvcoxmail.com
Handyman,Plumbing,Pipe Dreams Plumbing,,,,,702 768 0428,info@pipedreamsplumbingco
Handyman,Windows Installation Glass & Mirrors,Cut Rate Glass Inc,5179 W Oquendo Rd,Las Vegas,NV,89118,702 292 9977,sales@cutrateglass.com
Handyman,Plumbing Heating & Air ConditioningHVAC,Number One Plumbing Heating & Air Conditioning,4131 W Oquendo RdSte 1,Las Vegas,NV,89118,702 850 9997,info@numberonelv.com
Handyman,Plumbing,Pure Plumbing,6255 McLeod DrSte 8,Las Vegas,NV,89120,702 534 1910,pureplumbinglasvegas@gmail.com
Handyman,Plumbing,Precision Plumbing,7500 W Lake Mead Blvd,Las Vegas,NV,89128,702 253 6363,support@precisionplumbinglv.com
Handyman,Contractors,Castillo Construction,,North Las Vegas,NV,89031,702 236 9223,eduardo@castilloconstruction.org
Handyman,Contractors,Servicemaster,7380 Eastgate Rd Ste 160,Henderson,NV,89011,702 896 4197,gflores@drylasvegas.com
Home Remodel,,,,,,,,
Home Remodel,Home Remodel,LV Restoration Inc.,500 N Rainbow Blvd,Las Vegas,NV,89107,725 777 0065,joe@lvrestoration.com
Home Remodel,Home Remodel,Xtreme Interiors Inc.,8040 Radigan Ave,Las Vegas,NV,89131,702 217 3377,XTREMEINTERIORS@YAHOO.COM
Home Remodel,Home Remodel,Team Tile & Stone,905 Joseph Kerwin Dr,Las Vegas,NV,89145,702 771 1771,estimates@teamtileandstone.com
Home Remodel,Home Remodel,Chermac Builders,2634 Westwood Dr,Las Vegas,NV,89109,702 732 7601,
Home Remodel,Home Remodel,Daltile Tile & Stone Gallery,,Las Vegas,NV,89118,702 871 8453,
Home Remodel,Home Remodel,Castillo Construction,2789Trotwood Ln,Las Vegas,NV,89108,702 236 9223,
Home Remodel,Home Remodel,Custom Closet Systems,6380 S Valley View Blvd,Las Vegas,NV,89118,702 360 0903,service@customclosetvegas.com
Home Remodel,Home Remodel,Fletcher Door and Trim,1073 Lacebark Ct,Las Vegas,NV,89123,702 340 4093,
Home Remodel,Home Remodel,MRC Builders,4544 w. Russell Rd. Suite A,Las Vegas,NV,89118,702 220 4845,mrcbuilders@yahoo.com
Home Remodel,Home Remodel,Closets Las Vegas,7060 W Warm Springs,Las Vegas,NV,89113,702 259 3000,joe@closetslasvegas.com
Home Remodel,Home Remodel,New Freedom Properties,7350 Dean Martin Dr,Las Vegas,NV,89139,702 483 1637,info@newfreedomproperties.org
Home Remodel,Home Remodel,CabinetCraft,7871 W Charleston Blvd,Las Vegas,NV,89117,702 233 1888,info@cabinetcraftvegas.com
Home Remodel,Home Remodel,BRLs Windows & Doors,4310 Losee Rd,Las Vegas,NV,89030,702 876 6579,buildingresource@earthlink.net
Home Remodel,Home Remodel,Builders United,5525 S Valley View Blvd,Las Vegas,NV,89118,702 706 2842,
Home Remodel,Home Remodel,Fresh Coat of Las Vegas,10300 W Charleston Blvd,Las Vegas,NV,89135,702 410 6991,
Home Remodel,Home Remodel,California Pools - Las Vegas,Ste 13-36,,,,800 282 7665,
Home Remodel,Home Remodel,Energy Efficient Remodel Home,7224 Carmen Blvd,Las Vegas,NV,89128,702 534 5054,annette@greenalliancenv.org
Home Remodel,Home Remodel,Custom Outdoor Living,5525 S Valley View Blvd,Las Vegas,NV,89118,702 759 2739,
Home Remodel,Home Remodel,Fernandez Construction,5353 S Valley View Blvd,Las Vegas,NV,89118,702 871 6024,
Home Remodel,Home Remodel,Ranieri Construction LLC,8237 Arch Bay Ln,Las Vegas,NV,89128,702 376 7980,
Home Remodel,Home Remodel,Ideal Plumbing Services,3508 E Charleston Blvd,Las Vegas,NV,89104,702 475 3292,info@idealservices.com
Home Remodel,Home Remodel,Las Vegas Handyman,,,,,702 248 0550,
Home Remodel,Home Remodel,Curts Home Repairs,,,,,702 880 8115,
Home Remodel,Home Remodel,Master Craftsmen,3111 S Valley View Blvd,Las Vegas,NV,89102,702 312 4606,
Home Remodel,Home Remodel,Axiom Construction & Management,3960 Howard Hughes Pkwy,Las Vegas,NV,89169,702 990 3517,
Home Remodel,Home Remodel,Brooklynn Stone,,,,,702 515 9511,
Home Remodel,Home Remodel,Las Vegas Home Remodel,5329 Cameron St,Las Vegas,NV,89118,877 207 8885,
Home Remodel,Home Remodel,J & J Contracting,Las VegasÂ NVÂ 89118,,,,702 773 1842,
Home Remodel,Home Remodel,Merlin Contracting and Development,6408 Arville St,Las Vegas,NV,89118,702 257 8102,
Home Remodel,Home Remodel,Kitchenland,6455 Dean Martin Dr,Las Vegas,NV,89118,702 896 0265,
Home Remodel,Home Remodel,Jaimes Concrete Inc.,800 N Rainbow,Las Vegas,NV,89107,702 285 8788,jaimesconcreteinc@gmail.com
Home Remodel,Home Remodel,Action Plumbing,2505 Chandler Ave,Las Vegas,NV,89120,702 405 6555,
Home Remodel,Home Remodel,Westland Builders,Ste 5,Las Vegas,NV,89103,,
Home Remodel,Home Remodel,A Granite MD,2146 Highland Ave,Las Vegas,NV,89102,,
Home Remodel,Home Remodel,Iconic Construction LLC,10009 Keifer Valley St,Las Vegas,NV,89178,702 260 9931,
Home Remodel,Home Remodel,F & L Home Improvements,5235 Glendale Ave,Las Vegas,NV,89156,702 452 7721,
Home Remodel,Home Remodel,Blue Haven Pools & Spas,1126 S Rainbow Blvd,Las Vegas,NV,89146,702 795 9500,
Home Remodel,Home Remodel,Remodeling-Pros,10620 Southern Highlands Pkwy,Las Vegas,NV,89141,702 522 1919,
Home Remodel,Home Remodel,Aria Remodeling,3111 S Valley View Blvd,Las Vegas,NV,89102,702 800 1000,
Home Remodel,Home Remodel,Vegas Remodel,7560 Rancho Destino Rd,Las Vegas,NV,89123,702 772 3745,
Home Remodel,Home Remodel,MCOR Lighting,3175 W. Ali Baba Lane,Las Vegas,NV,89118,702 558 0533,
Home Remodel,Home Remodel,Copper Creek Construction,5980 Topaz St,Las Vegas,NV,89120,702 898 7873,
Home Remodel,Home Remodel,GraEagle Construction LLC,5016 Cecile Ave,Las Vegas,NV,89115,702 248 0170,info@gecsoars.com
Home Remodel,Home Remodel,Modern Building Granite Supply,3111 S Valley View Boulevard,Las Vegas,NV,89102,702 889 4788,
Home Remodel,Home Remodel,Cimarron Development Inc,,,,,702 210 0957,
Home Remodel,Home Remodel,Impressions Tile & Marble,7250 Polaris Ave,Las Vegas,NV,89118,702 860 2271,
Home Remodel,Home Remodel,Elite Flooring Plus,2555 E Tropicana Ave,Las Vegas,NV,89121,702 384 8551,
Home Remodel,Home Remodel,Dependable Handyman & Remodeling Services,5550 Painted Mirage Rd Ste 320,Las Vegas,NV,89149,702 521 2785,CS@DHSLV.com
Home Remodel,Home Remodel,K-C MaintenanceInc.,4710 W Post Rd Ste 145,Las Vegas,NV,89118,702 228 5552,kcm@kcmaint.com
Home Remodel,Home Remodel,Futures Building Company,7440 Coley Ave,Las Vegas,NV,89117,702 878 8595,rickj@futuresbuildingcompany.com
Home Remodel,Home Remodel,Oasis Springs Builders,8130 S Valley View Blvd,Las Vegas,NV,89139,702 598 3724,thebuilders@embarqmail.com
Home Remodel,Home Remodel,ALKO LLC,,Las Vegas,NV,89147,702 328 1192,nx@alkolv.com
Home Remodel,Home Remodel,Sati Construction,5031 Sobb Ave,Las Vegas,NV,89138,702 767 7666,info@saticonstuction.com
Home Remodel,Home Remodel,Committed Companies,6607 Schuster St,Las Vegas,NV,89118,702 966 5440,committedcompanies@gmail.com
Home Remodel,Home Remodel,R.W. Bugbee & Associates,8635 W Sahara Ave Ste 550,Las Vegas,NV,89117,702 388 9133,info@rwbugbee.com
Home Remodel,Home Remodel,S & S Painting & Remodeling,,Las Vegas,NV,89147,702 580 6422,sspaintremodel@yahoo.com
Home Remodel,Home Remodel,Francis Handyman Repairs,Las Vegas NV 89139,,,,702 335 4033,tim@francishandymanrepairs.com
Home Remodel,Home Remodel,Kera Bath & Shower,2813 E. Alexander Rd,North Las Vegas,NV,89030,725 333 8547,info@kmilv.com
Home Remodel,Home Remodel,West Craft Incorporated,,Las Vegas,NV,89129,702 382 6167,westcraftinc@cox.net
Home Remodel,Home Remodel,West Coast Cabinets and Countertops,950 W Warm Springs Rd Ste 112,Henderson,NV,89011,702 222 4700,John@LVCabinets.com
Home Remodel,Home Remodel,Southwestern Custom Construction LLC,1210 Wigwam Pkwy,Henderson,NV,89074,702 998 8939,bids@swccllc.com
Home Remodel,Home Remodel,A Campagna Company LLC,1993 Whitney Mesa Dr,Henderson,NV,89014,702 516 5055,service@accplumbing.com
Home Remodel,Home Remodel,Rystin Construction,530 E Sunset Rd,Henderson,NV,89011,702 876 3045,INFO@RYSTIN.COM
Home Remodel,Home Remodel,Craft Construction,2306 Losee Rd,North Las Vegas,NV,89030,702 639 9000,mail@craftcc.com
Home Remodel,Home Remodel,Design Builders,179 N Gibson Rd,Henderson,NV,89014,702 567 1500,info@designlv.com
Home Remodel,Home Remodel,Spike Construction,4608 Wheatley Ct,North Las Vegas,NV,89031,702 281 8912,alspikeconstruction@yahoo.com
Home Remodel,Home Remodel,JDS Surfaces,4837 Lincoln Rd Ste E,N. Las Vegas,NV,89081,702 435 1607,johns@jdssurfaces.com
Home Remodel,Home Remodel,Flamingo Tile,2564 Wigwam Pkwy Ste 140,Henderson,NV,89074,702 699 9512,flamingotile@cox.net
Home Remodel,Home Remodel,Castillo Construction,,North Las Vegas,NV,89031,702 236 9223,eduardo@castilloconstruction.org
Home Remodel,Home Remodel,Room Resolutions Inc,4509 Bersaglio St,Las Vegas,NV,89135,702 505 2131,jane@roomresolutions.com
Home Remodel,Home Remodel,Efficient Space Planning,6045 Harrison Dr Ste 4,Las Vegas,NV,89120,702 259 9569,info@espnevada.com
Home Remodel,Home Remodel,Feng Shui - Design Solutions,,,,,702 354 6809,rochiel@fengshui-designsolutions.com
Home Remodel,Home Remodel,Palisade Marble & Granite,801 Kenny Way,Las Vegas,NV,89107,702 259 0862,palisadelv1@cox.net
House Cleaning,,,,,,,,
House Cleaning,Home Cleaning Office Cleaning, Carpet Cleaning,Pristine Cleaning,5637 Cameron St,Las Vegas,NV,89118,(702) 848-3993,info@pristinehousecleaning.com
House Cleaning,Home Cleaning,JNS Final Touch LLC,1201 Alderton Ln,Las Vegas,NV,89144,(702) 493-0799,jnsfinaltouch@yahoo.com
House Cleaning,Home Cleaning Carpet Cleaning, Office Cleaning ,Proficient Clean,4952 S Rainbow BlvdSte 226,Las Vegas,NV,89118,(702) 703-4148,GetCleaned@ProficientClean.com
House Cleaning,Home Cleaning Carpet Cleaning, Window Washing,Avanti Green Eco Cleaning,10161 Park Run DrSte 120,Las Vegas,NV,89145, (702) 527-2111,sales@avantigreen.com
House Cleaning,Home Cleaning Home Organization,Superb Maids,,,,,(702) 721-8858,help@superbmaids.net
House Cleaning,Home Cleaning,Tidy Maids In Las Vegas,,,,,(888) 428-4338,
House Cleaning,Home Cleaning,Check Maid Cleaning Services,3400 W Desert InnSte 44,Las Vegas,NV,89102,(800) 737-4802,hello@checkmaid.com
House Cleaning,Home Cleaning,Your Helping Hands,2881 S Valley View BlvdSte 10,Las Vegas,NV,89102,(702) 388-2542,
House Cleaning,Home Cleaning Home Organization, Window Washing,Charlies Maids,,,,,(702) 900-1406,
House Cleaning,Pressure Washers Home Cleaning, Office Cleaning,Dynasty Cleaning Services,9484 S Eastern AveSte 216,Las Vegas,NV,89123,(702) 998-4446,cory@dynastycleaninglv.com
House Cleaning,Home Cleaning,The Maids,5000 W Oakey Blvd B6,Las Vegas,NV,89146,(702) 763-8010,
House Cleaning,Home Cleaning,Rhinos Maid,8868 S Eastern AveSte 108,Las Vegas,NV,89123,(702) 900-9444,rhinosmaidlv@hotmail.com
House Cleaning,Office Cleaning Home Cleaning ,Radiant Maids Cleaning Service,10620 Southern Highlands PkwySte 137,Las Vegas,NV,89141,(702) 409-8660,
House Cleaning,Home Cleaning,Maid Brigade of North West and SW Las Vegas,3275 West Ali Baba Ln#508,Las Vegas,NV,89118,(702) 792-6243,
House Cleaning,Home Cleaning Handyman,Handy,,Las Vegas,NV,89101,,
House Cleaning,Home Cleaning,Sandis House Cleaning,,,,,(702) 628-3081,
House Cleaning,Home Cleaning Carpet Cleaning,Eco Clean,4075 Abernathy Forest Pl,Las Vegas,NV,89141,(702) 757-1137,ecodeanlasevegas@gmail.com
House Cleaning,Home Cleaning Child Care & Day Care,Nannies & Housekeepers USA,3585 E Flamingo RdSte 204,Las Vegas,NV,89121,(702) 451-0021,
House Cleaning,Home Cleaning Office Cleaning,Maria Cleaning 2,2550 Chandler AveSuite 10,Las Vegas,NV,89120,(702) 454-2031,
House Cleaning,Home Cleaning Pressure Washers, Window Washing,Precious Cleaning Service,9704 Brooks Lake Ave,Las Vegas,NV,89148,(702) 332-7251,ANTHONY@PRECIOUSCLEANING.COM
House Cleaning,Home Cleaning,Clean Queen Cleaning Services,6628 Sky Point Dr,Las Vegas,NV,89131,(702) 690-5442,
House Cleaning,Home Cleaning Carpet Cleaning,Carol Kings Cleaning LLC,780 S Rampart,Las Vegas,NV,89145,(702) 202-3915,cking@carolkingscleaning.com
House Cleaning,Home Cleaning ,Kimberlys Kleaning Service,,,,,(702) 263-0468,info@kimberlyskleaning.com
House Cleaning,Home Cleaning,iMaid Vegas,9552 W Tropicana AveSte 1064,Las Vegas,NV,89147,(702) 403-6809,
House Cleaning,ome Cleaning,Neighborhood Maids,,Las Vegas,NV,89102,(888) 266-8836,
House Cleaning,Home Cleaning,Upkeep,,,,,(855) 698-7533,
House Cleaning,Home Cleaning,Big League Cleaning,,,,,(702) 328-4052,
House Cleaning,Home Cleaning,Benitas House Cleaning,7465 W Lake Mead BlvdSte 100,Las Vegas,NV,89128,(702) 396-7279,
House Cleaning,Home Cleaning Office Cleaning ,Maidly,353 E Bonneville Ave,Las Vegas,NV,89101,(877) 407-9327,info@maidly.net
House Cleaning,Office Cleaning Home Cleaning, Carpet Cleaning,Maids In Las Vegas,10000 S Maryland PkwySte. 2029,Las Vegas,NV,89183,(725) 222-0306,
House Cleaning,Home Cleaning,Flawless Cleaning Services,6163 Bayard St,Las Vegas,NV,89148,(702) 499-2983,shari.flawless@gmail.com
House Cleaning,Home Cleaning,Maids & More Cleaning,3514 E Tropicana Ave ,Las Vegas,NV,89121,(702) 436-0136,
House Cleaning,Home Cleaning Office Cleaning, Carpet Cleaning,Clean-Mart,4580 W Sahara Ave,Las Vegas,NV,89102,(702) 870-3900,clean-mart@hotmail.com
House Cleaning,Carpet Cleaning Home Cleaning,MV Cleaning Services,3863 South Valley View Boulevard Suite 32,Las Vegas,NV,89103,(702) 395-7744,
House Cleaning,Home Cleaning,An Immaculate Touch Cleaning Service,,,,,(702) 605-0304,
House Cleaning,Home Cleaning Office Cleaning, Carpet Cleaning,Las Vegas Cleaning Service,9680 W Tropicana,Las Vegas,NV,89147,(702) 788-0221,Joe@LasVegasCleaningService.com
House Cleaning,Home Cleaning Carpet Cleaning,Absolutely Spotless,,,,,(702) 339-0234,
House Cleaning,Home Cleaning ,Green Clean Maids,3790 Paradise Rd,,,,(702) 863-2231,
House Cleaning,Home Cleaning,Brothers Cleaning Services,6500 W Charleston Blvd,Las Vegas,NV,89146,(702) 508-9032,
House Cleaning,Home Cleaning Carpet Cleaning, Office Cleaning,NaturalDry Carpet Cleaning,3650 Great Bear St,Las Vegas,NV,89147,(702) 750-7093,CustomerCare@NaturalDry.com
House Cleaning,Home Cleaning,Southern Highlands Cleaning Crew,4449 Verdiccio Ave,Las Vegas,NV,89141,(702) 885-7795,
House Cleaning,Home Cleaning,Molly Maid,6040 Smoke Ranch Rd,,,,(702) 647-4451,
House Cleaning,Office Cleaning Home Cleaning, Carpet Cleaning ,Desert Valley Cleaning,,,,,(702) 612-2152,
House Cleaning,Home Cleaning,Molly Maid,2565 Chandler AveSte 27,Las Vegas,NV,89120,(702) 750-3535,
House Cleaning,Home Cleaning Office Cleaning, Carpet Cleaning,Caros Cleaning Solutions,7789 Soda Canyon St,Las Vegas,NV,89139,(702) 327-5514,info@caroscleaningsolutions.com
House Cleaning,Landscaping Home Cleaning, Carpet Cleaning,Summerlin Maids,4550 W Oakey BlvdSte 111,Las Vegas,NV,89102,(702) 249-8329,admin@summerlinmaids.com
House Cleaning,Las Vegas NV 89110,MHK,817 Lantham Place,,,,(702) 583-8222,
House Cleaning,Home Cleaning,2 Chicks & a Broomstick,3355 Spring Mountain RdSte 50,Las Vegas,NV,89102,(702) 388-4488,info@2chicksandabroomstick.com
House Cleaning,Landscaping Home Cleaning ,Mountains Edge Maids,4550 W Oakey BlvdSte 111,Las Vegas,NV,89102, (702) 249-8329,admin@mountainsedgemaids.com
House Cleaning,Home Cleaning Carpet Cleaning, Flooring,Carbonated Solutions of Las Vegas,3535 W Harmon AveSte G,Las Vegas,NV,89103,(702) 423-6092,
House Cleaning,Home Cleaning Carpet Cleaning,Sunshine Cleaning,2430 N Decatur Blvd.Ste 120,Las Vegas,NV,89108,(702) 810-0921,sunshinecleaninglv@gmail.com
House Cleaning,Home Cleaning Office Cleaning,Pure Cleaning,3484 Nightflower LnSte B,Las Vegas,NV,89121,(702) 978-2234,purecleaninglv@gmail.com
House Cleaning,Home Cleaning Heating & Air ConditioningHVAC ,A To Z Indoor Care,11251 Andreola Ct.,Las Vegas,NV,89141,(702) 897-7395,avivit@msn.com
House Cleaning,Home Cleaning ,A&H Cleaning Services,,,,,(970) 498-9990,ahcleaningservicesllc@gmail.com
House Cleaning,Home Cleaning,OkMaids,,,,,(800) 226-0737,Hello@OkMaids.com
House Cleaning,Carpet Cleaning Office Cleaning,J2 Cleaning Las Vegas,7437 S Eastern AveSte 424,Las Vegas,NV,89123,,mail@j2clean.com
House Cleaning,Home Cleaning,Summerlin Window Cleaning,,Las Vegas,NV,89135,(702) 965-2065,info@summerlinwindowcleaning.com
House Cleaning,Home Cleaning Carpet Cleaning,Jays Carpet Cleaning,1409 Dream Bridge Dr,Las Vegas,NV,89144,(702) 430-7497,jayscarpetcleaninglv@gmail.com
House Cleaning,Home Cleaning Office Cleaning, Carpeting,Proficient Clean,9850 S Maryland PkwySte A5-559,Henderson,NV,89183,(702) 430-7497,GetCleaned@ProficientClean.com
House Cleaning,Home Cleaning ,Green Valley Maids,4550 W Oakey BlvdSte 111,Las Vegas,NV,89102,(702) 249-8329,admin@greenvalleymaids.com
House Cleaning,Home Cleaning Office Cleaning, Carpet Cleaning ,E Crew Carpet Cleaning & Tile Cleaning,4760 S Pecos RdSte 103,Las Vegas,NV,89121,(702) 521-8738,info@ecrew.vegas
House Cleaning,Home Cleaning Pet BoardingPet Sitting,Pet Sitter,,,,,(702) 439-9136,mjsummerlinhomecl@yahoo.com
House Cleaning,Home Cleaning ,Smiths Go Green Cleaning,,,,,(702) 763-3033,smithsgogreencleaning@gmail.com
House Cleaning,Pressure Washers Home Cleaning, Window Washing,Easton Pressure Washing,,,,,(702) 596-3346,easton@pressurewashlv.com
House Cleaning,Home Cleaning Office Cleaning,A Shine Above,2701 WestWood Dr,Las Vegas,NV,89109,(702) 845-1543,info@ashineabove.net
House Cleaning,Home Cleaning,Home Maid,8510 W Lake Mead Blvd,Las Vegas,NV,89128,(702) 363-7018,office@homemaidlv.com
House Cleaning,Office Cleaning Home Cleaning,Clean Pro,10300 W Charleston BlvdSte 13-411,Las Vegas,NV,89131,(702) 768-3475,carl@cleanprolasvegas.com
House Cleaning,Pet BoardingPet Sitting Home Cleaning,Mj Summerlin House Cleaning  Your Pets Nanny,,,,,(702) 439-9136,mjsummerlinhomecl@yahoo.com
House Cleaning,Office Cleaning Home Cleaning ,Mother Earth Maids,,,,,(949) 456-3994,nataspen@motherearthmaids-oc.com
House Cleaning,Home Cleaning Office Cleaning,Nextaseo Cleaning Service,3376 S EasternSte 188A,Las Vegas,NV,89169,(702) 383-7000,info@nextaseo.com
House Cleaning,Carpet Cleaning Office Cleaning,Turbo Clean Pro Carpet Cleaning,4894 W Lone Mountain RdSte 148,Las Vegas,NV,89130,(702) 622-1200,info@turbocleanlv.com
House Cleaning,Home Cleaning Carpet Cleaning, Dog Walkers,HoneySchedule,3995 W Quail Ave,Las Vegas,NV,89118,(661) 622-2226,team@honeyschedule.com
House Cleaning,Carpet Cleaning Home Cleaning,Blue Bird Carpet Cleaning,3711 Vegas Dr,Las Vegas,NV,89108,(702) 645-7070,info@bluebirdcarpet.com
House Cleaning,Home Cleaning Carpet Cleaning, Dog Walkers,HoneySchedule,3995 W Quail Ave,Las Vegas,NV,89118,(661) 622-2226,team@honeyschedule.com
House Cleaning,Office Cleaning Home Cleaning, Carpet Cleaning,Valley Star Maids,5914 Bushra Ct,Las Vegas,NV,89110,(702) 706-0206,Serviceteam@valleystarmaids.com
House Cleaning,Home Cleaning Office Cleaning, Carpet Cleaning,Marvelous Maids,,,,,(323) 535-8743,scando126@gmail.com
House Cleaning,Home Cleaning,Nice Cleaning Services,,,,,(702) 201-3199,nicecleaningservices1@gmail.com
House Cleaning,Home Cleaning ,Cleaner Vegas,,,,,(702) 374-9096,shine@cleanervegas.com
HVAC,,,,,,,,
HVAC,Heating & Air ConditioningHVAC,Sahara Air Conditioning & Heating,2718 S Highland Dr,Las Vegas,NV,89109,702 796 9677,info@saharaair.com
HVAC,Heating & Air ConditioningHVAC Solar Installation,Motors & More Inc,2315 Highland Dr,Las Vegas,NV,89102,702 320 9900,motormore@gmail.com
HVAC,eating & Air ConditioningHVAC ,Air One Heating & Air Conditioning,3046 Vegas Dr,Las Vegas,NV,89106,702 384 2471,service@aironehac.com
HVAC,Heating & Air ConditioningHVAC Contractors, Electricians,Cool Air Now AC Repair,1918 E Charleston Blvd,Las Vegas,NV,89104,702 605 6100,info@coolairconditioningnow.com
HVAC,Heating & Air ConditioningHVAC ,Lake City Air Conditioning,1180 North Town Center Dr,Las Vegas,NV,89144,702 293 4757,Julie@LakeCityaclv.com
HVAC,Heating & Air ConditioningHVAC ,AC Pro,2910 S Highland Dr,Las Vegas,NV,89109,702 829 3010,marketing@acpro.com
HVAC,Heating & Air ConditioningHVAC,702AC Air Conditioning & Heating Solutions,11700 W Charleston Blvd 170,Las Vegas,NV,89135,702 360 6777,info@702AC.com
HVAC,Heating & Air ConditioningHVAC ,Right Now Air,5166 W Patrick Ln,Las Vegas,NV,89118,702 996 6215,Service@rightnowair.com
HVAC,Heating & Air ConditioningHVAC ,Chazell Air Conditioning & Heating,4367 West Sunset Rd,Las Vegas,NV,89118,702 647 3355,service@chazellac.com
HVAC,Heating & Air ConditioningHVAC,Dans Heating & Cooling Inc.,3073 W Tompkins Ave,Las Vegas,NV,89103,702 616 2534,contact@danslasvegas.com
HVAC,Heating & Air ConditioningHVAC ,Custom Air Specialists,,,,,702 529 2106,Customairspecialists@yahoo.com
HVAC,Heating & Air ConditioningHVAC,DNA Air Conditioning & Heating,7473 W. Lake Mead Blvd,Las Vegas,NV,89128,702 562 8193, Andre@DnaAirConditioningandHeating.com
HVAC,Plumbing Heating & Air ConditioningHVAC ,Almighty Air,1412 Western Ave,Las Vegas,NV,89103,702 597 3000,office@almightyair.com
HVAC,Heating & Air ConditioningHVAC ,Honeybee AC,8311 W Sunset,Las Vegas,NV,89113,702 623 0017,info@honeybeeac.com
HVAC,Heating & Air ConditioningHVAC,Innovative Air,2827 Craigton Dr,Henderson,NV,89044,702 325 1166,Eric@Innovativeair.co
HVAC,Plumbing Electricians, Heating & Air ConditioningHVAC,Ace Services Plumbing Air Electrical,1495 Helm Dr,Las Vegas,NV,89119,702 795 3666,acea1@acea1.com
HVAC,Heating & Air ConditioningHVAC Plumbing,Montgomery Air Conditioning and Heating,,,,,702 513 9872,montgomeryacandheat@yahoo.com,
HVACHeating & Air ConditioningHVAC,ACR Mechanical, Inc,1820 Western Ave,Las Vegas,NV,89102,702 369 7015,acrmechanical@live.com
HVAC,Heating & Air ConditioningHVAC,Novotny Mechanical,,,,,702 802 0247,Scheduling@NovotnyMechanical.com
HVAC,Handyman Plumbing, Heating & Air ConditioningHVAC,WC Maintenance Services,8832 Borla Dr,Las Vegas,NV,89117,702 902 0982,wcmaintserv@yahoo.com
HVAC,Heating & Air ConditioningHVAC,Gold Medal Services,5150 S Decatur Blvd,Las Vegas,NV,89118,702 655 6100,sales@goldmedalair.com
HVAC,Plumbing Heating & Air ConditioningHVAC ,Delta Mechanical,,,,,702 731 9400,arizona@deltamechanical.com
HVAC,Heating & Air ConditioningHVAC,Ambient Air,,,,,702 501 9366,ambientair@yahoo.com
HVAC,Contractors Heating & Air ConditioningHVAC,Quality Air Conditioning & Heating,3261 S Highland Dr,Las Vegas,NV,89109,702 586 8844,qualityair58@yahoo.com
HVAC,Heating & Air ConditioningHVAC,Revolutionary Air,5300 Lochmor Ave,Las Vegas,NVÂ ,89130,702 645 4847,cool@revolutionaryair.com
HVAC,eating & Air ConditioningHVAC,Ameripro Corp,3281 N Decatur Blvd,Las Vegas,NV,89130,702 660 9982,office@ameriprocorp.com
HVAC,Heating & Air ConditioningHVAC ,Affordable Cool Air,,,,,702 561 1304,lucian@affordablecoolair.com
HVAC,Heating & Air ConditioningHVAC,Heating & Cooling Las Vegas,4005 W Reno Ave,Las Vegas,NV,89118,702 328 0888,heatingandcoolinglv@gmail.com
HVAC,Heating & Air ConditioningHVAC,Xcellence Cooling and Heating,1537 W Oakey Blvd,Las Vegas,NV,89102,702 401 2946,xcoolingandheating@gmail.com
HVAC,Plumbing Heating & Air ConditioningHVAC,Kellys Pipe & Supply,2124 Industrial Rd,Las Vegas,NV,89102,702 382 4957,cdresch@kellyspipe.com
HVAC,Contractors Heating & Air ConditioningHVAC ,Air Conditioning Las Vegas,3151 South Highland Dr,Las Vegas,NV,89109,702 410 6576,info@air-conditioning-las-vegas.com
Janitorial Service,,,,,,,,
Janitorial Service,Carpet Cleaning Office Cleaning,J2 Cleaning Las Vegas,7437 S Eastern AveSte 424,Las Vegas,NV,89123,702 880 7890,mail@j2clean.com
Janitorial Service,Office Cleaning ,Commercial Cleaning Services,3901 West Charleston Blvd
Ste 132,Las Vegas,NV,89102,800 310 6026,sales@CommercialCleaningLV.com
Janitorial Service,Pressure Washers Home Cleaning, Office Cleaning ,Dynasty Cleaning Services,9484 S Eastern Ave
Ste 216,Las Vegas,NV,89123,7029984446
,cory@dynastycleaninglv.com
Janitorial Service,Office Cleaning ,Charlies Janitorial Services,4405 E Sahara Ave
Ste 16,Las Vegas,NV,89104,7028042828e,
Janitorial Service,Office Cleaning Carpet Cleaning, Pressure Washers, Home Cleaning,Valley Wide Janitorial,10438 September Flower St,Las Vegas,NV,89183,702 884 2247,valleywide08@yahoo.com
Janitorial Service,Carpet Cleaning Office Cleaning,Rays Professional Janitorial Services,2309 La Harve Dr,Las Vegas,NV,89106,702 677 5002,
Janitorial Service,Office Cleaning ,Trustworthy Janitorial Service,201 Las Vegas Blvd S
Ste 240,Las Vegas,NV,89101,702 970 4932,
Janitorial Service,Best Janitorial Services of Nevada,Window Washing Carpet Cleaning, Pressure Washers ,2545 Chandler Ave
Ste 7,Las Vegas,NV,89120,702 736 4785,bjsjanitorial@gmail.com
Janitorial Service,Home Cleaning,Your Helping Hands,2881 S Valley View Blvd
Ste 10,Las Vegas,NV,89102,702 388 2542,
Janitorial Service,Home Cleaning Carpet Cleaning, Office Cleaning ,Mayberrys Maids,4855 W Desert Inn Rd
Ste 105,Las Vegas,NV,89102,702 474 6243,WeCleanLasVegas@aol.com
Janitorial Service,Office Cleaning ,Vegas Clean Team,7025 Harbor View,Las Vegas,NV,89119,702 997 8496,
Janitorial Service,Office Cleaning Home Cleaning, Carpet Cleaning,Peachy Clean Janitorial Services,4350 Sanderling Cir,Las Vegas,NV,89103,702 706 8644,
Janitorial Service,Office Cleaning Carpet Cleaning,AE Janitorial Solutions,5269 Burnham Ave,Las Vegas,NV,89119,702 252 4630,services@eajanitorial.com
Janitorial Service,Home Cleaning Office Cleaning ,Nextaseo Cleaning Service,3376 S Eastern
Ste 188A,Las Vegas,NV,89169,702 383 7000,efrain@sevendaysjanitorial.com
Janitorial Service,Office Cleaning Contractors, Home Cleaning,Ebony Brothers Janitorial Services,613 North Valley View Blvd,Las Vegas,NV,89107,702 401 4882,
Janitorial Service,Office Cleaning Junk Removal & Hauling,Accurate Building Maintenance,4435 W. Sunset Rd.,Las Vegas,NV,89118,702 220 8180,
Janitorial Service,Office Cleaning,Las Vegas Shines Janitorial,9661 Swaying Trees Dr,Las Vegas,NV,89147,702 252 3560,
Janitorial Service,Office Cleaning,Green Clean Commercial Cleaning Service,6625 S Valley View Blvd
Ste 228,Las Vegas,NV,89118,702 522 1898,admin@greencleancs.com
Janitorial Service,Office Cleaning,Las Vegas Cleaning Company,840 S Rancho Dr
Ste 4-425,Las Vegas,NV,89106,702 723 7816,
Janitorial Service,Home Cleaning Carpet Cleaning, Office Cleaning,Busy B Groundskeeper & Floor Care,1700 Western Ave
Ste E,Las Vegas,NV,89102,702 330 1300,
Janitorial Service,Home Cleaning Office Cleaning, Carpet Cleaning ,Tonys Cleaning Services,3050 S Nellis Blvd,Las Vegas,NV,89121,702 557 7053,
Janitorial Service,Office Cleaning Carpet Cleaning ,Qwest Clean,6130 W Flamingo Rd
Ste 301,Las Vegas,NV,89103,702 330 9359,
Janitorial Service,Office Cleaning Window Washing ,Endless Commercial Cleaning,,,,,702 289 7318,endlesscommercialcleaning@gmail.com
Janitorial Service,Office Cleaning ,Bright Cleaning Service,7500 W Lake Mead Blvd
Ste 9,Las Vegas,NV,89128,702 242 5888,robert@brightcleaningservicelv.com
Janitorial Service,Office Cleaning Carpet Cleaning,Coverall Las Vegas,2320 Paseo del Prado
Suite B107,Las Vegas,NV,89102,702 508 9773,
Janitorial Service,Office Cleaning,Execuclean,6440 Sky Pointe Dr
Ste 140-336,Las Vegas,NV,89131,702 595 8079,execucleanlv@aol.com
Janitorial Service,Office Cleaning,Las Vegas Cleaning Company,840 S Rancho Dr
Ste 4-425,Las Vegas,NV,89106,702 723 7816,
Janitorial Service,Carpet Cleaning Home Cleaning, Office Cleaning ,Carpet Sharks,,,,,702 616 9347,
Janitorial Service,Office Cleaning,All Day & Night Professional Janitorial Services,,Las Vegas,NV,89101,702 431 0800,
Janitorial Service,Office Cleaning Carpet Cleaning, Flooring ,First Choice Carpet and Tile Care,,,,,702 565 4983,service@firstchoicecarpetlv.com
Janitorial Service,Home Cleaning Pressure Washers, Window Washing,Quality Cleaning Services,4141 Welter Ave,Las Vegas,NV,89104,702 292 9505,
Janitorial Service,Home Cleaning Office Cleaning, Carpet Cleaning,Happy Cleaning & Janitorial Services,,Las Vegas,NV,89108,702 860 9368,
Janitorial Service,Home Cleaning Office Cleaning ,AM Cleaning and Janitorial,7841 Silver Plateau Ave,Las Vegas,NV,89128,702 769 4539,
Janitorial Service,Office Cleaning Home Cleaning,On Point Cleaning Service,,,,,702 448 1220,am.cleaning.janitorial@gmail.com
Janitorial Service,Home Cleaning Carpet Cleaning, Office Cleaning,C & C Janitorial,7471 Aurora Glow St,Las Vegas,NV,89139,702 493 5704,
Janitorial Service,Office Cleaning Home Cleaning, Carpet Cleaning,Kingdom Janitorial Service,1501 Pine Leaf Dr,Las Vegas,NV,89144,702 252 4480,
Janitorial Service,Office Cleaning Home Cleaning, Window Washing,Las Vegas Janitorial Services,1990 Village Center Cir,Las Vegas,NV,89134,702 741 5415,
Janitorial Service,Office Cleaning ,Top Cat Cleaning Service,812 E Sahara Ave
Ste 4,Las Vegas,NV,89104,702 367 6412,
Janitorial Service,Office Cleaning ,A-1 Janitorial Services,,Las Vegas,NV,89101,702 658 1900,
Janitorial Service,Office Cleaning Carpet Cleaning,Granger Janitorial,1811 Pineapple Tree Ct,Las Vegas,NV,89142,702 349 6399,
Janitorial Service,Office Cleaning Carpet Cleaning, Home Cleaning,Five Star Janitorial Services,2101 Sandy Ln,Las Vegas,NV,89115,702 245 9327,
Janitorial Service,J2 Janitorial of Henderson,Office Cleaning,8170 South Eastern Ave,Las Vegas,NV,89123,702 880 7890,mail@j2clean.com
Janitorial Service,Home Cleaning,Maidz2Clean,3620 N. Rancho Dr,Las Vegas,NV,89130,702 798 0858,
Janitorial Service,Carpet Cleaning,Vegas Carpet Cleaning Pros,3191 La Barca Ln,Las Vegas,NV,89122,702 430 6779,
Janitorial Service,Contractors Home Cleaning, Department Stores,A-1 Chemical  Winzer Corp,4755 Procyon St,Las Vegas,NV,89103,702 385 7627,
Janitorial Service,Home Cleaning,Apple Janitorial Services,,Las Vegas,NV,89108,702 500 0595,
Janitorial Service,Home Cleaning,Lagunas House Cleaning & Janitorial,7708 Meadow Robin Ave,Las Vegas,Â NVÂ ,89131,702 636 0943,
Janitorial Service,Home CleaningÂ Office Cleaning,Adair Cleaning Service,,,,,702 510 0542,
Janitorial Service,Home CleaningÂ ,Keep It Clean Cleaning Services and Janitorial,,Las Vegas,Â NVÂ ,89128,866 974 9517,
Janitorial Service,Office CleaningÂ ,Roadrunner Cleaning Service,,North Las Vegas,Â NVÂ ,89030,702 642 4403,ginnie@roadrunnercleaning.net
Janitorial Service,Carpet Cleaning,L V Carpet Care & Janitorial,,Las Vegas,Â NVÂ ,89101,702 456 1851,mike@lvcarpetcare.com
Janitorial Service,Carpet CleaningÂ Tiling,Sunstone Restoration,1072 Astounding Hills Dr,Henderson,Â NVÂ ,89052,702 406 6918,affiliates@bluehost.com
Landscaping ,,,,,,,,
Landscaping ,Landscaping ,Ultimate Lawn Maintenance,,,,,702 303 6898,
Landscaping ,Landscaping ,Domestic Landscape,6509 Echo Crest Ave,Las Vegas,NV,89130,702 301 3967,
Landscaping ,Landscaping ,Z Best Turf,5445 West Reno Ave,Las Vegas,NV,89103,702 951 9629,
Landscaping ,Landscaping ,Mauri Landscapes,8355 Rancho Destino Rd,Las Vegas,Â NVÂ ,89123,702 837 5757,maurilandscapes@yahoo.com
Landscaping ,Landscaping ,Affordable Tree Service,1955 Mimosa Cir,Las Vegas,Â NVÂ ,89123,702 837 5000,
Landscaping ,Landscaping ,Showready Landscape,,,,,702 807 9788,
Landscaping ,Landscaping ,Showready Landscape,,,,,702 807 9788,info@showreadylandscape.com
Landscaping ,Landscaping ,Vegas Valley Lawn Care,11700 W Charleston BlvdSte 170,Las Vegas,Â NVÂ ,89135,702 283 3413,
Landscaping ,Landscaping ,Sunshine Landscaping,6650 W Warm Springs RdSte 1064,Las Vegas,Â NVÂ ,89118,702 506 3336,
Landscaping ,Landscaping ,Sunny Landscaping,4616 W Sahara,Las Vegas,NV,89102,702 445 8948,
Landscaping ,Landscaping ,Four Seasons Landscaping & Tree ,,,,,702 255 0898,info@4seasonslandscapinglv.com
Landscaping ,Landscaping ,J&J Landscape,8430 W Lake Mead BlvdSte 100,Las Vegas,Â NVÂ ,89128,702 240 3299,jj@j-jlandscape.com
Landscaping ,Landscaping ,New Vision Landscaping By Gabriel,4330 W Desert Inn Rd,Las Vegas,NV,89102,702 518 3840,nvlbygabriel@gmail.com
Landscaping ,Landscaping ,Safari Landscaping,,,,,,mike@safarilandscapinginc.com
Landscaping ,Landscaping ,VIP Landscaping And Lawn Care,6955 N Durango Dr,Las Vegas,NV,89149,702 423 1944,info@viplandscapingandlawncare.com
Landscaping ,Landscaping ,2-15 Landscaping,,,,,702 443 1689,vegasvalleylawnmaints@gmail.com
Landscaping ,Landscaping ,Distinctive Exteriors,6625 S Valley View Blvd,Las Vegas,Â NVÂ ,89118,702 385 4555,info@vegasexteriors.com
Landscaping ,Landscaping ,Addison Landscapes,5470 S Cameron,Las Vegas,Â NVÂ ,89118,702 233 8603,info@addisonlandscapes.com
Landscaping ,Landscaping ,Taylormade Landscapes,4046 Ponderosa Way,Las Vegas,NV,89118,702 233 2379,info@taylormadelandscapes.com
Landscaping ,Landscaping ,Twisted Trees,,             ,,,702 672 6338,
Landscaping ,Landscaping ,Poolscapes,9340 S Eastern Ave,Las Vegas,Â NVÂ ,89123,702 407 8989,ivan@poolscapes.com
Landscaping ,Landscaping ,Future Yards of Las Vegas,7322 S Rainbow Blvd,Las Vegas,NV,89119,702 539 6638,
Landscaping ,Landscaping ,Jeffrey Lee Landscaping,,,,,702 896 3756,
Landscaping ,Landscaping ,PD Landscaping,10300 W Charleston Blvd,Las Vegas,NV,89135,702 360 0490,
Landscaping ,Landscaping ,GroGreen LawnCare,8316 Cove Landing Ave,Las Vegas,NV,89145,702 477 9701,
Landscaping ,Landscaping ,High Desert Landscape & Design,8820 W Lone Mountain Rd,Las Vegas,NV,89129,702 656 5758,
Landscaping ,Landscaping ,Affordable Services,1027 S Rainbow,Las Vegas,NV,89145,702 239 2676,
Landscaping ,Landscaping ,2 White Guys,1265 E Eldarado Ln,Las Vegas,NV,89123,702 544 2355,
Landscaping ,Landscaping ,Modern Landscape LLC,7733 Silver Mallard Ave,Las Vegas,NV,89131,702 467 5645,tom@modernlandscapelasvegas.com
Landscaping ,Landscaping ,Eclipse Landscape Services,3670 N Rancho Dr,Las Vegas,NV,89130,702 431 8733,
Landscaping ,Landscaping ,Select Landscape Services,,,,,702 343 8783,selectlandscape@gmail.com
Landscaping ,Nurseries & Gardening Landscaping, Tree Services,Moon Valleys Plant World Nursery,5311 W Charleston Blvd,Las Vegas,NV,89146,702 878 9485,
Landscaping ,Landscaping Gardeners, Landscape Architects,Sunscape Services,,Las Vegas,NV,89146,702 396 9863,Lawns@SunScapeServices.com
Landscaping ,Landscaping Lighting Fixtures & Equipment,Twilight Designs,,,,,702 907 5444,dbilik@landscapelighting.vegas
Landscaping ,Landscaping ,Dream Lawns,,,,,702 641 5296,LVDreamLawns@aol.com
Landscaping ,Landscaping ,Dembois Landscape,,,,,888 297 3295,
Landscaping ,Landscaping,Living Water Lawn & Garden,6955 N Durango Dr,Las Vegas,Â NVÂ ,89149,702 655 5593,
Landscaping ,Landscaping Gardeners,Pineapple Lawn Service,1036 Howard Dr,Las Vegas,NV,89104,702 569 3499,
Landscaping ,Landscaping Tree Services,A Able Tree Service,6190 W Oquendo Rd,Las Vegas,NV,89118,,
Landscaping ,Landscaping,Mac Landscaping,1623 East Ln,Las Vegas,NV,89108,702 221 8049,mike@maclandscape.com
Landscaping ,Landscaping ,All American Landscape,4065 W Maulding Ave,Las Vegas,NV,89139,702 435 0025,allamericanlandscapelv@gmail.com
Landscaping ,Landscaping Tree Services,First Choice Tree Service,2165 Pama Ln,Las Vegas,NV,89119,702 564 1998,
Landscaping ,Landscaping Irrigation, Gardeners ,Quick Pickk,,,,,702 292 8563,MattPierce@QuickPickk.com
Landscaping ,Landscaping Tree Services,Schilling Horticulture Group Inc,,,,,702 452 5272,info@schillinghorticulture.com
Landscaping ,Gardeners Landscaping,Just Trimming & Lawn Care,8871 W. Flamingo Rd,Las Vegas,NV,89147,702 771 1005,
Landscaping ,Landscaping Contractors ,Synthetic lawns of Las Vegas,1925 Western Ave,Las Vegas,NV,89102,702 278 2220,lvsyntheticlawns@yahoo.com
Landscaping ,Landscaping Tree Services, Landscape Architects,Desert Springs Landscaping,8130 S Valley View Blvd,Las Vegas,NV,89139,702 436 8080,Rob@desertspringslandscapingllc.com
Landscaping ,Contractors Landscaping, MasonryConcrete,Paradise Builders,5385 Cameron St,Las Vegas,NV,89118,702 242 0271,
Landscaping ,Landscaping ,Buds Affordable Landscaping,5511 Night Swim Ln,Las Vegas,NV,89113,702 581 8690,
Landscaping ,Landscaping ,Moon-Sun Landscapes,6430 McGill Ave,Las Vegas,NV,89122,702 464 6780,Info@Moon-SunLandscapes.com
Landscaping ,Contractors Pool & Hot Tub Service, Landscaping,California Pools - Las Vegas,,,,,800 282 7665,
Landscaping ,Landscaping Landscape Architects,Leisure Lawn Artificial Grass,6780 W Gary Ave,Las Vegas,NV,89139,702 372 5296,info@leisurelawnlv.com
Landscaping ,Landscaping,Matinata Landscape,,,,,702 270 6289,raul@matiscape.com
Landscaping ,Landscaping,Jaramillo Landscape & Maintenance Company,9275 S Jones Blvd,Las Vegas,NV,89139,702 251 0011,
Landscaping ,Landscaping Gardeners, Tree Services ,LandTeck,2831 St Rose Pwy,Henderson,NV,89052,702 491 6607,LandTeckInc@gmail.com
Landscaping ,Landscaping Landscape Architects,Green Guru Landscaping,3153 Pawtucket ln,Las Vegas,NV,89141,702 949 2988,GreenGuruLandscaping@gmail.com
Landscaping ,Landscaping Tree Services ,3 Brothers Tree Service,Las Vegas NV 89014,,,,702 335 3671,augustinag45@yahoo.com
Landscaping ,Landscaping,Frontier Landscaping Inc.,3111 S Valley View Blvd,Las Vegas,NV,89102,702 341 0205,
Landscaping ,Tree Services Landscaping, Gardeners,NLS Grounds Management LLC,3975 W Dewey Dr,Las Vegas,NV,89118,702 259 6408,nlsgrounds@gmail.com
Landscaping ,Tree Services Landscaping, Irrigation ,Anthem Landscape & Design LLC,,,,,702 434 1999,peter@anthemlandscape.com
Landscaping ,Landscaping ,Superb Landscape and Maintenance,2017 Pinion Spring,Henderson,NV,89074,702 845 4199,
Landscaping ,Landscaping,McDm Landscape-Maintenance,,,,,702 388 0834,
Landscaping ,Landscaping ,The Johnson Company,8429 Wild Diamond Ave,Las Vegas,NV,89143,702 742 3992,
Landscaping ,Landscaping Contractors ,Green Planet Landscaping,7770 Duneville St,Las Vegas,NV,89118,702 614 8866,
Landscaping ,Contractors Landscaping,Proficient Patios & Backyard Designs,3310 S Valley View Blvd,Las Vegas,NV,89102,702 254 6179,nena@proficientpatios.com
Landscaping ,Landscaping Handyman ,RYCLV Services,,,,,702 850 4978,
Landscaping ,Landscaping ,LV Superior Lawn Care,1912 Saylor Wy,Las Vegas,NV,89108,702 858 2153,
Landscaping ,Landscaping,Affordable Lawn Maintenance,,Las Vegas,NV,89140,702 871 6912,
Landscaping ,Tree Services Landscaping, Gardeners,Gonzalez Landscaping,4440 Verdugo St,Las Vegas,NV,89147,702 773 5561,gonzaleslandscaping702@gmail.com
Landscaping ,Landscaping,Pueblas Landscaping & Lawn Service,3316 N Decatur Blvd,Las Vegas,NV,89130,702 334 6260,
Landscaping ,Pressure Washers Landscaping, MasonryConcrete ,Paver Sealing Vegas,2375 E Tropicana Ave,Las Vegas,NV,89119,702 701 0388,info@paversealingvegas.com
Landscaping ,Landscaping,Aztec Landscaping & Lawn Maintenance,1527 W Bonanza Rd,Las Vegas,NV,89106,702 646 3052,
Landscaping ,Landscaping ,Keepn It Green Landscaping,631 N Stephanie,Henderson,NV,89014,702 979 3357,
Landscaping ,Landscaping ,Complete Pond Care,,Las Vegas,NV,89178,702 365 6555,
Landscaping ,Landscaping,JTB Landscapers,,North Las Vegas,NV,89032,702 425 5581,
Landscaping ,Landscaping,Artificial Grass Liquidators,3686 S Highland Dr,Las Vegas,NV,89103,702 388 8891,
Landscaping ,Landscaping Home Cleaning ,Mountains Edge Maids,4550 W Oakey Blvd,Las Vegas,NV,89102,702 249 8329,admin@mountainsedgemaids.com
Landscaping ,Landscaping ,Cutting Edge Land Services,5525 Gipsy Ave,Las Vegas,NV,89107,702 418 5499,
Landscaping ,Landscaping ,Landmarc Landscapes,1731 N Rancho Drive,Las Vegas,NV,89106,702 631 3366,
Landscaping ,Landscaping,Lawn Demolition by Landmarc,1731 N Rancho Dr,Las Vegas,NV,89106,702 631 3366,
Landscaping ,Landscaping ,American Pride Landscape Llc,2206 Rawhide St,Las Vegas,NV,89119,702 866 0062,aplscape@yahoo.com
Landscaping ,Landscaping,WaterWise Landesign,Las Vegas NV 89117,,,,702 592 9459,
Landscaping ,Landscaping,Perennial Land Care,3085 S Valley View Blvd,Las Vegas,NV,89102,702 258 1056,
Landscaping ,Tovar Landscape & Design,2600 Stratford Ave,Las Vegas NV 89121,,,,702 440 4738,
Landscaping ,Landscaping,Honzo Landscape Company,4425 E Sahara Ave,Las Vegas,NV,89104,702 843 9730,
Landscaping ,Landscaping Gardeners ,R&R General Lawn Care,4213 Sawyer Ave,Las Vegas,NV,89108,702 843 9730,rrgenerallawn@rrgenerallawn.com
Landscaping ,Landscaping ,American Sprinkler Repair and Landscape,7121 W Craig Rd Suite,Las Vegas,NV,89129,702 686 5554,americansl@aol.com
Landscaping ,Landscaping Landscape Architects ,TTC Enterprises,,,,,702 348 4570,CaitlinNTorres@hotmail.com
Landscaping ,Home Cleaning Window Washing, Landscaping,Clean Windows & More By Nate,6800 E Lake Mead,Las Vegas,NV,89156,702 265 7302,nathan@cleanwindowsbynate.com
Landscaping ,Gardeners Landscaping ,Kens Lawn Service,5155 W Tropicana Ave,Las Vegas,NV,89103,702 252 0621,ken@kenslawnlv.com
Landscaping ,Landscaping Landscape Architects ,Results Services,,,,,702 236 9223,eduardo.mirage%40gmail.com
Landscaping ,Landscaping ,Premier Landscape Maintenance,Las Vegas NV 89107,,,,702 485 4060,premier_landscape_maintenance@gardener.com
Landscaping ,Landscaping Irrigation, Gardeners ,C&J Landscapers,,,,,702 445 4983,modernlandscapers@yahoo.com
Landscaping ,Landscaping ,Affordable Landscaping,5016 Schuster St,Las Vegas,NV,89118,702 348 8399,info@ontimevegas.com
Landscaping ,Landscaping Hot Tub & Pool ,Faithful Pool Services,4012 S Rainbow Blvd Suite K-599,Las Vegas,NV,89103,702 929 5303,faithfulpoolstj@gmail.com
Landscaping ,Tree Services Landscaping,Pro Tree,,,,,702 798 3997,info@protreelv.com
Landscaping ,Landscaping ,Ultimate Landscaping,,Las Vegas,NV,89101,702 361 5596,cs@ultimate.lvcoxmail.com
Landscaping ,Landscaping,Desert Greenscapes,,,,,702 529 0377, info@lvturf.com
Locksmith,,,,,,,,
Locksmith,Keys & Locksmiths,Master Lock & Security,,,,,702 637 4477,
Locksmith,Keys & Locksmiths,Silver Eagle Locksmith,1604 S Commerce St,Las Vegas,NV,89113,702 539 9581,
Locksmith,Keys & Locksmiths,911 Safe Locksmith,8049 W Hacienda Ave,Las Vegas,NV,89113,702 752 0758,702locksmith@gmail.com
Locksmith,Keys & Locksmiths,Silverstate Locksmith,800 N Rainbow Blvd,Las Vegas,NV,89107,702 445 3758,
Locksmith,Keys & Locksmiths,King Key Locksmith,,,,,702 848 4235,
Locksmith,Keys & Locksmiths,247 Supertech Locksmith Services,,,,,702 997 9934,
Locksmith,Keys & Locksmiths,A&B Security Group,3201 W Sahara Ave,Las Vegas,NV,89102,702 227 5625,
Locksmith,Keys & Locksmiths,ABC Locksmiths,3981 E Sunset Rd,Las Vegas,NV,89120,702 329 4803,abclocksmithvegas@lazertechlocks.com
Locksmith,Keys & Locksmiths,Pop-A-Lock of Las Vegas NV,6280 S Valley View,Las Vegas,NV,89118,702 454 5625,info@popalocklv.com
Locksmith,Keys & Locksmiths,Anytime Locksmith,1801 E Tropicana,Las Vegas,NV,89119,702 217 7477,
Locksmith,Keys & Locksmiths,24-7 JB Services,,,,,702 800 9973,
Locksmith,Keys & Locksmiths,All City Lock and Key,3635 S Fort Apache Rd,Las Vegas,NV,89147,702 804 8186,Aroundtheclocklocksmith@cox.net
Locksmith,Keys & Locksmiths,American Lock & Key,837 S Rainbow Blvd,Las Vegas,NV,89145,702 434 5397,
Locksmith,Keys & Locksmiths,Locksmith Solutions,7345 S Durango Dr,,,,702 601 4678,
Locksmith,Keys & Locksmiths,Stanley Security Solutions,5470 W Sahara Ave,Las Vegas,NV,89146,855 365 2407,
Locksmith,Keys & Locksmiths,Lockmaster Security Services,1435 N Jones Blvd,Las Vegas,NV,89108,702 647 5625,
Locksmith,Keys & Locksmiths,Keyport Store & HQ,3155 W Tompkins Ave,Las Vegas,NV,89103,855 539 7678,
Locksmith,Keys & Locksmiths,Las Vegas Key Shop,3635 S Fort Apache Rd,Las Vegas,NV,89147,702 804 1002,
Locksmith,Keys & Locksmiths,AHA Locksmith Security, Automation,,,,,702 944 9542,mn_office@affordable-homeautomation.com
Locksmith,Keys & Locksmiths,Las Vegas Lock and Key,4535 W Sahara Ave,Las Vegas,NV,89102,702 338 9744,
Locksmith,Keys & Locksmiths,Southern Nevada Locksmith LLC,,,NV,,702 595 8852,ml@southernnevadalocksmith.com
Locksmith,Keys & Locksmiths,MX Locksmith,2625 E Craig Rd,Las Vegas,,,702 369 6736,
Locksmith,Keys & Locksmiths,Locksmith Las Vegas,1340 E Flamingo Rd,Las Vegas,NV,89119,702 879 2471,contact@locksmiths-las-vegas.org
Locksmith,Keys & Locksmiths,Top Master Locksmith,5115 Dean Martin Dr,Las Vegas,NV,89118,725 696 8861,topmasterlocksmith@yahoo.com
Locksmith,Keys & Locksmiths,Las Vegas Locksmith,611 Las Vegas Blvd N,Las Vegas,NV,89101,702 874 7810,
Locksmith,Keys & Locksmiths,Franks Safe & Lock Company,1201 S Casino Center Boulevard,Las Vegas,NV,89104,702 384 1260,
Locksmith,Keys & Locksmiths,Mr. Rekey Locksmith - Las Vegas,,,,,702 222 1201,orders@rekey.com
Locksmith,Keys & Locksmiths,Intermountain Lock & Security Supply,3910 Graphic Center Dr,Las Vegas,NV,89118,702 939 5625,
Locksmith,Keys & Locksmiths,Lees Locksmith Las Vegas,3111 S Valley View Blvd,Las Vegas,NV,89102,702 720 5561,
Locksmith,Keys & Locksmiths,Ramirez Locksmith,,Las Vegas,,,702 664 4769,
Locksmith,Keys & Locksmiths,Locksmith 4 Less,800 E Charleston Blvd,Las Vegas,NV,89104,702 415 4501,
Locksmith,Keys & Locksmiths,Liberty Lock & Key,4225 Fidus Dr,Las Vegas,NV,89103,702 605 6799,
Locksmith,Keys & Locksmiths,ASAP Locksmith,1333 N Buffalo Dr,Las Vegas,NV,89128,702 475 4043,
Locksmith,Keys & Locksmiths,Alarmco,2007 Las Vegas Blvd S,Las Vegas,NV,89104,702 382 5000,
Locksmith,Keys & Locksmiths,Green Valley Lock & Safe,80 N Pecos Rd,Las Vegas,,,702 897 0800,service@gvlas.com
Locksmith,Keys & Locksmiths,A & B Security Group,3201 W Sahara Ave,Las Vegas,NV,89119,702 362 5625,
Locksmith,Keys & Locksmiths,Fox Locksmith,4021 W Sahara Ave,Las Vegas,NV,89102,702 222 0533,
Locksmith,Keys & Locksmiths,Any and All Lock and Key,,Las Vegas,NV,89110,702 643 4555,aalklv@gmail.com
Locksmith,Keys & Locksmiths,0 007 Lock1 Service,1758 E Charleston Blvd,Las Vegas,NV,89104,702 560 6005,
Locksmith,Keys & Locksmiths,Liberty Lock & Key,4225 Fidus Dr,Las Vegas,NV,89103,702 605 6799,
Locksmith,Keys & Locksmiths,0 007 Lock1 Service,560 N Nellis Blvd,Las Vegas,NV,89110,702 560 6010,
Locksmith,Keys & Locksmiths,M & M Lock & Key Shop,4255 Spring Mountain Rd,Las Vegas,NV,89102,702 781 8020,
Locksmith,Keys & Locksmiths,Vegas Valley Locking Systems,6243 Dean Martin Dr,Las Vegas,NV,89118,702 614 3939,sales@vvls.net
Locksmith,Keys & Locksmiths,DiscountÂ ,1810 E Sahara Ave,Las Vegas,NV,89104,702 583 7727,
Locksmith,Keys & Locksmiths,Payless Locksmith,,,,,702 786 4616,goorbigh3@gmail.com
Locksmith,Keys & Locksmiths,0 007 Lock1 Service,6441 N Durango Dr,Las Vegas,NV,89149,702 560 5188,
Locksmith,Keys & Locksmiths,Las Vegas Locksmith,307 Bonanza Way,Las Vegas,NV,89101,866 807 5112,
Locksmith,Keys & Locksmiths,A1 Aero Locksmith,10590 Southern Highland Pkwy,Las Vegas,NV,89141,702 410 6745,
Locksmith,Keys & Locksmiths,Toms Locksmith,4075 S Durango Dr,Las Vegas,NV,89147,702 723 4079,
Locksmith,Keys & Locksmiths,Premier Door & Trim,530 E Sunset Rd,Las Vegas,,,702 897 9448,INFO@RYSTIN.COM
Locksmith,Keys & Locksmiths,Locksmith - Henderson,303 S Water St,Las Vegas,,,702 983 8060,contact@locksmith-henderson.net
Locksmith,Keys & Locksmiths,Las Vegas NV Locksmiths,,,,,702 749 0771,service@lasvegasnvlocksmiths.com
Locksmith,Keys & Locksmiths,Team-Locksmith,4550 W Oakey Blvd,Las Vegas,NV,89102,702 522 1797,service@teamlocksmith.com
Locksmith,Keys & Locksmiths,JB Lock,,Las Vegas,NV,,702 204 3041,jason@jblocklv.com
Locksmith,Security Systems Keys & Locksmiths,Alarmco,2007 Las Vegas Blvd S,Las Vegas,NV,89104,702 382 5000,disconnects@alarmco.com
Locksmith,Keys & Locksmiths Security Systems ,Genes Lock and Security,69 E Basic Rd,Henderson,NV,89015,702 564 5397,Steve@egisnv.com
Locksmith,Keys & Locksmiths,Richard and Son Locksmith Las Vegas,720 N 13th St,Las Vegas,NV,89101,702 789 6552,richardandsonlocksmith@gmail.com
Locksmith,Keys & Locksmiths,Star Locksmith - Las Vegas,3180 S Durango Dr,Las Vegas,NV,89117,702 960 4678,service@selocksmithbrooklyn.com
Locksmith,Keys & Locksmiths,ASAP Locksmiths,,Las Vegas,NV,89147,702 996 6044,service@asaplocksmithlasvegas.com
Locksmith,Keys & Locksmiths,United Lock and Security,8170 W Sahara Ave Ste 102,Las Vegas,NV,89117,702 258 5625,service@unitedlockandsecurity.com
Locksmith,Keys & Locksmiths,Best Rate Locksmith Las Vegas,,,,,702 396 3278,lasvegaslocksmithnv@gmail.com
Locksmith,Keys & Locksmiths,Locksmith Las Vegas,570 E St Louis Ave,Las Vegas,NV,89104,800 992 5478,info@locksmith-in-las-vegas.com
Locksmith,Keys & Locksmiths,S&S Locksmith,,Las Vegas,NV,89131,702 482 7961,lasvegaslocksmithnv@gmail.com
Movers,,,,,,,,
Movers,Movers,Christopher Moving,3750 W Tompkins Ave,Las Vegas,NV,89103,702 810 2922,
Movers,Movers ,Umbrella Movers,3111 S Valley View Blvd,Las Vegas,NV,89102,702 533 2853,umbrellamovers@yahoo.com
Movers,Movers ,Sunshine Movers,8100 W Charleston,Las Vegas,NV,89117,702 750 1360,
Movers,Movers ,Moving Buddies,,Las Vegas,,,702 608 2120,moovingbuddies@gmail.com
Movers,Movers ,Class A Moving,,Las Vegas,,,702 557 7531,
Movers,Movers ,A-Team Moving,,Las Vegas,,,702 637 4425,
Movers,Movers Shipping Centers,Box Brothers,6384 W Sahara Ave,Las Vegas,NV,89146,702 227 6384,
Movers,Movers ,Less Stress Movers,,Las Vegas,,,702 355 0797,
Movers,Movers ,Move 4 Less,7632 W Post Rd,Las Vegas,NV,89113,702 889 6683,customerservice@move4lessnevada.com
Movers,Movers ,Warrens Homework,3280 W Hacienda Ave,Las Vegas,NV,89118,702 876 9610,info@warrenshomework.com
Movers,Movers ,Moving By Keystone,4348 E Alexander Rd,Las Vegas,NV,89115,702 657 0742,
Movers,Movers Self Storage ,Red Carpet Moving Company,1650 Helm Dr,Las Vegas,NV,89119,725 222 4329,
Movers,Movers ,Big Boys Moving,,Las Vegas,,,702 278 0777,
Movers,Movers ,Move Right Movers,7151 S Durango Dr,Las Vegas,NV,89103,702 802 1165,moverightnv@40gmail.com
Movers,Movers ,Quality Moving,6360 S Pecos Rd,Las Vegas,NV,89123,702 882 9031,
Movers,Movers ,Family Movers Express,6655 W Sahara Ave,Las Vegas,NV,89146,702 678 6683,moving4seniors@gmail.com
Movers,Movers ,Bellhops,4504 S Maryland street,Las Vegas,NV,89154,702 904 9685,
Movers,Movers ,Five Star Moving,,Las Vegas,,,702 936 0152,
Movers,Movers ,Jeffs Personal Touch Moving ,,Las Vegas,,,702 405 6367,
Movers,Movers ,Seven Brothers Moving,4894 Lone Mountain Rd,Las Vegas,NV,89130,702 825 1798,
Movers,Self Storage Movers, Truck Rental,All Storage- Canyon Gate,8055 W Sahara Avenue,Las Vegas,NV,89117,702 367 7792,
Movers,Movers ,Xtreme Movers,404 Estella Ave,Las Vegas,NV,89107,702 825 2104,
Movers,Vehicle Shipping Movers,Flat Price Moving and Auto Shipping,4618 W Sahara Ave,Las Vegas,NV,89102,888 647 0024,
Movers,Movers ,Denali Moving,201 Commerce Park Ct,Las Vegas,NV,89032,702 368 1070,
Movers,Movers ,Las Vegas Movers,5841 E Charleston Blvd,Las Vegas,NV,89142,702 538 6018,
Movers,Movers Home Organization, Apartments,Load 4 Less,2500 N Rainbow Blvd,Las Vegas,NV,89108,702 439 8566,
Movers,Couriers & Delivery Services Movers, Shipping Centers,Debarry Packaging Inc.,3894 Spring Mountain Road,Las Vegas,NV,89102,702 876 1659,
Movers,Shipping Centers Movers,Box Brothers,4255 Dean Martin Dr,Las Vegas,NV,89103,702 509 9630,
Movers,Shipping Centers Movers,Box Brothers,4255 Dean Martin Dr,Las Vegas,,,702 509 9630,
Movers,Movers ,Just Breathe Movers,,Las Vegas,,,702 727 7768,
Movers,Movers ,Starving Students Movers,6220 Kimberly Ave,Las Vegas,NV,89122,702 433 5291,
Movers,Movers ,Starving Students Movers,5360 S Cameron St,Las Vegas,NV,89118,888 931 6683,
Movers,Movers ,Discount Movers,5440 Cameron St,Las Vegas,NV,89118,702 895 9555,
Movers,Movers ,At Your Service Moving,,Las Vegas,,,702 749 8412,
Movers,Movers Vehicle Shipping, Self Storage,Cross Country Movers,4021 W Sahara Ave,Las Vegas,NV,89102,702 560 6668,
Movers,Movers ,Smooth Move,,Las Vegas,,,702 824 7581,
Movers,Movers ,V & L Services,,Las Vegas,,,702 338 0487,
Movers,Movers ,U-Pack Moving,4501 North Lamb,Las Vegas,NV,89115,855 240 3502,moving@upack.com
Movers,Movers ,Move On Moving,2620 Regatta Dr,Las Vegas,NV,89128,855 702 6683,info@moveonmoving.com
Movers,Movers ,Elite Moving & Storage Inc,3651 Lindell Rd,Las Vegas,NV,89103,702 367 9191,customerservice@theelitemovers.com
Movers,Movers ,Two Men and a Truck,3510 Coleman St.,Las Vegas,NV,89032,702 545 6356,info0244@twomen.com
Movers, Movers Pool & Billiards ,On Cue Billiards,,Las Vegas,NV,89119,702 468 0888,oncuebilliards@cox.net
Movers, Movers Pool & Billiards ,Starving Students Movers,6220 Kimberly Ave,Las Vegas,NV,89122,888 931 6683,
Movers, Movers Pool & Billiards ,Prestige Easy Moves,,Las Vegas,,,702 234 4492,
Movers,Self Storage Movers ,Store N Lock,3350 Sirius Avenue,Las Vegas,NV,89102,702 876 3335,
Movers, Movers Pool & Billiards ,Puliz Moving & Storage Co.,3840 E. Craig Rd,Las Vegas,NV,89030,702 644 6160,info@pulizmoving.com
Movers,Self Storage Movers,U-Haul Moving & Storage,1650 Crestdale Ln,Las Vegas,NV,89144,702 254 4568,
Movers,Self Storage Movers, Truck Rental,U-Haul Moving & Trailer Hitch Center of Las Vegas,1900 S Decatur Blvd,Las Vegas,NV,89102,702 251 9250,
Movers, Movers Pool & Billiards ,Capitol North American,1780 S Mojave Rd,Las Vegas,NV,89104,702 832 1951,
Movers, Movers Pool & Billiards ,Sin City Movers,7340 W Russell Rd,Las Vegas,NV,89113,702 502 6479,
Movers, Movers Pool & Billiards ,Smitty Movers,,Las Vegas,,,702 878 4097,michael@smittymovers.com
Movers, Movers Pool & Billiards ,Avl Enterprise LLC,2620 S Maryland Pkwy 14117,Las Vegas,NV,89109,702 866 2313,avlenterprise@yahoo.com
Movers,Movers Couriers & Delivery Services,1 Man 2 Hands,5795 W Flamingo Rd,Las Vegas,NV,89103,877 939 9675,booking@yourfavoritehelper.com
Movers,Movers ,Gorilla Rose,5153 silverheart,Las Vegas,NV,89142,702 755 3416,move@gorillarose.com
Movers,Movers Shipping Centers,Sunset International Shipping,747 N Martin Luther King Blvd,Las Vegas,NV,89106,855 443 4200,info@sunsetmoving.com
Movers,Movers Home Cleaning,Workergram,7408 Via Fiorentino St,Las Vegas,NV,89131,702 904 4262,workergram@gmail.com
Movers,Movers ,Well Carry the Load Movers,,Las Vegas,,,702 831 0291,wellcarrytheload@gmail.com
Movers,Movers ,Action Packed Movers,4850 W Flamingo Rd,Las Vegas,NV,89103,702 529 3364,actionpackedmovers@gmail.com
Movers,Movers Self Storage ,1-800-PACK-RAT,3030 N Lamb Blvd,Las Vegas,,,800 722 5728,movinghelp@1800packrat.com
Movers,Movers Shipping Centers ,Triple 7 Movers,2917 Brookspark Dr,Las Vegas,NV,89030,702 685 6888,sales@triple7movers.com
Movers,Movers Junk Removal & Hauling,College Hunks Hauling Junk and Moving,3977 W Oquendo Rd,Las Vegas,NV,89118,702 829 3098,stressfreeservice@collegehunkshaulingjunk.com
Movers,Movers ,Senior Move Specialists,2349 Canfield Dr,Las Vegas,NV,89108,702 688 9449,seniormovespecialists@gmail.com
Movers,Self Storage Movers,Oasis Moving and Storage,2915 Coleman St,Las Vegas,NV,89032,800 663 8751,info@oasismoving.com
Movers,Movers Junk Removal & Hauling, Landscaping,J&c Landscaping&more,,Las Vegas,NV,,702 544 3694,j_c_landscapers@contractor.net
Movers,Shipping Centers Movers ,Las Vegas Crating & Logistics,4255 Dean Martin Dr,Las Vegas,NV,89103,702 748 4973,contact@lasvegascrating.com
Movers,Movers,Moving Brothers,3050 S Nellis,Las Vegas,NV,89121,702 782 9950,steveschulz@live.com
Movers,Movers Self Storage,Oasis Moving and Storage,7908 Riviera Beach Dr,Las Vegas,NV,89128,702 802 0855,info@oasismoving.com
Movers,Movers,Wheaton Van Lines,4500 Andrews,Las Vegas,NV,89115,702 896 6805,movingrelocationsales@gmail.com
Movers,Movers,Smitty Movers,1180 N Nellis Blvd,Las Vegas,NV,89110,702 878 4097,michael@smittymovers.com
Movers,Movers,Hawaii Express Moving Services,2945 Lincoln Rd,Las Vegas,NV,89115,702 632 3262,contact@hearth.com
Movers,Movers Shipping Centers ,Old Dominion Freight Line,4475 E Lone Mountain Rd,Las Vegas,NV,89115,702 643 7883,customer.service@odfl.com
Movers,Movers ,Sky Van Lines,4500 Andrews St,Las Vegas,NV,89081,702 751 3027,info@skyvanlines.com
Movers,Self Storage Movers,PODS,4550 Engineers Way,Las Vegas,NV,89081,877 770 7637,marketing-inquiries@pods.com
Movers,Movers Self Storage, Home & Garden,First Choice Moving,201 Commerce Park Ct,Las Vegas,NV,89032,702 368 1070,1stchoicemovinglv@gmail.com
Movers,Movers ,Puliz Moving and Storage,,Las Vegas,NV,89030,800 233 8359,info@pulizmoving.com
Movers,Movers,Big Boys Moving Labor,North Las Vegas NV 89031,Las Vegas,,,702 771 9905,bigboys808@yahoo.com
Movers,Movers,Moving Relocation Specialists Inc.,4500 Andrews St,Las Vegas,NV,89081,725 333 2783,movingrelocationsales@gmail.com
Movers,Self Storage,Storage Direct Self Storage,9890 Pollock Dr,Las Vegas,NV,89183,702 509 7355,support@storagedirect.com
Movers,Self Storage,American Mini Storage,8250 S. Maryland Pkwy.,Las Vegas,NV,89123,702 900 0407,info@usstorage.net
Movers,Self Storage,Flamingo Durango Self Storage,8525 W Flamingo Rd,Las Vegas,NV,89147,702 256 7545,flamingodurangoss@yahoo.com
Music Lessons,,,,,,,,
Music Lessons, Musical Instruments & Teachers ,Nevada Music Academy,6525 N Buffalo Dr,Las Vegas,NV,89131,702 906 2400,
Music Lessons,Musical Instruments & Teachers Musical Instrument Services,,Ensemble Arts Academy,7280 W Azure Ave,Las Vegas,NV,89130,702 388 0014,info@EnsembleArtsAcademy.com
Music Lessons,Musical Instruments & Teachers,Landero Learning Center,9620 S Las Vegas Blvd,Las Vegas,NV,89123,702 407 2787,
Music Lessons,Performing Arts Specialty Schools, Musical Instruments & Teachers,School of Rock Las Vegas West,9340 West Flamingo Road,Las Vegas,NV,89147,702 778 9382,
Music Lessons,Private Tutors Musical Instruments & Teachers ,RockStar Guitar Lessons,8 Cozy Glen Cir,Las Vegas,NV,89074,702 608 5014,
Music Lessons,Musical Instruments & Teachers,Family Music Centers,8125 W Sahara Ave,Las Vegas,NV,89117,702 360 4080,familymusiccenter@gmail.com
Music Lessons,Dance Studios Performing Arts, Dance Schools, Musical Instruments & Teachers ,Distrct Arts,8665 W Flamingo Rd,Las Vegas,NV,89147,702 489 2300,info@lvdanceandmusic.com
Music Lessons,Musical Instruments & Teachers ,Kessler & Sons Music,3047 E Charleston Blvd Ste C,Las Vegas,NV,89104,702 385 2263,music@kesslermusic.com
Music Lessons,Musical Instruments & Teachers ,Kessler & Sons Music,9550 S Eastern Ave,Las Vegas,NV,89123,702 492 7263,music@kesslermusic.com
Music Lessons,Musical Instruments & Teachers Private Tutors ,Private Piano & Guitar Lessons by John J. Giangrande,7710 Selby Ct,Las Vegas,NV,89147,702 371 7157,
Music Lessons, Musical Instruments & Teachers,Sam Ash Music Stores,2747 S Maryland Pkwy,Las Vegas,NV,89109,702 734 0007,
Music Lessons,Musical Instruments & Teachers Specialty Schools,Las Vegas Voice and Piano,1060 Calvia St,Las Vegas,NV,89138,702 348 7003,
Music Lessons,Musical Instruments & Teachers ,Goldies Studio,1551 S Commerce St,Las Vegas,NV,89102,971 235 1347,
Music Lessons,Musical Instruments & Teachers,Todays Music,8450 W Sahara Ave,Las Vegas,NV,89117,702 256 9400,
Music Lessons,Musical Instruments & Teachers ,Drum Lessons by Edan Mizrahi,Southeast,Las Vegas,NV,89123,702 538 3684,
Music Lessons,Musical Instruments & Teachers ,Violin Outlet,900 Karen Ave,Las Vegas,NV,89109,702 733 3028,INFO@VIOLINOUTLET.COM
Music Lessons,Musical Instruments & Teachers Private Tutors,Drum Lessons By Micah,Summerlin,Las Vegas,NV,,702 281 0779,
Music Lessons,Musical Instruments & Teachers,Family Music Centers,2714 N Green Valley Pkwy,Henderson,NV,89014,702 435 4080,familymusiccenter@gmail.com
Music Lessons,Musical Instruments & Teachers ,Joy of Singing Karen Jones,7046 Berkshire Pl,Las Vegas,NV,89147,702 769 3835,karenjonesjos@yahoo.com
Music Lessons,Musical Instruments & Teachers ,A Note Above the Rest,3281 N Decatur Blvd,Las Vegas,NV,89130,702 471 6683,
Music Lessons,Musical Instruments & Teachers,Music World Learning Center,2295 E Sahara Ave,Las Vegas,NV,89104,702 457 6869,
Music Lessons,Musical Instruments & Teachers,Kessler & Sons,3211 N Tenaya Way,Las Vegas,NV,89129,702 242 2263,music@kesslermusic.com
Music Lessons,Musical Instruments & Teachers,Esteban Music From the Heart at Shimmer Cabaret,3000 Paradise Rd,Las Vegas,NV,89109,800 732 7117,
Music Lessons,Performing Arts Musical Instruments & Teachers,Music With Monique,,Las Vegas,NV,89138,702 994 2340,
Music Lessons,Musical Instruments & Teachers,Brill Music Academy,8534 Del Webb Blvd,Las Vegas,NV,89134,702 848 5990,brillmusicacademy1@gmail.com
Music Lessons,Performing Arts Musical Instruments & Teachers ,Dreamweavers Professional and Performing Arts,8625 W Sahara Blvd,Las Vegas,NV,89117,702 324 6065,
Music Lessons,Musical Instruments & Teachers,Todd Rogers Piano Guitar & Voice Lessons,4342 Mammoth Creek Dr,Las Vegas,NV,89147,702 373 2525,Lessons@ToddRogers.com
Music Lessons, Private Tutors Musical Instruments & Teachers ,Piano & Guitar Lessons,4275 S Pearl St,Las Vegas,NV,89121,702 419 8953,smccone@yahoo.com
Music Lessons,Musical Instruments & Teachers Event Planning & Services, Arts & Entertainment,Music Temple,5112 W Charleston Blvd,Las Vegas,NV,89146,702 807 8663,
Music Lessons,Private Tutors Musical Instruments & Teachers ,Las Vegas Singing Lessons,Westside,Las Vegas,NV,89102,702 878 0755,info@lasvegasvocallessons.com
Music Lessons,Private Tutors Musical Instruments & Teachers,Las Vegas Piano School,4155 Flamingo Crest Dr,Las Vegas,NV,89121,702 809 7576,masha.pisarenko@gmail.com
Music Lessons,Musical Instruments & Teachers,Evolution Guitar,1698 Raindance Way,Las Vegas,NV,89169,702 788 3832,
Music Lessons,Musical Instruments & Teachers,Taylor Robinson Music Lessons,1405 Belcastro St,Las Vegas,NV,89117,702 410 8527,taylorrobinsonmusic@gmail.com
Music Lessons,Performing Arts Private Tutors, Musical Instruments & Teachers,Around the Clock Music,9800 CLV Ave,Las Vegas,NV,97267,310 666 2564,
Music Lessons,Musical Instruments & Teachers ,New York Music Academy,9179 W. Flamingo Rd,Las Vegas,NV,89147,702 838 7771,info@nymusicacademy.com
Music Lessons,Musical Instruments & Teachers ,Gina Joyce Vocal Coach,,Las Vegas,NV,89101,702 258 0239,
Music Lessons,Musical Instruments & Teachers Musicians,Mark Goodin Drum Lessons,9101 W Sahara Ave,Las Vegas,NV,89117,702 515 9839,
Music Lessons,Musical Instruments & Teachers Private Tutors,Raga Life - Guitar Lessons,8610 S Eastern Ave,Las Vegas,NV,89123,702 350 1893,
Music Lessons,Musical Instruments & Teachers Piano Stores ,Southern Nevada Music,350 N Stephanie St,Henderson,NV,89014,702 938 4646,
Music Lessons,Musical Instruments & Teachers,Las Vegas Drum Lessons,2605 S Decatur Ste 215,Las Vegas,NV,89102,702 430 2920,
Music Lessons,Musical Instruments & Teachers,David Marinelli,Spring Valley,Las Vegas,NV,89148,585 820 0661,
Music Lessons,Musical Instruments & Teachers,Taylor Robinson Music & Voice Lessons,8975 W Warm Springs Rd,Las Vegas,NV,89148,702 410 8526,taylorrobinsonmusic@gmail.com
Music Lessons,Musical Instruments & Teachers,studioBpiano,Summerlin,Las Vegas,NV,89134,310 571 8981,
Music Lessons,Musical Instruments & Teachers,Kirby Music,10525 S Eastern Ave,Las Vegas,NV,89052,702 675 7300,info@kirbymusicstudio.com
Music Lessons,Specialty Schools Musical Instruments & Teachers, Performing Arts,School of Rock Green Valley,55 S. Valle Verde Drive,Henderson,NV,89012,702 778 1400,
Music Lessons,Musical Instruments & Teachers ,Las Vegas Music Academy,Southeast,Las Vegas,NV,89123,702 301 4288,lasvegasmusicacademy@gmail.com
Music Lessons,Musical Instruments & Teachers,Brad Seagle Piano,1078 Wild Fern Ct,Las Vegas,NV,89183,702 509 3098,seagle.brad@gmail.com
Music Lessons,Musical Instruments & Teachers ,Liana Turello Voice Studio,Southeast,Las Vegas,NV,89123,702 370 7139,liana@roetterturello.net
Music Lessons,Musical Instruments & Teachers,Robert Anthony,6440 Skypointe Dr,Las Vegas,NV,89131,702 236 3212,guitar1789@aol.com
Music Lessons,Musical Instruments & Teachers ,OFF THE RAILS,,Henderson,NV,89074,702 445 1395,
Music Lessons,Performing Arts,VEGAS! The Show,3663 Las Vegas Blvd S,Las Vegas,NV,89109,866 932 1818,tickets@vegastheshow.com
Music Lessons,Performing Arts ,The Smith Center,361 Symphony Park Ave,Las Vegas,NV,89106,702 749 2012,patronservices@thesmithcenter.com
Music Lessons,Performing Arts Casinos,Blue Man Group,3900 S Las Vegas Blvd,Las Vegas,NV,89109,702 262 4000,LASVEGASGROUPS@blueman.com.
Music Lessons,Performing Arts Casinos,Zarkana by Cirque du Soleil,3730 Las Vegas Blvd S,Las Vegas,NV,89158,855 927 5262,guestservices@aria.com
Music Lessons,Performing Arts Magicians ,Armando Vera Magic Show,3663 Las Vegas Blvd,Las Vegas,NV,89109,702 421 4085,info@inspirelasvegas.com
Music Lessons,Performing Arts,The Mentalist,3663 Las Vegas Blvd,Las Vegas,NV,89109,702 260 7200,tickets@vtheaterboxoffice.com
Music Lessons,Performing Arts,McBride Magic,Westside,Las Vegas,NV,89102,702 697 7002,tobias@yourmagic.com
Music Lessons,Performing Arts,Amadeus School of Music,900 Karen Ave,Las Vegas,NV,89109,702 733 3028,info@violinoutlet.com
Music Lessons,Performing Arts VideoFilm Production,Star Arts Productions,3890 Schiff Dr,Las Vegas,NV,89103,702 221 4879,stararts@starartsproductions.com
Music Lessons,Art Schools ,Academy Of Diva Arts,,Las Vegas,NV,89134,702 900 5621,premierwest@earthlink.net
Music Lessons,Performing Arts ,Studio Ones - Henderson Dance Academy,1535 W Warm Springs,Henderson,NV,89014,702 202 9561,info@hendersondance
Music Lessons,Performing Arts,The Drum Club,330 Tin St,Henderson,NV,89015,702 469 8404,Info@drummingcircle.net
Painters,,,,,,,,
Painters,Painters,Metro Painting,7380 S Eastern Ave,Las Vegas,Â NVÂ ,89123,702 278 8685,
Painters,Handyman,,Handyman Services,Ste 124-136,,,,702 768 5700,
Painters,PaintersÂ ,Metro Painting,7380 S Eastern Ave,Las Vegas,Â NVÂ ,89123,702 278 8685,
Painters,HandymanÂ ,Mr Fix It,Ste 124-136,Southeast,,,702 204 1447,
Painters,PaintersÂ ,Paint Worx Inc.,6645 Gatehouse Ln,Las Vegas,Â NVÂ ,89108,702 763 1611,
Painters,PaintersÂ ,Paint Pros LTD,1699 Crystal Downs Ave,Las Vegas,Â NVÂ ,89123,702 563 9332,paintproslv@gmail.com
Painters,PaintersÂ ,Seamingly Straight,161 Kennet Ct,Las Vegas,Â NVÂ ,89144,702 810 0035,onaroll@seaminglystraight.com
Painters,HandymanÂ ,Renaissance Residential Maintenance,Ste 112,,,,702 755 0256,
Painters,PaintersÂ ,The Fascia Kings,1177 Matthew Ave,Las Vegas,Â NVÂ ,89123,702 524 1042,
Painters,Painters,,Master Craftsmen,Ste E103,Las Vegas,Â NVÂ ,89102,702 312 4606,
Painters,PaintersÂ ,Mark Anthony Construction,Las VegasÂ NVÂ 89134,,,,702 860 3573,
Painters,PlumbingÂ Â ,LV House Doctor,3325 Ali Baba Ln,Las Vegas,Â NVÂ ,89118,702 489 5164,info@lvhousedoctor.com
Painters,Painters,All Pro Painting and Drywall,5049 W Diablo,Las Vegas,Â NVÂ ,89118,702 283 5034,
Painters,PaintersÂ ,Pruzinsky Painting,1682 Starlight Canyon Ave,Las Vegas,Â NVÂ ,89123,702 743 4745,
Painters,PaintersÂ ,Diesel Painting and Drywall,,,,,702 202 2646,info@dieselpainting.com
Painters,Painters ,Paint Masters LLC,,,,,702 956 7658,
Painters,Painters,Detail Painting,4410 E Saint Louis Ave,Las Vegas,Â NVÂ ,89104,702 400 2487,steve@paintmasterslasvegas.com
Painters,ContractorsÂ ,Fresh Coat of Las Vegas,10300 W Charleston Blvd,Las Vegas,Â NVÂ ,89135,702 410 6991,prouleau@freshcoatpainters.com
Painters,Painters,Discount Painting,3900 Spring Mountain Rd,Las Vegas,Â NVÂ ,89102,702 768 1844,info@discountpaintingnv.com
Painters,Painters,McMillan & McMillan Painting,2799 E Tropicana Ave,Las Vegas,Â NVÂ ,89121,702 510 4262,samuel72382@gmail.com
Painters,Painters,Deco Plus Painting,10300 W Charleston Blvd,Las Vegas,Â NVÂ ,89135,702 810 6537,decopluslv@gmail.com
Painters,Painters,Paint Worx Inc.,6645 Gatehouse Ln,Las Vegas,Â NVÂ ,89108,702 763 1611,paintproslv@gmail.com
Painters,Painters,Tri-Color Paints,6625 S Valley View Blvd,Las Vegas,Â NVÂ ,89118,702 269 6995,sales@tricolorpaints.com
Painters,PaintersÂ ,AllPro Painters,3674 N Rancho Dr,Las Vegas,Â NVÂ ,89130,702 550 4755,
Painters,Painters ,StettieHand,Ste 101,,,,702 686 2466,stettiehand@gmail.com
Painters,Plumbing ,LV House Doctor,3325 Ali Baba Ln,Las Vegas,Â NVÂ ,89118,702 489 5164,info@lvhousedoctor.com
Painters,PaintersÂ ,Diesel Painting and Drywall,Ste 613,,,,702 202 2646,info@dieselpainting.com
Painters,Painters,Excel Painting,,,,,702 354 5151,excelhandyman@gmail.com
Painters,Painters,CertaPro Painters of Southern Nevada,1000 N. Green Valley Pkwy,,Henderson,Â NVÂ ,89074,866 670 7549,JZades@certapro.com
Painters,Painters,,CertaPro Painters of Summerlin,3111 S Valley View Blvd,Las Vegas,Â NVÂ ,89102,866 670 7549,kwilliams@certapro.com
Painters,PaintersÂ ,Cal Pac Painting,900 S Commerce St,Las Vegas,Â NVÂ ,89106,702 383 5144, calpacpaintingnv@calpac.us
Painters,ContractorsÂ ,Trifecta Decorating,,Las Vegas,Â NV,,702 281 5168,trifectadec@yahoo.com
Painters,HandymanÂ Â ,Castillo Construction,2789Trotwood Ln,Las Vegas,Â NVÂ ,89108,702 236 9223,eduardo%40castilloconstruction.org
Painters,RoofingÂ ,A&P Painting,10120 W. Flamingo Rd. #4-264,Las Vegas,Â NVÂ ,89147,702 499 1107,info@a-ppainting.com
Painters,Interior DesignÂ Painters,Luzid Creative,5605 Seattle Slew Dr,Las Vegas,Â NVÂ ,89108,702 619 0467,luzidcreative@gmail.com
Painters,PaintersÂ ,HK Paint Drywall,,Las Vegas,Â NV,,702 803 4084,johlfsandsonhs@gmail.com
Painters,PaintersÂ ,Artistic Expressions,,Las Vegas,Â NVÂ ,89101,702 658 8363,owner@fauxbia.com
Painters,Painters,Ultimate Faux,8141 Dolphin Landing Dr,Las Vegas,Â NVÂ ,89128,702 813 1711,joline@ultimatefaux.com
Painters,Handyman,,Francis Handyman Repairs,Ste 111,,,,702 335 4033,tim@francishandymanrepairs.com
Painters,Painters,,Compton J Painting & Paperhanging,6115 Grand Teton Dr,Las Vegas,Â NVÂ ,89131,702 258 5958,jcompton@jcomptonpainting.com
Painters,Painters,Custom Powder Coat,6276 S Sandhill,Las Vegas,Â NVÂ ,89120,702 362 5222,info@custompowdercoatnv.com
Painters,Painters,Paintworks By Swenson,,,,,702 469 3802,wanttopaintitblack@gmail.com
Painters,Painters,Bruin Painting Corporation,8 Sunset Way,Las Vegas,Â NVÂ ,89103,702 891 9477,estimating@bruinpainting.com
Painters,PaintersÂ Interior DesignÂ ,FRENCH PAINTING SERVICES,3353 Kylemore St,Las Vegas,Â NVÂ ,89129,702 281 9646,Mfrench1968@cox.net
Painters,Painters,Harris & Ruth Painting,4374 E Alexander Road,Las Vegas,Â NVÂ ,89115,702 631 2599,kathleen@harris-ruthpainting.com
Painters,PaintersÂ ,Faux Painter Murals,,Las Vegas,Â NVÂ ,89131,702 658 8363,owner@fauxbia.com
Painters,PaintersÂ ,Primo Painting,HendersonÂ NVÂ 89074,,,,702 457 5552,Tori@LasVegasPrimoPainting.com
Painters,PaintersÂ ,Wise Guys Home Improvement,7132 Yacht Landing Dr,Las Vegas,Â NVÂ ,89129,702 523 8708,myaffordhmlv@hotmail.com
Painters,Painters,Painting & Decorating Contractors of America,1701 Whitney Mesa Drive,Henderson,Â NVÂ ,89014,702 650 5705,jsmirk@msn.com
Painters,PaintersÂ ,Patch Co Inc,8 Sunset Way,Henderson,Â NVÂ ,89014,702 897 3865,customerservice@patchcoinc.com
Painters,ContractorsÂ ,Devco Painting,2208 Heavenly View Dr,Henderson,Â NVÂ ,89014,702 834 0043,devcopaintingwa@gmail.com
Painters,Painters,Empire Painting,213 W Tompkins Ave,Henderson,Â NVÂ ,89103,702 939 9940,info@empireworks.com
Painters,Painters,Fontana Painting,,,,,917 975 9304,FontanaPainting@gmail.com
Painters,Contractors,,West Coast Cabinets and Countertops,950 W Warm Springs Rd Ste 112,Henderson,Â NVÂ ,89011,702 222 4700,John@LVCabinets.com
Pest Control,,,,,,,,
Pest Control,Pest Control ,A Reliable Pest Control,2636 Westwood Dr,Las Vegas,NV,89109,702 258 4011,dan@arpclv.net
Pest Control,Pest Control ,Fischers Pest Control Inc,8670 W Cheyenne Ave,Las Vegas,NV,89129,702 348 9278,help@fischerspestcontrol.com
Pest Control,Pest Control ,Pest Control Solutions Inc,10620 Southern Highlands Pkwy,Las Vegas,NV,89141,702 272 2329,svach@pestcontrolsolutionsinc.com
Pest Control,Pest Control ,Bee Wise Pest Control,9030 W Sahara Ave,Las Vegas,NV,89117,702 743 0803,info@beewisepestcontrol.com
Pest Control,Pest Control ,Extreme Pest Control,848 N Rainbow Blvd,Las Vegas,NV,89107,702 490 0707,Extremepclv@gmail.com
Pest Control,Pest Control ,Pitbull Pest Control,,,,,702 400 1946,questions@pitbullpestcontrol.com
Pest Control,Pest Control ,Progressive Pest Control,6290 Harrison Dr,Las Vegas,NV,89120,702 438 9708,bugsandbirds@ppclv.com
Pest Control,Pest Control ,Select Services,5541 Cameron St,Las Vegas,NV,89118,702 566 2847,office@selectservices.vegas
Pest Control,Pest Control ,Stop Buggn Pest Control,5516 Boulder Hwy,Las Vegas,NV,89122,702 476 2844,stopbuggn@stopbuggn.vegas
Pest Control,Pest Control ,Bulwark Exterminating,2129 Industrial Rd,Las Vegas,NV,89102,702 470 0826,service@bulwarkpest.com
Pest Control,Pest Control ,ProChem ProActive,3651 Lindell,Las Vegas,NV,89103,702 636 8571,
Pest Control,Pest Control ,Affordable Pest Control,,,,,702 985 7664,info@affordablepestcontrolsn.com
Pest Control,Pest Control ,Mountain View Pest Contol,10300 W Charleston,Las Vegas,NV,89135,702 568 1857,info@mountainviewpestcontrol.com
Pest Control,Pest Control ,Pursuit Pest Control,7728 Dusty Lynx Ct,Las Vegas,NV,89139,702 508 0330,
Pest Control,Pest Control ,Pestinators,9775 S Maryland Pkwy,Las Vegas,NV,89183,702 629 3554,
Pest Control,Pest Control ,Vegas Bugs,3416 Helmsman Dr,North Las Vegas,NV,89032,702 539 2872,
Pest Control,Pest Control ,TruForce,5940 S Rainbow Rd,Las Vegas,NV,89118,702 323 5959,
Pest Control,Pest Control ,Provisions Pest Control,10624 S Eastern Ave,Henderson,NV,89052,702 726 7731,
Pest Control,Pest Control ,Southern Nevada Pest Control,4301 Production Ct,Las Vegas,NV,89115,702 644 0332,info@snvpest.com
Pest Control,Pest Control ,Valley View Pest Control,3798 Dusky Flycatcher St,Las Vegas,NV,89122,702 635 8008,
Pest Control,Pest Control ,Ace Pest Control,9360 W Flamingo Rd,Las Vegas,NV,89147,702 871 1211,
Pest Control,Pest Control ,Senske Pest Control,3400 W Desert Inn Rd,Las Vegas,NV,89102,702 251 5561,
Pest Control,Pest Control ,Beyond Pest Control,7322 S Rainbow Blvd Ste 206,Las Vegas,NV,89139,702 983 4284,
Pest Control,Pest Control ,Preventive Pest Control,2838 Marco St,Las Vegas,NV,89115,702 649 0019,ChrisL@preventivepest.com
Pest Control,Pest Control ,Bugs-B-Gone,10552 Bonchester Hill St,Las Vegas,NV,89141,702 361 6340,
Pest Control,Pest Control ,Sudden Impact Pest Control,,Las Vegas,NV,89126,702 477 0808,
Pest Control,Pest Control ,Agent Pest Control,,,,,702 336 0545,
Pest Control,Pest Control ,Enviro Guard,,,,,702 569 2849,
Pest Control,Pest Control ,Sintech Solutions Group,,Las Vegas,NV,89162,702 419 4573,
Pest Control,Pest Control ,Summerlin Pest Control,,Las Vegas,NV,89135,702 354 0661,ad_marker@2x.png
Pest Control,Pest Control ,Troys Pest Control,11238 Lavandou Dr,Las Vegas,NV,89141,702 407 8730,
Pest Control,Pest Control ,People First Pest Control,512 E Windmill Ln,Las Vegas,NV,89123,702 900 2847,PeopleFirstPest@gmail.com
Pest Control,Pest Control ,D-Termination,3003 Rigel Ave,Las Vegas,NV,89102,702 878 1002,Nathan@dtermination.com
Pest Control,Pest Control ,Buddies Exterminating LLC,4505 Del Monte Ave,Las Vegas,NV,89102,702 878 3998,
Pest Control,Pest Control ,Greenway Pest Services,,,,,702 834 9191,
Pest Control,Pest Control ,Enviro Safe Pest Control,5010 S Decatur Blvd,Las Vegas,NV,89118,702 385 1269,
Pest Control,Pest Control ,Toms Bee Hives,1128 Douglas Dr,Las Vegas,NV,89102,702 303 4517,tom@tomsbeehives.com
Pest Control,Pest Control ,Blue Ribbon Pest Services LLC,,Las Vegas,NV,89119,702 299 5467,
Pest Control,Pest Control ,Pest Control Inc.,3642 North Rancho Dr,Las Vegas,NV,89130,702 228 4394,
Pest Control,Pest Control ,Good Day Pest Control,6955 N Durango Dr,Las Vegas,NV,89149,702 515 1234,
Pest Control,Pest Control ,A-Atomic Pest Control,,,,,702 451 2002,
Pest Control,Pest Control ,New Solutions,445 Punto Vallata Dr,Henderson,NV,89011,702 551 2262,travis@nspestcontrol.com
Pest Control,Pest Control ,A Better Day Pigeon Control,,,,,702 469 0250,
Pest Control,Pest Control ,EcoGen Pest Control,3280 W Hacienda Ave,Las Vegas,NV,89118,702 445 6444,info@ecogen.com
Pest Control,Pest Control ,Bugs R US,8228 Emerald Isle Avenue,Las Vegas,NV,89128,702 258 2847,
Pest Control,Pest Control ,Caudles Pest Control,6633 Cliff Shore Ct,North Las Vegas,NV,89084,702 631 2991,
Pest Control,Pest Control ,Bulwark Exterminating,3932 Octagon Rd,North Las Vegas,NV,89030,702 255 6313,service@bulwarkpest.com
Pest Control,Pest Control ,Whats Bugging You? Pest Control,1530 Bradfox Ln,North Las Vegas,NV,89032,702 406 3080,
Pest Control,Pest Control ,Environmental Pest Control,4901 Virginia Falls Ln,Las Vegas,NV,89130,702 655 2257,epclasvegas@aol.com
Pest Control,Pest Control ,Orkin Pest & Termite Control,5740 Arville St,Las Vegas,NV,89118,866 736 1021,name@example.com
Pest Control,Pest Control ,Bulwark Exterminating,5016 Alta Drive,Las Vegas,NV,89107,702 880 0888,service@bulwarkpest.com
Pest Control,Pest Control ,Rebel Pest Control,6000 S Eastern,Las Vegas,NV,89119,702 597 0707,fred@rebelpestcontrol.com
Pest Control,Pest Control ,Pigeons Be Gone - Pigeon Pest Control,,,,,702 804 4663,pigeonsbegone@gmail.com
Pest Control,Pest Control ,Skyhaven,,Las Vegas,NV,89101,702 732 8060,bkoehne5@yahoo.com
Pest Control,Pest Control ,Crispy Critters Pest Control,,,,,702 233 2847,joanne@crispycritterslasvegas.com
Pest Control,Pest Control ,Viper Pest,,Las Vegas,NV,,702 302 6346,ViperPestLV@gmail.com
Pest Control,Pest Control ,Top Line Pest Eliminators,6356 Maratea Ave,Las Vegas,NV,89130,702 425 2742,toplinepro22@gmail.com
Pest Control,Pest Control ,WB Pest Control,6210 N Jones Blvd,Las Vegas,NV,89136,702 866 2767,info@wbpestcontrol.com
Pest Control,Pest Control ,Romex Pest Control,10263 Magnolia Tree Ave,Las Vegas,NV,89135,435 272 7780,romexpc@gmail.com
Pest Control,Pest Control ,Truly Nolen Pest & Termite Control,6000 S Eastern Ave #2E,Las Vegas,NV,89119,702 798 0010,manager.050@trulymail.net
Pest Control,Pest Control ,Adams Pest Control,8304 W Gilmore Ave,Las Vegas,NV,89129,702 613 7853,trentenglish@adamspestcontrolllc.com
Pest Control,Pest Control ,Exceed pest Defense,,,,,702 340 3869,aesquivel@exceedpestdef.com
Pest Control,Pest Control ,TheLens,3411 Sunfish Dr,Henderson,NV,89014,702 582 5367,pest.service@newpestsolutions.com
Pest Control,Pest Control ,Delcon Termite & Pest Control,2410 N Decatur Blvd #115,Las Vegas,NV,89108,702 656 0455,delconpestcontrol@yahoo.com
Pest Control,Pest Control ,Blackburn Pest Control,1350 E. Flamingo Rd,Las Vegas,NV,89119,702 208 9923,info@blackburnpestcontrol.com
Pest Control,Pest Control ,Las Vegas Pest Control,3011 Rigel Ave,Las Vegas,NV,89102,702 369 2847,web2016@369bugs.com
Pest Control,Pest Control ,LV Smittys Pest Control,3651 Lindell Rd,Las Vegas,NV,89103,702 919 7378,LVSMITTYSPESTCONTROL@GMAIL.COM
Pest Control,Pest Control ,Bee Master Of Las Vegas,,Las Vegas,NV,89162,702 457 6700,beemasterlv@yahoo.com
Pest Control,Pest Control ,Pigeonpros,6130 Elton Ave,Las Vegas,NV,89107,702 382 0422,info@pigeonpros.com
Pest Control,Pest Control ,Battle Born Pigeon Control,,Las Vegas,NV,89121,702 375 2801,battlebornpigeoncontrol@yahoo.com
Pest Control,Pest Control ,Intrusion Pest Control,2850 W Horizon Ridge Pkwy,Henderson,NV,89052,702 280 4549,Info@intrusionpest.com
Pest Control,Pest Control ,Battle Born Pigeon Control,3310 China Dr,Las Vegas,NV,89121,702 375 2801,battlebornpigeoncontrol@yahoo.com
Pest Control,Pest Control ,Alias The Bug Man,,Las Vegas,NV,89101,702 395 9039,aliasthebugman@yahoo.com
Pest Control,Pest Control ,Mountian View Pest Control,4303 Hacienda Ave,Las Vegas,NV,89120,702 568 1857,info@mountainviewpestcontrol.com
Pest Control,Pest Control ,Orkin Pest & Termite Control,150 n Las Vegas boulevard,Las Vegas,NV,89101,702 939 6032,customerservice@orkin.com
Pest Control,Pest Control ,DeMille Exterminating,,Las Vegas,NV,89104,702 496 1050,demilleext@gmail.com
Pest Control,Pest Control ,All Star Maintenance,,Las Vegas,NV,89129,702 781 0092,allstar.workorders@gmail.com
Pet Trainer ,,,,,,,,
Pet Trainer ,Pet Training ,Smarty Paws South,4544 West Russell Rd,Las Vegas,NV,89118,702 396 8501,info@smartypaws.com
Pet Trainer ,Pet BoardingPet Sitting Pet Training,K-9 Kountry,8075 Rancho Destino Rd,Las Vegas,NV,89123,855 364 5663,Info@k-9kountry.com
Pet Trainer ,Pet Training,The K-9 Handler,,,,,702 882 3694,
Pet Trainer ,Pet Stores Pet Training, Pet Groomers,PetSmart,171 N Nellis Blvd,Las Vegas,NV,89110,702 438 5771,
Pet Trainer ,Pet Stores Pet Training, Pet Groomers ,Petco,10000 W Sahara Ave,,,,702 341 0142,
Pet Trainer ,Pet Training Pet BoardingPet Sitting ,4E Kennels,,,,,702 278 9388,
Pet Trainer ,Pet Training ,Gibsons Canine Classroom,,,,,702 636 8700,
Pet Trainer ,Pet Training Pet Groomers, Pet Stores,PetSmart,7050 Arroyo Crossing Parkway,Las Vegas,NV,89113,702 407 0330,
Pet Trainer ,Pet Training,Sit Means Sit Dog Training,2900 E Patrick Ln,Las Vegas,NV,89120,702 877 4581,
Pet Trainer ,Pet Training ,Sit Means Sit Summerlin,,Las Vegas,NV,89135,702 518 9444,summerlin@sitmeanssit.com
Pet Trainer ,Pet Training ,MP K9 All Breed Dog Training,,,,,702 302 2667,info@mpk9.com
Pet Trainer ,Pet Training ,Bark Busters Home Dog Training,5560 Edna Ave,Las Vegas,NV,89146,702 712 4129,
Pet Trainer ,Pet Training Pet Groomers, Pet Stores, Pet BoardingPet Sitting,PetSmart,9775 W Charleston,Las Vegas,NV,89117,702 940 5200,
Pet Trainer ,Pet Training,Smarty Paws Canine Coaching,4161 N Rancho Dr,Las Vegas,NV,89130,702 396 8501,info@smartypaws.com
Pet Trainer ,Pet Training Pet BoardingPet Sitting ,4 Pawz On the Floor,,Las Vegas,NV,89169,702 544 6024,pawzlv@gmail.com
Pet Trainer ,Pet Training ,Sin City K-9,9484 S Eastern Ave,Las Vegas,NV,89123,,
Pet Trainer ,Pet Training,Innate Dog Training,9461 Medford Falls Ave,Las Vegas,NV,89149,702 494 8393,
Pet Trainer ,Pet Training ,Innate Dog Training,9461 Medford Falls Ave,Las Vegas,NV,89149,702 494 8393,
Pet Trainer ,Pet Training Dog Walkers, Pet BoardingPet Sitting ,Gold Paw Dog Training,,,,,702 209 1016,
Pet Trainer ,Pet Stores Pet Training, Pet Groomers ,Petco,8495 W Warm Springs Rd,Las Vegas,NV,89113,702 791 7038,
Pet Trainer ,Pet Training,Paws-A-Tive Dog Training,10540 Southern Highlands Pkwy,Las Vegas,NV,89141,702 817 3495,pam@pawsativedogtraining.com
Plumbing ,,,,,,,,
Plumbing ,Plumbing,Pure Plumbing,6255 McLeod DrSte 8,Las Vegas,NV,89120,702 534 1910,pureplumbinglasvegas@gmail.com
Plumbing ,Plumbing,Pipe Dreams Plumbing,,,,,702 768 0428,info@pipedreamsplumbingco.com
Plumbing ,Plumbing,DMS Plumbing,2835 Montessouri St,Las Vegas,NV,89117,702 353 7335,
Plumbing ,Plumbing,Precision Plumbing,7500 W Lake Mead Blvd,Las Vegas,NV,89128,702 253 6363,support@precisionplumbinglv.com
Plumbing ,Plumbing Heating & Air ConditioningHVAC,Number One Plumbing Heating & Air Conditioning,4131 W Oquendo RdSte 1,Las Vegas,NV,89118,702 850 9997,info@numberonelv.com
Plumbing ,Plumbing,AllAces Plumbing,7250 Durango DrSte 130-214,Las Vegas,NV,89113,702 883 0121,aaoffice@allacesplumbing.com
Plumbing ,Plumbing Water Heater InstallationRepair, Water Purification Services,Colburn Enterprises,2475 Chandler AveSte 17,Las Vegas,NV,89120,702 433 5605,colburn@40lvcoxmail.com
Plumbing ,Plumbing,Water Heater Pros,6225 Harrison St,Las Vegas,NV,89120,702 767 5453,
Plumbing ,Plumbing,Dinos Plumbing,10300 W Charleston BlvdSte 13-433,Las Vegas,NV,89135,702 460 9426,support@dinosplumbinglv.com.
Plumbing ,Plumbing,A Better Plumbing Company,4533 Balfour Dr,Las Vegas,NV,89121,702 813 4236,
Plumbing ,Plumbing,Max Plumbing,3111 S Valley View BlvdSte E105,Las Vegas,NV,89102,702 848 2597,
Plumbing ,Plumbing,MG Handy Plumber,4184 Mango Tree Ct,Las Vegas,NV,89115,702 480 8070,contact@mghandymanplumber.com
Plumbing ,Plumbing,Elemental Plumbing,3651 Lindell RdSte D153,Las Vegas,NV,89103,702 845 8747,elementalplumbing@gmail.com
Plumbing ,Plumbing,Adaven Plumbing Inc,,,,,702 485 4191,
Plumbing ,Plumbing,Las Vegas Plumbing,6420 Windy St,Las Vegas,NV,89119,725 696 8251,support@lasvegasplumbinginc.com
Plumbing ,Plumbing ,NOW! Plumbing And Heating,3636 Meade Ave,Las Vegas,NV,89102,725 777 0099,nowplumbingandheating@gmail.com
Plumbing ,Plumbing,Capital Plumbing,8228 Old Cistern Ct,Las Vegas,NV,89131,702 656 2296,capitalplumbinginc@yahoo.com
Plumbing ,Plumbing,Code Red Emergency Plumbing,3111 S Valley ViewUnit B-117,Las Vegas,NV,89102,702 970 6128,
Plumbing ,Plumbing Heating & Air ConditioningHVAC,Yes! Air Conditioning & Plumbing,6275 S Pioneer Way,Las Vegas,NV,89113,702 577 0072,
Plumbing ,Plumbing,Drews Plumbing,3700 Regulus Ave,Las Vegas,NV,89102,702 349 2400,service@drews-plumbing.com
Plumbing ,Plumbing,Vegas Plumbing Service,1964 Sycamore Trl,Las Vegas,NV,89108,702 647 3550,vegasplumbingservice@40yahoo.com
Plumbing ,Plumbing Water Heater InstallationRepair,Andrews Plumbing and Repair,,,,,702 301 0707,
Plumbing ,Plumbing Contractors,Plumbing Solutions of Nevada,4170 Pioneer Ave Ste A,Las Vegas,NV,89102,702 919 7745,info@plumbingsolutionsofnevada.com
Plumbing ,Plumbing,Gnc Plumbing,,Las Vegas,NV,89183,702 501 2715,GncPlumbing58@gmail.com
Plumbing ,Plumbing Water Heater InstallationRepair,A to Z Plumbing Heating & Water Heater Installation Services,,,,,702 818 9075,
Plumbing ,Plumbing,LV Rooter Dan,,,,,702 431 4999,1rooterman@gmail.com
Plumbing ,Plumbing Heating & Air ConditioningHVAC,Handy Manny Services,5400 W Cheyenne AveSte 1012,Las Vegas,NV,89108,702 595 6365,
Plumbing ,Heating & Air ConditioningHVAC Plumbing,Rebel Refrigeration,2630 S Highland Dr,Las Vegas,NV,89109,725 696 8414,support@rebelrefrigeration.com
Plumbing ,Heating & Air ConditioningHVAC Plumbing, Water Heater InstallationRepair,Advanced Mechanical,133 E Warm Springs RdSte 101,Las Vegas,NV,89119,702 592 0907,
Plumbing ,Plumbing Heating & Air ConditioningHVAC,JMAC Plumbing & Air Conditioning,4225 W. Post Rd.,Las Vegas,NV,89118,702 227 5622,
Plumbing ,Plumbing Heating & Air ConditioningHVAC,Nationwide Plumbing,3716 Ashling St,Las Vegas,NV,89129,702 686 4068,nationwideplumbingllc@40gmail.com
Plumbing ,Heating & Air ConditioningHVAC Plumbing,Air Squad Heating & Air Conditioning,3017 Rigel Ave,Las Vegas,NV,89102,702 701 7797,airsquadlv@hotmail.com
Plumbing ,Heating & Air ConditioningHVAC Plumbing ,The Cooling Company,6380 McLeod Dr,Las Vegas,NV,89120,702 567 0707,
Plumbing ,Plumbing ,ORourke Plumbing Service,1750 Highland Ave,Las Vegas,NV,89102,702 871 4666,
Plumbing ,Contractors Handyman, Plumbing ,Las Vegas Handyman,,,,,702 248 0550,
Plumbing ,Plumbing,Sound Plumbing & Heating,6000 S Eastern AveSte 11-C,Las Vegas,NV,89119,702 837 1494,info@soundplumbinglv.com
Plumbing ,Plumbing,Downunder Plumbing,7040 Laredo StSte D,Las Vegas,NV,89117,702 556 9156,
Plumbing ,Plumbing ,Buddys Plumbing Repair,5417 Madre Mesa Drive,Las Vegas,NV,89108,702 648 6113,
Plumbing ,Plumbing,Elliotts Sewer & Drain Cleaning Service,,Las Vegas,NV,89126,702 382 7389,elliottssd@cox.net
Plumbing ,Plumbing,Aqua Plumbing LLC,6226 S Sandhill RdSte B,Las Vegas,NV,89120,702 642 8400,
Plumbing ,Plumbing,Complete Service Solutions Co,,,,,702 750 2575,
Plumbing ,Plumbing,Halcyon Plumbing,5415 Cameron St,Las Vegas,NV,89118,702 368 7540,
Plumbing ,Plumbing,Sage Plumbing,,Las Vegas,NV,89103,702 622 8626,
Plumbing ,Plumbing Water Heater InstallationRepair ,On Time Service,,,,,702 504 4544,
Plumbing ,Plumbing Contractors,Ideal Plumbing Services,3508 E Charleston Blvd,Las Vegas,NV,89104,702 475 3292,idealservices@idealservices.com
Plumbing ,Plumbing,M.C. Plumbing LLC,205 E. Brooks AveSte A,North Las Vegas,NV,89030,702 389 7312,mcplumbingllc@gmail.com
Plumbing ,Plumbing,Jump 2 It Plumbing,6895 E Lake Mead BlvdSte 6-178,Las Vegas,NV,89156,702 438 3106,
Plumbing ,Heating & Air ConditioningHVAC,Anytime Plumbing Heating & Air Conditioning,4690 W Post RdSte 130,Las Vegas,NV,89118,702 518 7968,
Plumbing ,Plumbing,Jack Dish Plumbing,1452 W Horizon Ridge PkwySte 560,Henderson,NV,89012,702 283 2320,info@jackdishplumbing.com
Plumbing ,Plumbing Painters, Drywall Installation & Repair ,LV House Doctor,3325 Ali Baba LnSte 613,Las Vegas,NV,89118,702 489 5164,info@lvhousedoctor.com
Plumbing ,Plumbing Water Purification Services ,Serv-all Water Conditioning,3065 N Rancho DrSte 128,Las Vegas,NV,89130,725 222 4306,affiliates@bluehost.com
Plumbing ,Plumbing,Las Vegas Sewer,2104 Club Pacific WaySte 103,Las Vegas,NV,89128,702 945 3664,adir1224@40hotmail.com
Plumbing ,Plumbing ,Raptor Plumbing,8755 Lindell RdSte 100,Las Vegas,NV,89139,702 257 7511,delinda@raptorplumbing.com
Plumbing ,Plumbing Contractors,Hague Quality Water,8700 Castle Hill Ave,Las Vegas,NV,89129,702 914 2400,Dylan@HagueLasVegas.com
Plumbing ,Heating & Air ConditioningHVAC ,Legacy Air,6525 Button Quail St,Las Vegas,NV,89084,702 453 4229,info@legacyac.com
Plumbing ,Plumbing,Sin City Plumbing and Maintenance,1840 Whitney Mesa DrSte 160,Las Vegas,NV,89014,702 431 6502,contactus@sincityplumbing.com
Plumbing ,Irrigation Landscaping, Plumbing,Las Vegas Irrigation Repair,2831 St Rose PkwySte 200,Las Vegas,NV,89052,702 802 8974,LasVegasIrrigationRepair@gmail.com
Plumbing ,Plumbing Contractors,CSI Plumbing Service And Repair,1113 Nevada Blaze Ave,North Las Vegas,NV,89081,702 468 2473,csioffice@csinev.com
Plumbing ,Plumbing Heating & Air ConditioningHVAC,Almighty Air,1412 Western Ave,Las Vegas,NV,89103,702 597 3000,office@almightyair.com
Plumbing ,Plumbing Electricians, Heating & Air ConditioningHVAC,Ace Services Plumbing Air Electrical,1495 Helm Dr,Las Vegas,NV,89119,Phonenumber7027953666,cea1@acea1.com
Plumbing ,Plumbing,Southwest Plumbing and Repair,10040 W. Cheyenne AveSte 170-26,Las Vegas,NV,89129,,southwestrepairservices@gmail.com
Plumbing ,Plumbing Carpet Installation, Pest Control,All Star Maintenance,,Las Vegas,NV,89129,702 781 0092,allstar.workorders@gmail.com
Plumbing ,Heating & Air ConditioningHVAC Plumbing,Montgomery Air Conditioning and Heating,,,,,702 513 9872,montgomeryacandheat@yahoo.com
Plumbing ,Plumbing,Catania & Son Plumbing LLC,,,,,702 533 5940,info@cataniaplumbinglv.com
Plumbing ,Plumbing,Silver Star Plumbing Drain & Sewer,452 E Silverado RanchSte 169,Las Vegas,NV,89183,702 363 4114,silverstarpds@aol.com
Plumbing ,Plumbing,MG Handy Plumber,,,,,702 480 8070,contact@mghandymanplumber.com
Plumbing ,Handyman Plumbing, Heating & Air ConditioningHVAC,WC Maintenance Services,8832 Borla Dr,Las Vegas,NV,89117,702 902 0982,wcmaintserv@yahoo.com
Plumbing ,Contractors Plumbing, MasonryConcrete,Aria Remodeling,3111 S Valley View BlvdUnit B120,Las Vegas,NV,89102,702 800 1000,eddie@ariaremodeling.com
Plumbing ,Plumbing Heating & Air ConditioningHVAC,Delta Mechanical,,,,,702 731 9400,california@deltamechanical.com
Plumbing ,Plumbing ,F and G Janitorial Supply,5012 Arville St,Las Vegas,NV,89118,702 473 9634,ochoagabino@yahoo.com
Plumbing ,Plumbing Damage Restoration,247 Restoration,,,,,702 719 6919,bids@247restorationandconstruction.com
Plumbing ,Plumbing Heating & Air ConditioningHVAC,Quality Mechanical,5701 W Sunset Rd,Las Vegas,NV,89118,702 960 1854,estimation@qualitymechanical.com
Plumbing ,Plumbing Heating & Air ConditioningHVAC ,Pure Plumbing,6295 McLeod DrSte 8,Las Vegas,NV,89120,702 534 1910,pureplumbinglasvegas@gmail.com
Sports Instructor (Tennis Lessons Golf Lessons Etc..),,,,,,,,
Sports Instructor (Tennis Lessons Golf Lessons Etc..),Sporting Goods,Sport Chalet,8825 W Charleston Blvd,Las Vegas,NV,89117,702 255 7570,
Sports Instructor (Tennis Lessons Golf Lessons Etc..),Sports Wear Outdoor Gear, Golf Equipment,Golf Galaxy,8621 W Charleston Blvd,Las Vegas,NV,89117,702 932 4110,
Sports Instructor (Tennis Lessons Golf Lessons Etc..),Gyms Sports Clubs, Trainers,Life Time Athletic,10721 W Charleston Blvd,Las Vegas,NV,89135,702 228 2611,
Sports Instructor (Tennis Lessons Golf Lessons Etc..),American (Traditional) Casinos, American (New) ,Hooters Casino Hotel,115 E Tropicana Ave,Las Vegas,NV,89109,866 584 6687,
Sports Instructor (Tennis Lessons Golf Lessons Etc..),Chinese Mexican,China Poblano,3708 Las Vegas Blvd S,Las Vegas,NV,89109,702 698 7900,
Sports Instructor (Tennis Lessons Golf Lessons Etc..),Casinos Resorts, Day Spas,Green Valley Ranch Resort & Spa,2300 Paseo Verde Pkwy,Henderson,NV,89052,702 617 7777,
Towing,,,,,,,,
Towing,TowingÂ ,Express Towing,3620 Las Vegas Blvd S,Las Vegas,Â NVÂ ,89109,702 818 0177,
Towing,Towing,Economy Towing,2901 Windstorm Ave,Las Vegas,Â NVÂ ,89106,702 498 1063,
Towing,TowingÂ ,Olmstead Towing,6325 S Pecos Rd,Las Vegas,Â NVÂ ,89120,702 523 7708,
Towing,TowingÂ ,Las Vegas Towing,2968 Marco St,Las Vegas,Â NVÂ ,89115,702 651 0105,
Towing,TowingÂ ,Around the Clock Towing Services,600 W Bonanza Rd,Las Vegas,Â NVÂ ,89106,702 378 5591,
Towing,Towing,Quick Response Towing,6120 W Tropicana Ave,Las Vegas,Â NVÂ ,89106,702 540 1117,
Towing,TowingÂ ,Anytime Express Towing,4770 S Pecos Rd,Las Vegas,Â NVÂ ,89121,702 787 1936,
Towing,TowingÂ ,Instant Towing,,,,,702 606 4322,info@intanttowinglasvegas.com
Towing,Towing,Shauns Towing,2315 N Decatur Blvd,Las Vegas,Â NVÂ ,89108,702 296 0659,
Towing,Towing,The Tow Truck Company,3975 W Hacienda Ave,Las Vegas,Â NVÂ ,89118,702 434 7175,
Towing,Towing,Anthonys Towing,5375 S Cameron St,Las Vegas,Â NVÂ ,89118,702 379 1930,
Towing,TowingÂ ,Code Blue Towing,3595 Polaris St,Las Vegas,Â NVÂ ,89103,702 908 6354,
Towing,Towing,Larrys Towing & Transport,6800 W Gary Ave,Las Vegas,Â NVÂ ,89139,702 254 0395,
Towing,Auto RepairÂ ,Sun Auto Service,6800 W Gary Ave,Las Vegas,Â NVÂ ,89139,702 254 0395,
Towing,Auto RepairÂ ,Sun Auto Service,9530 W Tropicana Ave,Las Vegas,Â NVÂ ,89147,702 474 6777,
Towing,TowingÂ ,Quick Towing,415 W Bonanza Rd,Las Vegas,Â NVÂ ,89106,702 540 1117,
Towing,TowingÂ ,Commerce Auto Towing CPCN7293,1407 industrial st,Las Vegas,Â NVÂ ,89102,702 968 2410,care@commerceautobodylv.com
Towing,Auto RepairÂ ,Sun Auto Service,7555 W Washington Ave,Las Vegas,Â NVÂ ,89128,702 304 1010,
Towing,TowingÂ ,777 Towing,231 Utah Ave,Las Vegas,Â NVÂ ,89102,702 724 9000,
Towing,Auto Repair,CJ Auto Repair,3350 E Flamingo Rd,Las Vegas,Â NVÂ ,89121,725 222 6408,
Towing,Auto Repai,Sun Auto Service,9530 W Tropicana Ave,Las Vegas,Â NVÂ ,89147,702 474 6777,
Towing,Towing,Minuteman Towing,Ste A,Las Vegas,Â NVÂ ,89101,702 228 5138,
Towing,Body Shop,Evolution Auto Body,3859 S Valley View Blvd,Las Vegas,Â NVÂ ,89103,702 233 8889,
Towing,Auto Repai,Carburetors & More,3071 Fremont St,Las Vegas,Â NVÂ ,89104,702 331 4961,
Towing,Towing,Stus Motorcycle Towing,9484 S Eastern Ave,Las Vegas,Â NVÂ ,89123,702 263 1344,
Towing,TowingÂ ,Ewing Bros,1200 N A St,Las Vegas,Â NVÂ ,89106,702 382 9261,
Towing,Auto Repai,Pacific Auto Care,1238 S Main St,Las Vegas,Â NVÂ ,89104,702 310 9365,truckshop@sierranv.net
Towing,TowingÂ ,Quality Towing,4100 E Cheyenne Ave,Las Vegas,Â NVÂ ,89115,702 649 5711,
Towing,Towing,Castillo Towing,,Las Vegas,NVÂ ,89104,702 689 3881,
Towing,Body Shop,Platinum Collision,4440 S Arville St,Las Vegas,Â NVÂ ,89103,702 476 9119,info@platinumcollisionlv.com
Towing,Auto Parts & SuppliesÂ Auto Repair,Â Car Dealers,1st Response Auto,4215 Bertsos Dr,Las Vegas,Â NVÂ ,89103,702 476 9366,
Towing,Towing,Ashleys Towing,3030 Sheridan St,Las Vegas,Â NVÂ ,89102,702 382 3508,
Towing,Auto Repair,The Car Works,5445 S Decatur Blvd,Las Vegas,Â NVÂ ,89118,702 251 1112,thecarworksinc.com
Towing,Towin,Tri State Towing and Recovery,4140 W Desert Inn Rd,Las Vegas,Â NVÂ ,89102,702 642 4648,
Towing,Auto RepairÂ ,T & M Automotive,3921 W Oquendo Rd,Las Vegas,Â NVÂ ,89118,702 617 2770,
Towing,Auto Repai,Quality Star Imports & Domestics,3420 N. Rancho Dr,Las Vegas,Â NVÂ ,89130,702 685 6500,
Towing,TowingÂ ,Chykkos Towing,,Las Vegas,NVÂ ,89139,702 245 9971,
Towing,TowingÂ ,Express Towing,3620 Las Vegas Blvd S,Las Vegas,Â NVÂ ,89109,702 757 1896,
Towing,Towing,Silver State Towing,2400 S Highland Dr,Las Vegas,Â NVÂ ,89102,702 837 2655,
Towing,Towing,Quick Response Towing,5295 S Decatur Blvd,Las Vegas,Â NVÂ ,89118,702 951 0713,
Towing,Auto Repair,Professional Brake Service,544 E Silverado Ranch Blvd,Las Vegas,Â NVÂ ,89183,702 897 1988,
Towing,Towing,National Towing,1920 S Highland Ave,Las Vegas,Â NVÂ ,89102,702 642 0134,nationaltowing1@gmail.com
Towing,Towing,Ottos Towing Inc,844 N Rainbow Blvd,Las Vegas,Â NVÂ ,89107,855 978 6145,contact@ottostowing.com
Towing,TowingÂ ,Alex Towing,5917 Smoke Ranch Rd Unit a,Las Vegas,Â NVÂ ,89108,702 883 2791,
Towing,TowingÂ ,Best Towing Service,1945 Village Center Cir,Las Vegas,Â NVÂ ,89134,702 951 2767,
Towing,Auto Repai,Superior Tire - Goodyear Auto Service Center,3590 E Tropicana Ave,Las Vegas,Â NVÂ ,89121,702 458 5767,
Towing,Auto Repai,ABC Towing and Auto Repair,1414 Industrial Rd,Las Vegas,Â NVÂ ,89102,702 598 1630,
Towing,Auto Repai,Fast Towing,2201 S Commerce St,Las Vegas,Â NVÂ ,89102,702 383 3278,Fasttowing_lv@yahoo.com
Towing,Towin,Custom Towing,2775 Betty Ln,Las Vegas,Â NVÂ ,89156,702 368 7800,
Towing,Auto Repai,Hi Star Auto Center LLC,4881 West Hacienda Ave,Las Vegas,Â NVÂ ,89118,702 432 8686,HiStarLV702@yahoo.com
Towing,Towin,Anywhere Auto Repair & Towing,1750 N Rancho Dr,Las Vegas,Â NVÂ ,89106,702 517 9077,torythetowman@yahoo.comÂ 
Towing,Towing ,Titan Towing,Las VegasÂ NVÂ 89109,Las Vegas,NVÂ ,89109,702 333 8697,admin@miseenplacenv.com
Towing,Auto Repai,Car-Ready,214 W Wyoming Ave,Las Vegas,Â NVÂ ,89102,702 477 0474,info @Â car-ready.com
Towing,Auto Repai,All Team Auto Repair and Collision,6960 W Russell Rd,Las Vegas,Â NVÂ ,89113,702 227 1990,allteamcollision@yahoo.com
Towing,Auto Parts & SuppliesÂ Auto RepairÂ ,CARS Complete Auto Repair Specialists,6280 S Valley View Blvd,Las Vegas,Â NVÂ ,89118,702 823 2277,info@carsnv.com
Towing,Body ShopsÂ ,Green Valley Body Shop,6275 Harrison Dr,Las Vegas,Â NVÂ ,89120,702 739 0008,gvbodyshop@earthlink.net
Towing,Auto RepairÂ ,American Auto Care,10177 W Charleston Blvd,Las Vegas,Â NVÂ ,89135,702 259 2600,towingamerican@yahoo.com
Towing,Towin,Direct Connect Auto Transport,3565 Las Vegas Blvd S,Las Vegas,Â NVÂ ,89109,702 800 5949,info@directconnectauto.com
Towing,Auto RepairÂ ,Carlss Cool Cars,5115 Dean Martin Dr,Las Vegas,Â NVÂ ,89118,702 771 0770,atkaparking%40hotmail.com
Towing,Auto Repair,El Jesse Auto Repair,3071 North Nellis Blvd,Las Vegas,Â NVÂ ,89115,702 644 3882,eljessev@yahoo.com
Towing,Towing,Royalty Towing,595 East Brooks Ave,North Las Vegas,Â NVÂ ,89030,702 869 5464, info@royaltytowing.com
Towing,Towing,Repo-Zone,,,,,,repozone7@aol.com
Towing,Auto RepaiÂ ,Bobs Autodynamics,3015 S Valley View Blvd,Las Vegas,Â NVÂ ,89102,702 367 0944,bob@bobsautodynamics.com
Towing,Towing,Tiks Quick Towing,4570 E Carey Ave,Las Vegas,Â NVÂ ,89115,702 525 2194,info@tiksquicktowing.com
Towing,Oil Change StationsÂ Auto Repair,YourMechanic,Ste 2,,,,800 701 6230,hi@yourmechanic.com
Towing,Towing,Fast Towing,3850 Losee Rd,North Las Vegas,Â NVÂ ,89030,702 383 3278,Fasttowing_lv@yahoo.com
Towing,Auto Repai,American Auto and Tire,3220 N Durango Dr,,,,702 259 8473,towingamerican@yahoo.com
Towing,Auto RepaiÂ ,Pep Boys Auto Parts & Service,637 E Sahara Ave,Las Vegas,Â NVÂ ,89104,702 796 0600,contactus@pepboys.com
Towing,Auto RepairÂ ,Cool Runnings Automotive Repair,5115 Dean Martin Dr,Las Vegas,Â NVÂ ,89118,702 771 1257,Neil@CoolRunningsAutomotiveRepair.com
Towing,Auto Repai,Charlies Car Repair,4012 W Charleston Blvd,Las Vegas,Â NVÂ ,89102,702 880 9300,aaacharliesauto@gmail.com
Towing,Auto Repair Oil Change Stations, Transmission Repair ,Dons DI Auto Repair Service,973 E Desert Inn Rd,Las Vegas,Â NVÂ ,89109,702 734 6144,diautoservice@diautorepair.com
Towing,Auto RepairÂ ,Doctor Auto,6450 W Craig Rd,Las Vegas,Â NVÂ ,89108,702 645 9934, drjohn@doctorautolv.com
Towing,Auto Repai,Desert Oasis European Auto Service & Repair,2079 S Rainbow Blvd,Las Vegas,Â NVÂ ,89146,702 255 4090,service@desertoasisautorepair.com
Towing,Tire,Pep Boys,3995 E Charleston Blvd,Las Vegas,Â NVÂ ,89104,702 452 7168,contactus@pepboys.com
Towing,RV Repai,Busted Knuckle Mobile Mechanic,,Las Vegas,Â NVÂ ,89120,702 767 7125,bustedkuncklemechanics@gmail.com

TowingCar Dealer,Park Place Infiniti,5555 W Sahara Ave,Las Vegas,Â NVÂ ,89146,702 252 8100,jtortomasi@parkplace.com
Towing,Auto RepairÂ ,Howies Automotive Service Center,980 S Main Street,Las Vegas,Â NVÂ ,89101,702 979 4185,howiesauto@lvcoxmail.com
Towing,Auto Repair,Charleston Auto Repair LLC,4024 West Charleston BLVD,Las Vegas,Â NVÂ ,89102,702 550 1114,lvcharleston@gmail.com
Towing,Auto Repair,Wallys Independent Honda & Acura Service Center,3290 Pinks Pl,Las Vegas,Â NVÂ ,89102,702 871 7310,info@wallyslv.com
Towing,TiresÂ ,Ted Wiens Tire & Auto,1201 S Rainbow Blvd,Las Vegas,Â NVÂ ,89146,702 363 4434,manager8@tedwiens.com
Towing,Auto Repair,European Motor Cars,3440 Spring Mountain Rd,Las Vegas,Â NVÂ ,89102,702 832 5105,service@emcnv.com
Towing,Body Shop,S&M Auto Body & Paint,4376 E Alexander Rd,Las Vegas,Â NVÂ ,89115,702 981 7110,MyAutoService80@yahoo.com
Towing,Auto Repair,Decatur Auto Electric,2695 S Decatur Blvd,Las Vegas,Â NVÂ ,89102,702 364 0043,decaturautoelectric@yahoo.com
Towing,Auto Repai,Express Collision Center,4755 W Flamingo Rd,Las Vegas,Â NVÂ ,89103,702 676 2010,info@expresscollisionlv.com
Towing,Tire,Ted Wiens Tire & Auto Centers,4055 S Fort Apache Rd,Las Vegas,Â NVÂ ,89147,702 435 1515,comment@tedwiens.com
Towing,Auto RepairÂ ,Express Collision Center,4755 W Flamingo Rd,Las Vegas,Â NVÂ ,89103,702 676 2010,info@expresscollisionlv.com
Towing,Auto RepairÂ ,Delta Auto Care,6658 Boulder Hwy,Las Vegas,Â NVÂ ,89122,702 550 9000, info@deltaautocare.com
Towing,Auto Repair,Outlaw Classic & Exotic Motorcars,4700 W Russell Rd,Las Vegas,Â NVÂ ,89118,702 222 2277,outlawclassiccars@gmail.com
Towing,Auto Repair,The Auto Clinic,5390 S Decatur Blvd,Las Vegas,Â NVÂ ,89118,702 257 0101,theautoclinicpro@aol.com
Towing,Auto RepairÂ ,Precision Performance,3290 Pinks Pl,Las Vegas,Â NVÂ ,89102,702 871 2842,info@precisionperformancelv.com
Towing,Car Dealer,Commerce Auto Body & Sales,1410 S Commerce St,Las Vegas,Â NVÂ ,89102,702 474 6556,care@commerceautobodylv.com
Water Fire Damage,,,,,,,,
Water Fire Damage,Damage Restoration,Insurance Restoration Services,4544 W Russell Rd, Ste A,Las Vegas,NV,89118,702 879 4672,info@irsvegas.com
Water Fire Damage,Contractors Plumbing, Damage Restoration ,LV Restoration Inc,500 N Rainbow Blvd Ste 300,Las Vegas,NV,89107,725 777 0065,joe@lvrestoration.com
Water Fire Damage,Damage Restoration ,Absolute Flood Response,4387 W Sunset Rd,Las Vegas,NV,89118,702 243 5663,
Water Fire Damage,Damage Restoration,Trademark Restoration Services,5980 Topaz St,Las Vegas,NV,89120,702 749 9999,info@trs24-7.com
Water Fire Damage,Damage Restoration,Advanced Pro Remediation,5961 McLeod Dr,Las Vegas,NV,89120,702 252 0880,claims@westsiderestoration.com
Water Fire Damage,Damage Restoration,Mold Eliminators,1964 Sycamore Trl,Las Vegas,NV,89108,702 442 1126,
Water Fire Damage,Damage Restoration,Thistle DKI,2710 S Highland Dr,Las Vegas,NV,89109,702 871 8462,
Water Fire Damage,Damage Restoration,Thistle DKI,2710 S Highland Dr,Las Vegas,NV,89109,702 871 8462,
Water Fire Damage,Carpet Cleaning Damage Restoration,All American Repair Services Inc,5606 South Eastern Ave Ste A,Las Vegas,NV,89119,702 434 0716,
Water Fire Damage,Damage Restoration,Summit Restoration,5032 W Post Rd,Las Vegas,NV,89118,702 740 4731,service@summitrestorationlv.com
Water Fire Damage,Damage Restoration,Absolute Flood Response,4387 W Sunset Rd,Las Vegas,NV,89118,702 243 5663,
Water Fire Damage,Home Cleaning Damage Restoration, Office Cleaning,Rainbow International Of Las Vegas West,3140 Polaris AveSte 27,Las Vegas,NV,89102,702 289 9788,
Water Fire Damage,Damage Restoration Home Cleaning, Office Cleaning,Servpro of Summerlin Northsun City,10161 Park Run DrSte 150,Las Vegas,NV,89145,702 778 9461,jzachary@desertvalleyco.com
Water Fire Damage,Damage Restoration Home Inspectors,DryTech Restoration,5145 South Arville St Ste B,Las Vegas,NV,89118,702 912 4499,drytechlv@gmail.com
Water Fire Damage,Damage Restoration,Water Damage Las Vegas Group,4735 Deckow Ln Suite B-18,Las Vegas,NV,89169,702 983 5841,
Water Fire Damage,Contractors Damage Restoration ,Trustworthy Restoration,,,,,702 965 4134,
Water Fire Damage,Carpet Cleaning Damage Restoration,Rainbow International Of Centennial,7517 Heather Knoll Cir,Las Vegas,NV,89129,702 656 3570,
Water Fire Damage,Damage Restoration Contractors, Plumbing,911 Restoration of Las Vegas,,Las Vegas,NV,89101,702 623 0019,
Water Fire Damage,Damage Restoration,Ready Flood Restoration,1421 N Jones,Las Vegas,NV,89108,702 591 8889,readyfloodrestoration@gmail.com
Water Fire Damage,Damage Restoration,Aquamasters Restoration,5710 E Tropicana Ste 2187,Las Vegas,NV,89122,702 704 1282,
Water Fire Damage,Flooring Contractors, Damage Restoration ,Ultimate Choice Restoration,3040 N Simmons St Ste 104,North Las Vegas,NV,89032,702 515 1485,
Water Fire Damage,Damage Restoration ,Servpro Of Downtown Las Vegas,3995 W Cheyenne Ave Ste 107,North Las Vegas,NV,89032,702 778 9451,
Water Fire Damage,Home Cleaning Carpet Cleaning, Damage Restoration,Servpro of Northern Las Vegas,2828 Synergy St,N Las Vegas,NV,89030,702 656 0203,
Water Fire Damage,Contractors Damage Restoration, Home Inspectors,ERX Emergency Restoration Experts,2850 Synergy Street,North Las Vegas,NV,89030,702 830 9444,
Water Fire Damage,Damage Restoration,1st Response Restoration,86 Corporate Park Dr Ste 100,Henderson,NV,89074,702 462 2000,ClientCare@1stResponseRestores.com
Water Fire Damage,Damage Restoration Contractors,American Technologies Inc,70 Corporate Park Drive,Henderson,NV,89074,702 568 0800,
Water Fire Damage,Carpet Cleaning Home Cleaning, Damage Restoration,SERVPRO of Henderson Boulder City,791 Middlegate Rd,Henderson,NV,89011,702 564 8508,
Water Fire Damage,Carpet Cleaning Damage Restoration,DryFast,3433 Neeham Rd Ste 4,North Las Vegas,NV,89030,702 727 4252,customerservice@dryfast.net
Water Fire Damage,Damage Restoration ,MOLD-OUT Services,826 Baritone Way,North Las Vegas,NV,89032,800 980 8003,customerservice@moldoutservices.com
Water Fire Damage,Carpet Cleaning Damage Restoration,Steamatic of Southern Nevada,2851 Synergy St,North Las Vegas,NV,89030,702 633 0384,
Water Fire Damage,Damage Restoration,Able Restoration,3940 Garner Rd,Riverside,CA,92501,951 686 3841,
Water Fire Damage,Carpet Cleaning Damage Restoration, Home Cleaning,Rainbow International,114 Corporate Park Dr Ste 100,Henderson,NV,89074,702 566 0447,
Water Fire Damage,Carpet Cleaning Damage Restoration, Home Cleaning,Residential Service Center,1675 S Mojave Rd,Las Vegas,NV,89104,702 431 4311,
Window Washing,,,,,,,,
Window Washing,Window Washing ,G & S Window Cleaning,8121 W Rochelle Ave,Las Vegas,NV,89147,702 889 9779,kevin@gandswindowcleaning.com
Window Washing,Window Washing ,J & J Window Wash,6360 McLeod Dr,Las Vegas,NV,89074,702 274 8128,jjwindowwash
Window Washing,Window Washing ,Squeegee & Me,,,,,702 625 9421,
Window Washing,Window Washing ,Mint Clean Window Cleaning,3111 S Valley View Blvd,Las Vegas,NV,89102,888 798 6468,
Window Washing,Window Washing ,Window Masters,5086 W Post Rd,Las Vegas,NV,89118,702 794 4321,
Window Washing,Window Washing ,A Pane In the Glass,3540 W Sahara,Las Vegas,NV,89102,702 233 9274,a_paneintheglass@yahoo.com
Window Washing,Window Washing ,Flat Rate Window Cleaning,7950 W Flamingo Rd,Las Vegas,NV,89147,702 526 5145,
Window Washing,Window Washing ,Red Rock Window Cleaning,1201 Arville St,Las Vegas,NV,89102,702 804 1806,Info@RedRockWindows.com
Window Washing,Window Washing ,Eclipse Solar Screens,108 Hillsway Dr.,Las Vegas,NV,89110,702 219 4282,iliad711@yahoo.com
Window Washing,Window Washing ,Easton Pressure Washing,,,,,702 596 3346,easton@pressurewashlv.com
Window Washing,Window Washing ,Fresco Carpet Cleaning,,,,,702 340 9377,
Window Washing,Window Washing ,Quality Cleaning Services,4141 Welter Ave,Las Vegas,NV,89104,702 292 9505,
Window Washing,Window Washing ,Window Bright Window Cleaning,,,,,702 497 6342,
Window Washing,Window Washing ,Blue Truck Window Cleaning,11733 Polaris Ave,Las Vegas,NV,89141,702 461 5445,btwindowcleaning@gmail.com
Window Washing,Window Washing ,Precious Cleaning Service,9704 Brooks Lake Ave,Las Vegas,NV,89148,702 332 7251,ANTHONY@PRECIOUSCLEANING.COM
Window Washing,Window Washing ,Poseidon Pressure Washing & Window Cleaning,3816 W Colton Av,North Las Vegas,NV,89032,252 619 9050,Info@PoseidonPw.com
Window Washing,Window Washing ,1Pro Window Cleaning,,,,,702 245 9166,
Window Washing,Window Washing ,Charlies Maids,,,,,702 900 1406,
Window Washing,Window Washing ,H & J Window Cleaning,1094 Azure Heights Pl,Las Vegas,NV,89110,702 771 4548,
Window Washing,Window Washing ,Showcase Window Cleaning,5801 W Lake Mead Blvd,Las Vegas,NV,89157,702 813 3887,
Window Washing,Window Washing ,Ray Love Window Cleaning Service,8321 W Sahara Ave,Las Vegas,NV,89117,702 203 1222,
Window Washing,Window Washing ,Reflections Window Washing-Cleaning Services,8275 S Eastern Ave,Las Vegas,NV,89123,702 260 4665,
Window Washing,Window Washing ,House & Window Cleaning Art,,,,,702 460 1647,
Window Washing,Window Washing ,Squeegee Butlers,,,,,702 900 3012,
Window Washing,Window Washing ,Best Janitorial Services of Nevada,2545 Chandler Ave,Las Vegas,NV,89120,702 736 4785,bjsjanitorial@gmail.com
Window Washing,Window Washing ,Doris Cleaning & Services,,Las Vegas,NV,89135,702 236 2204,doriscleaningandservices@yahoo.com
Window Washing,Window Washing ,Home Quality Maids,,,,,702 929 3502,
Window Washing,Window Washing ,Looking Glass Window Cleaning,,,,,702 868 1320,
Window Washing,Window Washing ,Window Sparkle,817 S Main St,Las Vegas,NV,89101,702 758 3211,contact@windowsparkle.com
Window Washing,Window Washing ,Endless Commercial Cleaning,,,,,702 289 7318,endlesscommercialcleaning@gmail.com
Window Washing,Window Washing ,Vertical Resources,,,,,702 818 6673,info@vertical-resources.com
Window Washing,Window Washing ,Mr Squeegee Window Cleaning,,,,,702 538 9757,
Window Washing,Window Washing ,Kelly House Kleaners,,,,,702 330 2426,
Window Washing,Window Washing ,Pristine Clean,,Las Vegas,NV,89180,702 280 0701,Sean.Hubbard@PristineCleanLV.com
Window Washing,Window Washing ,Sky High Window Cleaning,6130 W Flamingo Rd,Las Vegas,NV,89103,702 465 7562,
Window Washing,Window Washing ,Southwest Ultra Clear,1421 N Jones Blvd,Las Vegas,NV,89108,702 219 3525,
Window Washing,Window Washing ,Bee-Kleen Windows,5211 Souvenir Ln,Las Vegas,NV,89118,702 878 3464,
Window Washing,Window Washing ,Simply the Best Window Cleaning Ltd.,1525 E Fremont St,Las Vegas,NV,89101,702 845 8564,
Window Washing,Window Washing ,Chapman Detail,,Las Vegas,NV,,702 717 0048,
Window Washing,Window Washing ,Las Vegas Solar Screen,1824 Leonard Ln,Las Vegas,NV,89108,702 647 9274,
Window Washing,Window Washing ,ABC Real,848 N Rainbow Blvd,Las Vegas,NV,89107,702 292 4335,abcreal@cox.net
Window Washing,Window Washing ,Nevada Solar Clean,,Las Vegas,NV,,702 461 5445,
Window Washing,Window Washing ,Affordable Window Cleaning,7928 Arden Point,Las Vegas,NV,89149,702 658 3649,
Window Washing,Window Washing ,Heritage Window Cleaning and Pressure Washing,2635 Mann St,Las Vegas,NV,89146,702 265 2003,
Window Washing,Window Washing ,Fast Friendly Spotless,6955 N Durango Drive,Las Vegas,NV,89149,702 960 4711,
Window Washing,Window Washing ,Budget Janitorial,3111 S Valley View Blvd,Las Vegas,NV,89102,702 564 2307,
Window Washing,Window Washing ,My Window Cleaners,6425 Morley Ave,,,,702 326 5016,
Window Washing,Window Washing ,Fantastic Oven Cleaning Las Vegas,4370 S Grand Canyon Dr,Las Vegas,NV,89147,702 965 4026,
Window Washing,Window Washing ,FinishÂ ,7059 Kenwood St,Las Vegas,NV,89147,702 635 6675,RogerHarris@niceguysfinishglass.com
Window Washing,Window Washing ,Nevada Cleaning Systems,2505 Chandler Ave,Las Vegas,NV,89120,702 771 6013,ncscommercial@gmail.com
Window Washing,Window Washing ,Bright Cleaning Service,,,,,702 242 5888,robert@brightcleaningservicelv.com
Window Washing,Window Washing ,Nevada Glass Restoration,,Las Vegas,NV,89131,702 513 8310,nvglassrestoration@gmail.com
Window Washing,Window Washing ,Powell Window Cleaning,8167 Mystic Desert Ave,Las Vegas,NV,89131,702 587 7487,Caden@PowellWindowsLV.com
Window Washing,Window Washing ,Summerlin Maids,4550 W Oakey Blvd,Las Vegas,NV,89102,702 249 8329,admin@summerlinmaids.com
Window Washing,Window Washing ,Home Maid,8510 W Lake Mead Blvd,Las Vegas,NV,89128,702 363 7018,office@homemaidlv.com
Window Washing,Window Washing ,Mayberrys Maids,4855 W Desert Inn Rd,Las Vegas,NV,89102,702 474 6243,WeCleanLasVegas@aol.com
Window Washing,Window Washing ,ABC Real Complete Cleaning and Restoration Specialists,3450 Tanto Cir,Las Vegas,NV,89121,702 292 4335,abcreal@cox.net
Window Washing,Window Washing ,Mayberrys Maids,100 N Green Valley Pkwy,Henderson,NV,89074,702 474 6243,WeCleanLasVegas@aol.com
Window Washing,Window Washing ,A+ Foreclosure Cleanup & Property Preservation,6125 Jones Cir,Las Vegas,NV,89107,702 219 3490,kathypye06@gmail.com
Window Washing,Window Washing ,Mother Earth Maids,Castle Canyon Ave,Las Vegas,NV,89052,949 456 3994,nataspen@motherearthmaids-oc.com
Veterinary Services,,,,,,,,
Veterinary Services,Veterinarians,Boca Park Animal Hospital,1050 S Rampart Blvd,Las Vegas,NV,89145,702 675 7000,bpah@bocaparkanimalhospital.com
Veterinary Services,Veterinarians Pet BoardingPet Sitting ,Cheyenne West Animal Hospital,3650 N Buffalo Dr,Las Vegas,NV,89129,702 395 1800,admin@cheyennewest.com
Veterinary Services,Veterinarians Pet BoardingPet Sitting,Aloha Animal Hospital,7341 South Torrey Pines Dr,Las Vegas,NV,89139,702 567 5222,info@alohaah.com
Veterinary Services,Veterinarians,Mountain Vista Animal Hospital,4675 E Flamingo Rd,Las Vegas,NV,89121,702 970 4624,
Veterinary Services,Veterinarians ,Haven Animal Hospital,7775 S Rainbow Blvd Ste 160,Las Vegas,NV,89139,702 260 6260,
Veterinary Services,Veterinarians,West Flamingo Animal Hospital,5445 W Flamingo Rd,Las Vegas,NV,89103,,
Veterinary Services,Veterinarians,Pet Health Hospital,8520 W Desert Inn Rd Ste 1,Las Vegas,NV,89117,702 910 4500,
Veterinary Services,Veterinarians,Sunset Eastern Animal Hospital,6521 S Eastern Ave,Las Vegas,NV,89119,702 361 2566,
Veterinary Services,Veterinarians,Sunset Eastern Animal Hospital,6521 S Eastern Ave,Las Vegas,NV,89119,702 361 2566,
Veterinary Services,Veterinarians,Craig Road Animal Hospital,5051 W Craig Rd,Las Vegas,NV,89130,702 645 0331,
Veterinary Services,Veterinarians,Cheyenne Tonopah Animal Hospital,3348 N Rancho Dr,Las Vegas,NV,89130,702 645 3036,someone@domain.com
Veterinary Services,Veterinarians,Sahara Pines Animal Hospital,6533 W Sahara Ave,Las Vegas,NV,89146,702 876 7580,
Veterinary Services,Veterinarians,Rainbow Animal Hospital,244 S Rainbow Blvd,Las Vegas,NV,89145,702 363 1300,hr@rainbowanimalhospital.com
Veterinary Services,Veterinarians,East Charleston Animal Hospital,601 E Charleston Blvd,Las Vegas,NV,89101,702 386 0901,petcare@ecanimalcare.com
Veterinary Services,Veterinarians,Veterinary Emergency & Critical Care,,,,,,
Veterinary Services,Veterinarians,Sahara Animal Hospital,4301 W Sahara Ave,Las Vegas,NV,89102,702 876 2338,
Veterinary Services,Veterinarians ,Northwest Veterinary Hospital,6124 W Cheyenne Ave,Las Vegas,NV,89108,702 645 7999,
Veterinary Services,Veterinarians Pet BoardingPet Sitting,West Russell Animal Hospital,9140 W Russell Rd,Las Vegas,NV,89148,702 477 0144,
Veterinary Services,Veterinarians ,Durango Animal Hospital,3615 S Durango Dr,Las Vegas,NV,89147,702 242 9044,
Veterinary Services,Veterinarians ,Durango Animal Hospital,3615 S Durango Dr,Las Vegas,NV,89147,702 242 9044,
Veterinary Services,Veterinarians,Paradise Pet Hospital,1060 E Flamingo Rd,Las Vegas,NV,89119,702 734 1711,
Veterinary Services,Veterinarians,Blue Cross Animal Hospital,3470 S Hualapai Way,Las Vegas,NV,89117,702 384 8737,
Veterinary Services,Veterinarians ,Southern Hills Animal Hospital,6545 S Fort Apache Rd Ste 150,Las Vegas,NV,89148,702 586 1300,southernhillsah@gmail.com
Veterinary Services,Veterinarians Pet Services,Flamingo Pet Clinic,2675 E Flamingo Rd Ste 1,Las Vegas,NV,89121,725 696 7757,
Veterinary Services,Veterinarians,Warm Springs Animal Hospital,2500 West Warm Springs Road,Las Vegas,NV,89119,702 361 2500,
Veterinary Services,Veterinarians,Sandy Hill Animal Clinic,3752 E Tropicana Ave,Las Vegas,NV,89121,702 451 8808,cherylanast@cox.net
Veterinary Services,Veterinarians ,Spencer Springs Animal Hospital,1855 E Warm Springs Rd,Las Vegas,NV,89119,702 896 9999,info@spencersprings.com
Veterinary Services,Veterinarians Pet Services,Spay and Neuter Center of Southern Nevada,3475 E Flamingo Rd Ste 500,Las Vegas,NV,89121,702 240 7729,
Veterinary Services,Veterinarians,Gentle Doctor Animal Hospital,1550 S Rainbow Blvd,Las Vegas,NV,89146,702 259 9200,
Veterinary Services,Veterinarians Pet BoardingPet Sitting, Pet Groomers,South Shores Animal Hospital,8420 W Lake Mead Blvd Ste 102,Las Vegas,NV,89128,702 255 8050,
Veterinary Services,Veterinarians ,Animal Emergency Center,,,,,,
Veterinary Services,Veterinarians,Sunrise Veterinary Clinic,417 N Eastern Avenue,Las Vegas,NV,89101,702 382 4671,
Veterinary Services,Veterinarians,South Buffalo Springs Animal Hospital,7385 S Buffalo,Las Vegas,NV,89113,702 333 1770,
Veterinary Services,Veterinarians,West Charleston Animal Hospital,7891 W Charleston Blvd,Las Vegas,NV,89117,702 362 7387,
Veterinary Services,Veterinarians,Desert Inn Animal Hospital,3065 E Desert Inn Rd,Las Vegas,NV,89121,702 763 7855,
Veterinary Services,Veterinarians,Banfield Pet Hospital,9869 S Eastern Ave,Las Vegas,NV,89183,702 312 3286,
Veterinary Services,Veterinarians,All American Animal Hospital,6795 W Flamingo Rd,Las Vegas,NV,89103,702 227 3755,
Veterinary Services,Veterinarians Pet Groomers, Pet BoardingPet Sitting,VCA Spring Mountain Animal Hospital,5590 W Spring Mountain Road,Las Vegas,NV,89146,702 625 9570,
Veterinary Services,Veterinarians,Mauer Animal Clinic,6115 W Charleston Blvd,Las Vegas,NV,89146,702 870 1011,
Veterinary Services,Veterinarians ,Lone Mountain Animal Hospital,6688 W Cheyenne Ave,Las Vegas,NV,89108,702 645 3116,lonemountain@embarqmail.com
Veterinary Services,Veterinarians,VCA Hualapai Animal Hospital,1165 S Hualapai Way,Las Vegas,NV,89117,702 789 6969,
Veterinary Services,Veterinarians,VCA Decatur Animal Hospital,1117 N Decatur Boulevard,Las Vegas,NV,89108,702 625 9189,
Veterinary Services,Veterinarians,Tropicana Animal Hospital,2385 E Tropicana Ave,Las Vegas,NV,89119,702 736 4944,
Veterinary Services,Veterinarians,Dewey Veterinary Medical Center,4800 W Dewey Dr,Las Vegas,NV,89118,702 997 8091,
Veterinary Services,Veterinarians,Banfield Pet Hospital,9775 W Charleston Blvd,Las Vegas,NV,89117,702 932 1213,
Veterinary Services,Veterinarians,South Valley Animal Hospital,11940 Southern Highlands Pkwy,Las Vegas,NV,89141,702 451 5111,SouthValleyAnimalHospitalLVNV@gmail.com
Veterinary Services,Veterinarians Pet BoardingPet Sitting,Companion Animal Hospital,8485 W Flamingo Rd,Las Vegas,NV,89147,702 254 7387,
Veterinary Services,Veterinarians Pet Groomers, Pet BoardingPet Sitting,American Pet Hospital,3879 E Sunset Rd,Las Vegas,NV,89120,702 454 7740,
Veterinary Services,Veterinarians ,VCA Nellis Animal Hospital,20 N Nellis Boulevard,Las Vegas,NV,89110,702 789 6818,
Veterinary Services,Veterinarians ,Alta Buffalo Animal Hospital,450 S Buffalo Dr Ste 118,,,,702 838 0700,
Veterinary Services,Veterinarians,Southwest Animal Hospital,6101 W Tropicana Ave,Las Vegas,NV,89103,702 367 6700,infoswah@lvcoxmail.com
Veterinary Services,Veterinarians,Veterinary Ophthalmology Service,1914 E Sahara Ave,Las Vegas,NV,89104,702 457 6523,homewardboundcats@hotmail.com.
Veterinary Services,Veterinarians,Pebble Maryland Animal Hospital,1247 E Pebble Rd,Las Vegas,NV,89123,702 407 8311,4078311@gmail.com
Veterinary Services,Veterinarians ,Las Vegas Animal Emergency Hospital,5231 W Charleston Blvd,Las Vegas,NV,89146,702 822 1045,info@lvaeh.com
Veterinary Services,Veterinarians,Summerlin Animal Hospital,8564 Del Webb Blvd,Las Vegas,NV,89134,702 255 8499,summerlinah@yahoo.com
Veterinary Services,Veterinarians Pet BoardingPet Sitting ,Pet Medical Center of Las Vegas,9140 W Sahara Ave,Las Vegas,NV,89117,702 228 4000,staff@petmedicalcenter.com
Veterinary Services,Pet BoardingPet Sitting Veterinarians, Pet Groomers,Siena Animal Hospital,5625 S Grand Canyon Dr,Las Vegas,NV,89148,702 258 0006,info@sienaanimalhospital.com
Veterinary Services,Veterinarians ,Blue Diamond Animal Hospital,8090 Blue Diamond Rd Ste 100,Las Vegas,NV,89178,702 850 5008,bdanimalhosptal@gmail.com
Veterinary Services,Veterinarians ,Park Animal Hospital,8400 S Eastern Ave,Las Vegas,NV,89123,702 361 5850,parkanimalhosp@aol.com
Veterinary Services,Veterinarians Pet Services ,Centennial Hills Animal Hospital,7551 N Cimarron Rd,Las Vegas,NV,89131,702 655 0241,CentennialHillsAH@ymail.com
Veterinary Services,Veterinarians,Sun City Animal Hospital,9320 W Lake Mead Blvd,Las Vegas,NV,89134,702 228 4411,info@suncityvet.com
Veterinary Services,Veterinarians Pet Services,Animal Allergy & Dermatology Specialists,6032 S Durango Dr Ste 100,Las Vegas,NV,89113,702 243 1885,staff@animaldermspecialists.com
Veterinary Services,Exceptional veterinary care in Las Vegas,Pecos Russell Animal Hospital,3488 E. Patrick Lane,Las Vegas,,,702 456 3848,contactus@pecosrussellah.com
Veterinary Services,Veterinarians,Carey Animal Clinic,2000 E Carey Ave,North Las Vegas,NV,89030,702 649 4291,CareyAnimalClinic@Gmail.com
Veterinary Services,Pet BoardingPet Sitting Pet Groomers,Just Like Home Doggie Hotel And Grooming,4872 W Lake Mead Blvd,Las Vegas,NV,89108,702 558 5689,info@jlhdogcare.com
Veterinary Services,Veterinarians,Veterinary Surgical Services,6995 Alamitos Cir,Las Vegas,NV,89120,702 435 1375,drbojrab@aol.com
Veterinary Services,Veterinarians,Horizon Veterinary Clinic,601 Greenway Rd,Henderson,NV,89002,702 558 4552,hznvet@hznvet.com
Veterinary Services,Pet BoardingPet Sitting Pet Groomers,The Pug Mom,,Las Vegas,NV,89117,702 862 6426,alexatakesphotos@gmail.com
Veterinary Services,Pet BoardingPet Sitting Pet Groomers,Hot Diggity Dog Daycare,3290 N Buffalo Dr,Las Vegas,NV,89129,702 728 4863,info@hotdiggitydogdaycare.com
Veterinary Services,Pet BoardingPet Sitting,Camp Bow Wow Las Vegas,5175 S Valley View Blvd,Las Vegas,NV,89118,702 255 2267,lasvegas@campbowwowusa.com
Veterinary Services,Veterinarians,Carey Animal Clinic,2000 E Carey Ave,Las Vegas,NV,89030,702 649 4291,CareyAnimalClinic@Gmail.com
Veterinary Services,Veterinarians,Banfield Pet Hospital,6650 N Durango Dr,Las Vegas,NV,89149,702 307 2596,BanfieldWebSupport@banfield.com
Veterinary Services,Pet BoardingPet Sitting Pet Groomers,Just Like Home Doggie Hotel And Grooming,4872 W Lake Mead Blvd,Las Vegas,NV,89108,702 558 5689,info@jlhdogcare.com
Veterinary Services,Veterinarians,Veterinary Surgical Services,6995 Alamitos Cir,Las Vegas,NV,89120,702 435 1375,drbojrab@aol.com
Veterinary Services,Veterinarians,Shawn D. Frehner DVM,7245 N Tenaya Way,Las Vegas,NV,89131,702 396 6188,drshawnfrehner@gmail.com
Veterinary Services,Veterinarians,Horizon Veterinary Clinic,601 Greenway Rd,Henderson,NV,89002,702 558 4552,hznvet@hznvet.com
Veterinary Services,Veterinarians,St. Rose Animal Urgent Care,3255 St Rose Pkwy,Henderson,NV,89052,702 776 7650,info@stroseauc.com
Veterinary Services,Pet Stores Pet BoardingPet Sitting ,A Puppy Paradise,1950 S. Rainbow Blvd,Las Vegas,NV,89146,702 871 3100,info@apuppyparadise.com
Veterinary Services,Pet BoardingPet Sitting Pet Groomers ,Luxe Pet Hotels,3480 Cavaretta Ct,Las Vegas,NV,89103,702 222 9220,info@luxepethotels.com
Veterinary Services,Pet BoardingPet Sitting Pet Groomers,The Pug Mom,,Las Vegas,NV,89117,702 862 6426,alexatakesphotos@gmail.com
Veterinary Services,Pet BoardingPet Sitting ,LV Dog Resort,6810 W Sahara Ave,Las Vegas,NV,89146,702 560 7387,info@lvdoghotel.com
Veterinary Services,Pet BoardingPet Sitting Pet Groomers ,Small Town Dog,3430 E Tropicana Ave,Las Vegas,NV,89121,702 750 9962,smalltowndoglv@yahoo.com
Veterinary Services,Pet BoardingPet Sitting Pet Groomers ,Hot Diggity Dog Daycare,3290 N Buffalo Dr,Las Vegas,NV,89129,702 728 4863,info@hotdiggitydogdaycare.com
Veterinary Services,Pet Stores Pet BoardingPet Sitting ,A Puppy Paradise,1950 S. Rainbow Blvd,Las Vegas,NV,89146,702 871 3100,info@apuppyparadise.com
Veterinary Services,Veterinarians,Shawn D. Frehner DVM,7245 N Tenaya Way,Las Vegas,NV,89131,702 396 6188,drshawnfrehner@gmail.com
Veterinary Services,Veterinarians Pet Groomers, Pet BoardingPet Sitting,Pecos Russell Animal Hospital,3488 E Patrick Ln,Las Vegas,NV,89120,702 456 3848,contactus@pecosrussellah.com
Veterinary Services,Veterinarians Pet Groomers, Pet BoardingPet Sitting,Legacy Animal Hospital,2591 Windmill Pkwy,Henderson,NV,89074,702 263 9004,legacyanimalhospital@yahoo.com
